{"version": 0.6, "generator": "Overpass API 0.7.62.1 084b4234", "osm3s": {"timestamp_osm_base": "2024-04-27T01:41:29Z", "copyright": "The data included in this document is from www.openstreetmap.org. The data is made available under ODbL."}, "elements": [{"type": "node", "id": 1373777954, "lat": -34.6146103, "lon": -68.3413929, "tags": {"tourism": "hotel"}}, {"type": "node", "id": 1373777958, "lat": -34.6126918, "lon": -68.3394359, "tags": {"addr:city": "San Rafael", "addr:housenumber": "760", "addr:street": "Avenida Hip\u00f3lito Yrigoyen", "email": "reservas@towersanrafael.com", "internet_access": "wlan", "name": "Hotel Tower Inn & Suites", "phone": "+542604427190", "rooms": "111", "stars": "4", "tourism": "hotel", "website": "https://www.towersanrafael.com/"}}, {"type": "node", "id": 1373777960, "lat": -34.6132437, "lon": -68.3391087, "tags": {"tourism": "hotel"}}, {"type": "node", "id": 1373777961, "lat": -34.6131874, "lon": -68.3390701, "tags": {"name": "Informaci\u00f3n Tur\u00edstica", "tourism": "information"}}, {"type": "node", "id": 1373777962, "lat": -34.6127978, "lon": -68.3385508, "tags": {"name": "Hotel Vecchia Terra", "tourism": "hotel"}}, {"type": "node", "id": 1373777964, "lat": -34.6150406, "lon": -68.3419036, "tags": {"tourism": "hotel"}}, {"type": "node", "id": 1373782325, "lat": -34.6145284, "lon": -68.3534371, "tags": {"tourism": "picnic_site"}}, {"type": "node", "id": 1373782327, "lat": -34.6149788, "lon": -68.3532225, "tags": {"tourism": "picnic_site"}}, {"type": "node", "id": 1373782331, "lat": -34.612011, "lon": -68.3506209, "tags": {"tourism": "picnic_site"}}, {"type": "node", "id": 1373782332, "lat": -34.6118265, "lon": -68.348373, "tags": {"tourism": "picnic_site"}}, {"type": "node", "id": 1373782335, "lat": -34.6108993, "lon": -68.347504, "tags": {"tourism": "picnic_site"}}, {"type": "node", "id": 1373782341, "lat": -34.6152701, "lon": -68.3553468, "tags": {"tourism": "picnic_site"}}, {"type": "node", "id": 1373797768, "lat": -34.6124308, "lon": -68.351345, "tags": {"tourism": "picnic_site"}}, {"type": "node", "id": 1373809764, "lat": -34.6113973, "lon": -68.3277946, "tags": {"tourism": "hotel"}}, {"type": "node", "id": 1373987691, "lat": -34.6244162, "lon": -68.3434691, "tags": {"tourism": "information"}}, {"type": "node", "id": 1373987699, "lat": -34.6282831, "lon": -68.3524384, "tags": {"information": "yes", "name": "Plaza", "tourism": "information"}}, {"type": "node", "id": 1543112516, "lat": -34.6465187, "lon": -68.3718058}, {"type": "node", "id": 1543112587, "lat": -34.6536855, "lon": -68.3594951}, {"type": "node", "id": 1543112613, "lat": -34.6501838, "lon": -68.373963}, {"type": "node", "id": 1543112644, "lat": -34.6494535, "lon": -68.3754677}, {"type": "node", "id": 1543112681, "lat": -34.6534043, "lon": -68.3603754}, {"type": "node", "id": 1543112714, "lat": -34.650461, "lon": -68.3722844}, {"type": "node", "id": 1543112816, "lat": -34.6530677, "lon": -68.3577034}, {"type": "node", "id": 1543112819, "lat": -34.652291, "lon": -68.365911}, {"type": "node", "id": 1543112822, "lat": -34.6522438, "lon": -68.3582029}, {"type": "node", "id": 1543112829, "lat": -34.6470903, "lon": -68.3703688}, {"type": "node", "id": 1543112876, "lat": -34.6523188, "lon": -68.363932}, {"type": "node", "id": 1543112900, "lat": -34.650472, "lon": -68.3732152}, {"type": "node", "id": 1543112906, "lat": -34.6515377, "lon": -68.3677354}, {"type": "node", "id": 1543112917, "lat": -34.6530191, "lon": -68.3616677}, {"type": "node", "id": 1543112925, "lat": -34.645153, "lon": -68.3724129}, {"type": "node", "id": 1543112948, "lat": -34.6531912, "lon": -68.3578751}, {"type": "node", "id": 1543112969, "lat": -34.6516026, "lon": -68.3666995}, {"type": "node", "id": 1543113022, "lat": -34.6532265, "lon": -68.3581862}, {"type": "node", "id": 1543113103, "lat": -34.6509016, "lon": -68.3592214}, {"type": "node", "id": 1543113198, "lat": -34.6471049, "lon": -68.3689772}, {"type": "node", "id": 1543113221, "lat": -34.6450049, "lon": -68.3728065}, {"type": "node", "id": 1543113234, "lat": -34.6524114, "lon": -68.3643183}, {"type": "node", "id": 1543113245, "lat": -34.6518819, "lon": -68.3662977}, {"type": "node", "id": 1543113247, "lat": -34.6522865, "lon": -68.3634325}, {"type": "node", "id": 1543113269, "lat": -34.6514473, "lon": -68.3587017}, {"type": "node", "id": 1543113284, "lat": -34.649716, "lon": -68.3749205}, {"type": "node", "id": 1543113289, "lat": -34.6499654, "lon": -68.3744136}, {"type": "node", "id": 1543113305, "lat": -34.6534913, "lon": -68.3586583}, {"type": "node", "id": 1543113308, "lat": -34.6448181, "lon": -68.373355}, {"type": "node", "id": 1543113335, "lat": -34.6524732, "lon": -68.36508}, {"type": "node", "id": 1543113438, "lat": -34.6457742, "lon": -68.3721985}, {"type": "node", "id": 1543113576, "lat": -34.6515686, "lon": -68.367156}, {"type": "node", "id": 1543113632, "lat": -34.6524454, "lon": -68.3655622}, {"type": "node", "id": 1734123653, "lat": -34.6448222, "lon": -68.3738625}, {"type": "node", "id": 1734123656, "lat": -34.6490214, "lon": -68.3761427}, {"type": "node", "id": 2640296672, "lat": -34.666389, "lon": -68.400905, "tags": {"contact:facebook": "https://www.facebook.com/cabanasbetelsanrafael", "contact:phone": "260 (15) 463989", "email": "alojamientoturisticobet-el@hotmail.com", "internet_access": "wlan", "internet_access:fee": "no", "name": "Caba\u00f1as Bet-el", "tourism": "chalet", "website": "http://www.cabanasbet-el.com.ar/"}}, {"type": "node", "id": 2731343572, "lat": -34.6454522, "lon": -68.3758772}, {"type": "node", "id": 2731343575, "lat": -34.6455104, "lon": -68.3753612}, {"type": "node", "id": 2731343576, "lat": -34.6455281, "lon": -68.3758753}, {"type": "node", "id": 2731343577, "lat": -34.6455378, "lon": -68.3757752}, {"type": "node", "id": 2731343578, "lat": -34.6455765, "lon": -68.3757772}, {"type": "node", "id": 2731343579, "lat": -34.6455798, "lon": -68.3753651}, {"type": "node", "id": 2731343580, "lat": -34.6455814, "lon": -68.3754475}, {"type": "node", "id": 2731343581, "lat": -34.6455814, "lon": -68.3757281}, {"type": "node", "id": 2731343584, "lat": -34.6456217, "lon": -68.3757281}, {"type": "node", "id": 2731343585, "lat": -34.6456217, "lon": -68.3757948}, {"type": "node", "id": 2731343586, "lat": -34.645633, "lon": -68.3754534}, {"type": "node", "id": 2731343588, "lat": -34.6456621, "lon": -68.3755299}, {"type": "node", "id": 2731343591, "lat": -34.6457412, "lon": -68.37563}, {"type": "node", "id": 2731343592, "lat": -34.6457514, "lon": -68.3757843}, {"type": "node", "id": 2731343593, "lat": -34.645767, "lon": -68.3755417}, {"type": "node", "id": 4102694949, "lat": -34.6154521, "lon": -68.3313804, "tags": {"name": "Hotel Kalton", "tourism": "hotel"}}, {"type": "node", "id": 4143847993, "lat": -34.6095255, "lon": -68.3488128, "tags": {"information": "office", "name": "Informador Turistico", "name:en": "Street informers", "tourism": "information"}}, {"type": "node", "id": 4378203336, "lat": -34.6410585, "lon": -68.0067441, "tags": {"addr:housenumber": "Km 354", "addr:street": "Ruta Nacional 146", "email": "cabaniaslosmara@gmail.com", "internet_access": "wlan", "name": "Caba\u00f1as Los Mara", "name:es": "Caba\u00f1as Los Mara", "operator": "Eduardo Mara", "phone": "+5402604385150", "tourism": "hotel", "website": "http://www.cabaniaslosmara.com.ar"}}, {"type": "node", "id": 4396497890, "lat": -34.6150687, "lon": -68.3450752, "tags": {"tourism": "chalet"}}, {"type": "node", "id": 4546713791, "lat": -34.6184146, "lon": -68.3271184, "tags": {"addr:housenumber": "300", "addr:postcode": "5600", "addr:street": "Barcala", "email": "totamundoshostel@gmail.com", "internet_access": "wlan", "name": "Trotamundos hostel", "opening_hours": "24/7", "operator": "Alberto", "phone": "02604432795", "tourism": "hostel", "website": "http://www.Trotamundoshostel.com.ar"}}, {"type": "node", "id": 4571677896, "lat": -34.5898338, "lon": -68.3819505, "tags": {"addr:postcode": "5600", "addr:street": "El Toledano", "internet_access": "wlan", "name": "Santiago", "name:es": "Santiago", "tourism": "apartment"}}, {"type": "node", "id": 4575315193, "lat": -34.6165402, "lon": -68.3294781, "tags": {"name": "Hotel Regional", "tourism": "hotel"}}, {"type": "node", "id": 4575489489, "lat": -34.6666509, "lon": -68.3801644, "tags": {"name": "terrain Julie et Christophe", "tourism": "caravan_site"}}, {"type": "node", "id": 4597282889, "lat": -34.6456423, "lon": -68.2673307, "tags": {"addr:housenumber": "6500", "addr:street": "Avenida Alberdi", "internet_access": "wlan", "name": "Caba\u00f1as Saint Bernard", "name:es": "Caba\u00f1as Saint Bernard", "opening_hours": "24/7", "tourism": "alpine_hut"}}, {"type": "node", "id": 4690811789, "lat": -34.6118362, "lon": -68.4015974, "tags": {"addr:housenumber": "5207", "addr:postcode": "5600", "addr:street": "Los Sauces", "internet_access": "wlan", "name": "Casa de Pablo", "name:en": "Pablo' home", "name:es": "Casa de Pablo", "tourism": "chalet"}}, {"type": "node", "id": 4731459328, "lat": -34.597914, "lon": -68.3548144, "tags": {"fixme": "Agregar m\u00e1s informaci\u00f3n", "name": "Casa de An\u00edbal", "name:es": "Casa de An\u00edbal", "tourism": "attraction"}}, {"type": "node", "id": 4795511716, "lat": -34.6128447, "lon": -68.3263964, "tags": {"artwork_type": "mural", "name": "Monumento a los caidos", "tourism": "artwork"}}, {"type": "node", "id": 4827092791, "lat": -34.6504372, "lon": -68.3734241}, {"type": "node", "id": 4827092792, "lat": -34.650472, "lon": -68.3729965}, {"type": "node", "id": 4827092793, "lat": -34.6504312, "lon": -68.3726056}, {"type": "node", "id": 4827092794, "lat": -34.6505774, "lon": -68.371943}, {"type": "node", "id": 4827092795, "lat": -34.6504395, "lon": -68.3724343}, {"type": "node", "id": 4827092796, "lat": -34.6505236, "lon": -68.3720922}, {"type": "node", "id": 4827092797, "lat": -34.6509517, "lon": -68.3710516}, {"type": "node", "id": 4888504221, "lat": -34.73406, "lon": -68.3852576, "tags": {"addr:housenumber": "700", "addr:postcode": "5603", "addr:street": "La Bodega", "email": "fundacion.integra@outlook.com", "internet_access": "wlan", "name": "Los P\u00e1mpanos", "name:es": "Los P\u00e1mpanos", "phone": "+54 260 435-3035", "tourism": "chalet"}}, {"type": "node", "id": 5004211647, "lat": -34.6237246, "lon": -68.3524364, "tags": {"addr:housenumber": "1295", "addr:street": "Avenida Ingeniero Ballofet", "description": "Apart Hotel", "name": "Tiempo Andino apart", "opening_hours": "Mo-Su 23:59-23:59", "phone": "02604420120", "tourism": "hotel", "website": "www.tiempoandino.com"}}, {"type": "node", "id": 5158194232, "lat": -34.682583, "lon": -68.3803377, "tags": {"addr:street": "Urquiza", "internet_access": "wlan", "name": "Caba\u00f1as Daniel", "tourism": "apartment"}}, {"type": "node", "id": 5200947529, "lat": -34.6184129, "lon": -68.3317345, "tags": {"name": "Intis", "tourism": "hotel"}}, {"type": "node", "id": 5269982101, "lat": -34.7036766, "lon": -68.3728404}, {"type": "node", "id": 5269982102, "lat": -34.7049122, "lon": -68.3733506}, {"type": "node", "id": 5269982103, "lat": -34.7050102, "lon": -68.373091}, {"type": "node", "id": 5269982104, "lat": -34.7037486, "lon": -68.3725987}, {"type": "node", "id": 5327993521, "lat": -34.7311847, "lon": -68.3914992, "tags": {"name": "Villa Atuel caba\u00f1a", "tourism": "apartment"}}, {"type": "node", "id": 5381852430, "lat": -34.608629, "lon": -68.333431, "tags": {"addr:housenumber": "543", "addr:street": "Av. Moreno", "name": "Caba\u00f1a Los Caldenes", "name:es": "Caba\u00f1a Los Caldenes", "tourism": "guest_house"}}, {"type": "node", "id": 5420984622, "lat": -34.60339, "lon": -68.337865, "tags": {"name": "Hospedaje Isabel", "tourism": "apartment"}}, {"type": "node", "id": 5430066822, "lat": -34.6197781, "lon": -68.3437577, "tags": {"name": "S Rafael Cornu\u00fa esq Mons de Andrea", "tourism": "apartment"}}, {"type": "node", "id": 5484284421, "lat": -34.6252559, "lon": -68.355888, "tags": {"name": "Hotel Talu San Rafael", "tourism": "hotel"}}, {"type": "node", "id": 5523267755, "lat": -34.5950624, "lon": -68.36527, "tags": {"addr:city": "Las Paredes", "addr:housenumber": "776", "addr:street": "El Cha\u00f1aral", "name": "Arco Iris", "phone": "+54 0260 4591478; +54 0260 4599906", "tourism": "chalet", "website": "http://www.cabanasarcoiris.com"}}, {"type": "node", "id": 6001570433, "lat": -34.6144777, "lon": -68.3343709, "tags": {"name": "Hotel Cerro Nevado", "tourism": "hotel"}}, {"type": "node", "id": 6001570446, "lat": -34.6157326, "lon": -68.3305474, "tags": {"name": "Hotel Rex", "tourism": "hotel"}}, {"type": "node", "id": 6036237786, "lat": -34.6037424, "lon": -68.3394821, "tags": {"addr:housenumber": "753", "addr:street": "Almirante Brown", "internet_access": "wlan", "name": "Departamentos Brown", "phone": "2604327400", "tourism": "apartment"}}, {"type": "node", "id": 6040043286, "lat": -34.6563224, "lon": -68.2391428, "tags": {"addr:street": "Rojo", "name": "Laberinto de Borges", "tourism": "attraction", "website": "https://laberintodeborges.com/"}}, {"type": "node", "id": 6050894685, "lat": -34.656164, "lon": -68.2381811, "tags": {"name": "Laberinto de Borges", "name:en": "Borges's Labirinth", "name:pt": "Labirinto de Borges", "tourism": "attraction"}}, {"type": "node", "id": 6069759105, "lat": -34.6377884, "lon": -68.3649288, "tags": {"addr:city": "San Rafael", "addr:housenumber": "s/n", "addr:postcode": "M5600", "addr:street": "Cangallo", "email": "info@cabaniaslasrocas.com.ar", "internet_access": "yes", "internet_access:fee": "no", "name": "Caba\u00f1as Las Rocas", "phone": "+54 (260) 154 576263 / +54 (260) 154 599919", "rooms": "2", "smoking": "outside", "tourism": "apartment", "website": "http://www.cabaniaslasrocas.com.ar"}}, {"type": "node", "id": 6115749986, "lat": -34.6040532, "lon": -68.3438772, "tags": {"name:fr": "le loft", "tourism": "apartment"}}, {"type": "node", "id": 6720888880, "lat": -34.608494, "lon": -68.3248596, "tags": {"addr:housenumber": "695", "addr:street": "Bernardo de Irigoyen", "name": "Hostel Rogupani", "phone": "+54 260 4428940", "tourism": "hostel", "website": "https://hostel-rogupani.negocio.site"}}, {"type": "node", "id": 6720919412, "lat": -34.6109711, "lon": -68.3304604, "tags": {"addr:housenumber": "409", "addr:street": "Comandante Salas", "name": "Flow Hostel", "phone": "+54 9 260 4805089", "tourism": "hostel"}}, {"type": "node", "id": 6720972485, "lat": -34.6051431, "lon": -68.3613299, "tags": {"addr:housenumber": "2602", "addr:street": "Avenida Hip\u00f3lito Yrigoyen", "email": "info@shantihostel.com.ar", "name": "Shanti Hostel", "phone": "+54 260 4435358", "tourism": "hostel", "website": "http://www.shantihostel.com.ar"}}, {"type": "node", "id": 6863198585, "lat": -34.763214, "lon": -68.4130828, "tags": {"addr:street": "Ruta Provincial 173", "name": "Camping movimiento familiar Cristiano", "tourism": "camp_site"}}, {"type": "node", "id": 6878649788, "lat": -34.5724355, "lon": -68.4043359, "tags": {"tourism": "chalet"}}, {"type": "node", "id": 6878650285, "lat": -34.6312858, "lon": -68.3488095, "tags": {"name": "Lautaro et Monica Workaway", "tourism": "guest_house"}}, {"type": "node", "id": 7082295189, "lat": -34.6177022, "lon": -68.4247755, "tags": {"addr:street": "Jensen", "internet_access": "wlan", "name": "TERRAZAS DEL DIAMANTE", "phone": "+5492604230234", "tourism": "apartment"}}, {"type": "node", "id": 7136900885, "lat": -34.6277265, "lon": -68.3894342, "tags": {"name": "Aceite de oliva", "tourism": "attraction"}}, {"type": "node", "id": 7870214492, "lat": -34.6127619, "lon": -68.3288432, "tags": {"addr:city": "San Rafael", "addr:housenumber": "44", "addr:postcode": "5600", "addr:street": "General Manuel Belgrano", "internet_access": "yes", "internet_access:fee": "customers", "name": "Dal\u00ed Hotel", "tourism": "hotel"}}, {"type": "node", "id": 8166643551, "lat": -34.6240509, "lon": -68.3124843, "tags": {"addr:city": "San Rafael", "addr:housenumber": "150", "addr:postcode": "5600", "addr:street": "balcarce", "description": "hospedaje para turistas, habitaciones con ba\u00f1o privado. agua caliente, calefacci\u00f3n central, espacios verdes, quincho, pileta", "email": "hostalnahuelsanrafael@gmail.com", "internet_access": "yes", "internet_access:fee": "no", "name": "hostal nahuel", "phone": "+542604316352", "rooms": "8", "tourism": "hotel"}}, {"type": "node", "id": 10695104979, "lat": -34.7706446, "lon": -68.4329959, "tags": {"addr:city": "El Nihuil", "addr:housenumber": "14000", "addr:postcode": "5603", "addr:street": "Ruta Provincial 173", "name": "EUCA Bosque aereo", "opening_hours": "Mo-Su 10:00-19:00", "operator": "Euca", "tourism": "theme_park"}}, {"type": "node", "id": 10857068295, "lat": -34.7549164, "lon": -68.4173068, "tags": {"historic": "city_gate", "name": "Arco de ingreso al Ca\u00f1\u00f3n del Atuel", "tourism": "attraction"}}, {"type": "node", "id": 11268053535, "lat": -34.613955, "lon": -68.2821424, "tags": {"name": "Quinta La Foreta", "tourism": "chalet"}}, {"type": "node", "id": 11271714285, "lat": -34.6757953, "lon": -68.2419822, "tags": {"artwork_type": "sculpture", "tourism": "artwork"}}, {"type": "node", "id": 11308836726, "lat": -34.6465224, "lon": -68.3716737, "tags": {"name": "Camping El Parador", "tourism": "camp_site"}}, {"type": "node", "id": 11308836727, "lat": -34.6467232, "lon": -68.371618}, {"type": "node", "id": 11308836728, "lat": -34.647415, "lon": -68.3683732}, {"type": "node", "id": 11308836729, "lat": -34.6483962, "lon": -68.3658163}, {"type": "node", "id": 11308836730, "lat": -34.6526745, "lon": -68.3579554}, {"type": "node", "id": 11308836731, "lat": -34.648232, "lon": -68.3664352}, {"type": "node", "id": 11308836732, "lat": -34.6527284, "lon": -68.3577792}, {"type": "node", "id": 11308836733, "lat": -34.650637, "lon": -68.3610193}, {"type": "node", "id": 11308836734, "lat": -34.6476309, "lon": -68.3673325}, {"type": "node", "id": 11308836735, "lat": -34.6489262, "lon": -68.3646027}, {"type": "node", "id": 11308836736, "lat": -34.6504181, "lon": -68.3622331}, {"type": "node", "id": 11308836737, "lat": -34.6483307, "lon": -68.3660689}, {"type": "node", "id": 11308836738, "lat": -34.6528635, "lon": -68.3576875}, {"type": "node", "id": 11308836739, "lat": -34.6507401, "lon": -68.3597672}, {"type": "node", "id": 11308836740, "lat": -34.647547, "lon": -68.3676544}, {"type": "node", "id": 11308836741, "lat": -34.6489978, "lon": -68.3635189}, {"type": "node", "id": 11308836742, "lat": -34.6505228, "lon": -68.3619947}, {"type": "node", "id": 11308836743, "lat": -34.6489059, "lon": -68.3640562}, {"type": "node", "id": 11308836744, "lat": -34.6529817, "lon": -68.3576625}, {"type": "node", "id": 11308836745, "lat": -34.6480437, "lon": -68.3667872}, {"type": "node", "id": 11308836746, "lat": -34.6489307, "lon": -68.3638022}, {"type": "node", "id": 11308836747, "lat": -34.6489107, "lon": -68.3649024}, {"type": "node", "id": 11308836748, "lat": -34.6492278, "lon": -68.3632296}, {"type": "node", "id": 11308836750, "lat": -34.6528352, "lon": -68.3625964}, {"type": "node", "id": 11308836751, "lat": -34.6468832, "lon": -68.3713538}, {"type": "node", "id": 11308836752, "lat": -34.6447715, "lon": -68.3736674}, {"type": "node", "id": 11335745809, "lat": -34.6045602, "lon": -68.3515759}, {"type": "node", "id": 11335745810, "lat": -34.6044421, "lon": -68.351364}, {"type": "node", "id": 11335745811, "lat": -34.6041882, "lon": -68.3510931}, {"type": "node", "id": 11335745812, "lat": -34.6041021, "lon": -68.3511883}, {"type": "node", "id": 11335745813, "lat": -34.6044752, "lon": -68.3516604}, {"type": "node", "id": 11639026069, "lat": -34.7627868, "lon": -68.3299471, "tags": {"name": "Balneario el Escorial", "tourism": "attraction"}}, {"type": "node", "id": 11639029069, "lat": -34.7623996, "lon": -68.3300818, "tags": {"name": "Balneario el Escorial", "tourism": "attraction"}}, {"type": "node", "id": 11840226170, "lat": -34.7762727, "lon": -68.4339318, "tags": {"addr:city": "San Rafael", "addr:housenumber": "14800", "addr:postcode": "5603", "addr:street": "Ruta Provincial 173", "email": "reservas@posadasdelangel.com.ar", "internet_access": "wlan", "internet_access:fee": "customers", "name": "Posada del Angel", "phone": "+5492604641782", "tourism": "chalet", "website": "Https://posadasdelangel.com.ar"}}, {"type": "way", "id": 140958150, "nodes": [1543112644, 1543113284, 1543113289, 1543112613, 4827092791, 1543112900, 4827092792, 4827092793, 4827092795, 1543112714, 4827092796, 4827092794, 4827092797, 1543112906, 1543113576, 1543112969, 1543113245, 1543112819, 1543113632, 1543113335, 1543113234, 1543112876, 1543113247, 11308836750, 1543112917, 1543112681, 1543112587, 1543113305, 1543113022, 1543112948, 1543112816, 11308836744, 11308836738, 11308836732, 11308836730, 1543112822, 1543113269, 1543113103, 11308836739, 11308836733, 11308836742, 11308836736, 11308836748, 11308836741, 11308836746, 11308836743, 11308836735, 11308836747, 11308836729, 11308836737, 11308836731, 11308836745, 11308836734, 11308836740, 11308836728, 1543113198, 1543112829, 11308836751, 11308836727, 1543112516, 1543113438, 1543112925, 1543113221, 1543113308, 11308836752, 1734123653, 1734123656, 1543112644], "tags": {"leisure": "park", "name": "Jard\u00edn Zoologico de San Rafael", "tourism": "zoo"}}, {"type": "way", "id": 267715114, "nodes": [2731343572, 2731343576, 2731343577, 2731343578, 2731343581, 2731343584, 2731343585, 2731343592, 2731343591, 2731343593, 2731343588, 2731343586, 2731343580, 2731343579, 2731343575, 2731343572], "tags": {"addr:city": "San Rafael", "building": "yes", "email": "museohistorianatural@sanrafael.gov.ar", "name": "Museo de Historia Natural de San Rafael", "phone": "54 02627 423095", "source": "http://www.losandes.com.ar/notas/2014/3/21/remodelan-refuncionalizan-museo-ciencias-naturales-774451.asp", "tourism": "museum", "website": "https://www.sanrafael.gov.ar/museo/", "wikidata": "Q47110906"}}, {"type": "way", "id": 545255496, "nodes": [5269982101, 5269982102, 5269982103, 5269982104, 5269982101], "tags": {"addr:city": "San Rafael", "addr:street": "Lucato", "name": "Caba\u00f1a Lunita", "phone": "0260 467-0108", "tourism": "chalet"}}, {"type": "way", "id": 1222233391, "nodes": [11335745813, 11335745812, 11335745811, 11335745810, 11335745809, 11335745813], "tags": {"building": "yes", "name": "La Vieja Usina", "tourism": "museum"}}]}