{"version": 0.6, "generator": "Overpass API 0.7.62.1 084b4234", "osm3s": {"timestamp_osm_base": "2024-04-27T00:14:45Z", "copyright": "The data included in this document is from www.openstreetmap.org. The data is made available under ODbL."}, "elements": [{"type": "node", "id": 2897130809, "lat": 24.0834952, "lon": 90.170625, "tags": {"name": "Fazlul Huq House", "tourism": "hostel"}}, {"type": "node", "id": 4454904990, "lat": 24.0517563, "lon": 90.2128607, "tags": {"highway": "rest_area", "name:en": "\u09b9\u09be\u0989\u09b8 \u0985\u09ab \u099c\u09c1\u09b2\u09b9\u09be\u09b8", "tourism": "guest_house"}}, {"type": "node", "id": 4489623389, "lat": 23.9947, "lon": 90.0424, "tags": {"addr:street": "Saturia - Baliati Rd", "name": "Baliati Palace", "name:en": "Baliati Palace- Manikganj", "opening_hours": "Tu-Sa 09:00-18:00", "tourism": "museum"}}, {"type": "node", "id": 5237535058, "lat": 24.0766436, "lon": 90.2093815, "tags": {"name": "Pathikaloy Guest House", "tourism": "guest_house"}}, {"type": "node", "id": 5696430122, "lat": 24.131399, "lon": 90.0447968, "tags": {"name:en": "Kadim Dhalla Graveyard", "tourism": "viewpoint"}}, {"type": "node", "id": 5831828585, "lat": 23.9658396, "lon": 89.9233866, "tags": {"name:en": "Purbo Teguri", "tourism": "apartment"}}, {"type": "node", "id": 8198383765, "lat": 24.0925134, "lon": 90.1720359, "tags": {"tourism": "hotel"}}, {"type": "node", "id": 9365732051, "lat": 24.0205647, "lon": 89.9902644, "tags": {"name": "Pakutia Zamindar Bari", "tourism": "attraction"}}, {"type": "node", "id": 9845810429, "lat": 24.0049583, "lon": 90.1245766, "tags": {"name": "Shaitta Banyan Tree", "name:bn": "\u09b7\u09be\u0987\u099f\u09cd\u099f\u09be \u09ac\u099f\u0997\u09be\u099b", "name:es": "Baniano Shaitta", "tourism": "attraction"}}]}