{"version": 0.6, "generator": "Overpass API 0.7.62.1 084b4234", "osm3s": {"timestamp_osm_base": "2024-04-27T00:14:45Z", "copyright": "The data included in this document is from www.openstreetmap.org. The data is made available under ODbL."}, "elements": [{"type": "node", "id": 4164442490, "lat": 23.7597784, "lon": 89.9209695, "tags": {"name": "BADHAN's HOME", "tourism": "guest_house"}}, {"type": "node", "id": 4164445989, "lat": 23.7597863, "lon": 89.9209201, "tags": {"internet_access": "wlan", "name": "BADHAN 's HOME ", "opening_hours": "24/7", "tourism": "guest_house"}}, {"type": "node", "id": 4348153589, "lat": 23.8568429, "lon": 90.0003673}, {"type": "node", "id": 4348153590, "lat": 23.8566908, "lon": 90.0002892}, {"type": "node", "id": 4348153592, "lat": 23.856507, "lon": 90.000445}, {"type": "node", "id": 4348154832, "lat": 23.856499, "lon": 90.0003275}, {"type": "node", "id": 4729207190, "lat": 23.6164453, "lon": 90.0605386, "tags": {"name:en": "Moinat ghat", "tourism": "attraction"}}, {"type": "node", "id": 5304943508, "lat": 23.8610108, "lon": 90.0007199}, {"type": "node", "id": 5304943509, "lat": 23.8609687, "lon": 90.0014028}, {"type": "node", "id": 5304943510, "lat": 23.8605066, "lon": 90.0013736}, {"type": "node", "id": 5304943511, "lat": 23.8605247, "lon": 90.0010153}, {"type": "node", "id": 5304943512, "lat": 23.8609081, "lon": 90.0010385}, {"type": "node", "id": 5304943513, "lat": 23.8609245, "lon": 90.0007147}, {"type": "node", "id": 5511958721, "lat": 23.8544751, "lon": 90.0026173, "tags": {"addr:housenumber": "54/2", "addr:postcode": "1800", "addr:street": "Beutha Road", "name:en": "Nabab Manjil", "operator": "Md. Nowab Ali", "tourism": "apartment"}}, {"type": "node", "id": 5536183427, "lat": 23.8546749, "lon": 90.0023774, "tags": {"addr:housenumber": "54/2", "addr:postcode": "1800", "addr:street": "Beutha Road", "internet_access": "wlan", "name:en": "Nabab Manjil", "operator": "Nowab Ali", "tourism": "apartment"}}, {"type": "node", "id": 5583682722, "lat": 23.8545392, "lon": 90.0021049, "tags": {"addr:housenumber": "54/2", "addr:postcode": "1800", "addr:street": "Beutha Road", "name:en": "Nabab Manjil", "operator": "Md.Nowab Ali", "tourism": "apartment"}}, {"type": "node", "id": 5757802922, "lat": 23.748114, "lon": 89.92176, "tags": {"tourism": "museum"}}, {"type": "node", "id": 6274223842, "lat": 23.8162309, "lon": 90.1145293, "tags": {"name": "Parvez Ali", "name:bn": "\u09aa\u09be\u09b0\u09ad\u09c7\u099c \u0986\u09b2\u09c0", "tourism": "yes"}}, {"type": "node", "id": 6362265386, "lat": 23.8546824, "lon": 90.0027192, "tags": {"addr:housenumber": "54/2", "addr:postcode": "1800", "addr:street": "Beutha Road", "name:en": "Nabab Manjil", "operator": "Md. Nowab Ali", "tourism": "apartment"}}, {"type": "node", "id": 6579805086, "lat": 23.8610766, "lon": 90.0021421, "tags": {"name:en": "City Hotel", "tourism": "hotel"}}, {"type": "node", "id": 7391263285, "lat": 23.6424197, "lon": 90.2060281, "tags": {"addr:city": "Agla", "addr:housenumber": "Megula - Jalalpur - Gobindapur - Tikorpur Rd", "addr:postcode": "1323", "addr:street": "Z8204", "artist_name": "local artist", "artwork_type": "sculpture", "description": "It is a patriot symbol.", "information": "history", "material": "concrete", "name": "Noadda primary school shohid minar", "operator": "Noadda primary school", "tourism": "information"}}, {"type": "node", "id": 7393892971, "lat": 23.833973, "lon": 89.9837453, "tags": {"addr:city": "Manikganj", "addr:postcode": "1800", "guest_house": "groupaccomodation", "internet_access": "yes", "name": "Teachers' Quarter, Kaniz Fatema Girls' School & College", "operator": "Quazi Abedin Welfare Trust", "tourism": "hostel"}}, {"type": "node", "id": 7581592935, "lat": 23.845607, "lon": 90.1986538, "tags": {"information": "map", "tourism": "information"}}, {"type": "node", "id": 8349888955, "lat": 23.6206409, "lon": 90.06721, "tags": {"addr:city": "Dohar", "addr:postcode": "1330", "addr:street": "Kartikpur - Moinot Ghat Road", "name": "Moinot Ghat", "source": "Maxar Premium Imagery (Beta), Field Mapping", "tourism": "attraction"}}, {"type": "node", "id": 9866785534, "lat": 23.6392955, "lon": 90.1124228, "tags": {"museum": "history", "name": "Poddar Bari Liberation War Museum", "tourism": "museum"}}, {"type": "node", "id": 10580643973, "lat": 23.8568246, "lon": 90.0002747}, {"type": "way", "id": 436982393, "nodes": [4348153589, 10580643973, 4348153590, 4348154832, 4348153592, 4348153589], "tags": {"addr:city": "manikganj", "addr:street": "bewtha road", "building": "yes", "building:levels": "2", "name": "Circuit House Manikganj", "tourism": "guest_house"}}, {"type": "way", "id": 549171521, "nodes": [5304943508, 5304943509, 5304943510, 5304943511, 5304943512, 5304943513, 5304943508], "tags": {"leisure": "park", "name": "Muktizoddha Shishu Park, Manikganj", "tourism": "attraction"}}]}