{"version": 0.6, "generator": "Overpass API 0.7.62.1 084b4234", "osm3s": {"timestamp_osm_base": "2024-04-27T01:33:06Z", "copyright": "The data included in this document is from www.openstreetmap.org. The data is made available under ODbL."}, "elements": [{"type": "node", "id": 3745149656, "lat": 24.1080461, "lon": 90.7551054}, {"type": "node", "id": 3745149657, "lat": 24.1080155, "lon": 90.75529}, {"type": "node", "id": 3745149658, "lat": 24.1079028, "lon": 90.7552675}, {"type": "node", "id": 3745149659, "lat": 24.1079334, "lon": 90.7550829}, {"type": "node", "id": 3745149837, "lat": 24.1080734, "lon": 90.7544131}, {"type": "node", "id": 3745149838, "lat": 24.1080056, "lon": 90.7547419}, {"type": "node", "id": 3745149839, "lat": 24.1078155, "lon": 90.7546948}, {"type": "node", "id": 3745149840, "lat": 24.1078833, "lon": 90.7543661}, {"type": "node", "id": 3745156225, "lat": 24.1082921, "lon": 90.7553876}, {"type": "node", "id": 3745156226, "lat": 24.1082545, "lon": 90.7555763}, {"type": "node", "id": 3745156227, "lat": 24.1078704, "lon": 90.7554844}, {"type": "node", "id": 3745156228, "lat": 24.107908, "lon": 90.7552957}, {"type": "node", "id": 4491969589, "lat": 24.0397759, "lon": 90.6444252, "tags": {"name:en": "Rawnat,Kapasia", "tourism": "viewpoint"}}, {"type": "node", "id": 4682641795, "lat": 24.0468243, "lon": 91.0200077, "tags": {"name:en": "apscl rest house", "tourism": "guest_house"}}, {"type": "node", "id": 4682642105, "lat": 24.0488844, "lon": 91.0218045, "tags": {"name:en": "b-type colony", "tourism": "guest_house"}}, {"type": "node", "id": 4761651221, "lat": 24.1049415, "lon": 90.7297248, "tags": {"name:en": "Anik's House (\u0985\u09a8\u09bf\u0995\u09c7\u09b0 \u09ac\u09be\u09b8\u09be)", "tourism": "guest_house"}}, {"type": "node", "id": 5174130078, "lat": 24.0352633, "lon": 91.0140746, "tags": {"addr:city": "Dhaka - Sylhet Hwy", "name": "Hazi Sultan Hotel", "tourism": "hotel"}}, {"type": "node", "id": 5174131972, "lat": 24.0369949, "lon": 91.0099607, "tags": {"addr:city": "Dhaka - Sylhet Hwy", "name": "Hotel Ujan Vati & Resort \u0989\u099c\u09be\u09a8 \u09ad\u09be\u099f\u09bf \u09b0\u09bf\u09b8\u09cb\u09b0\u09cd\u099f", "tourism": "hotel"}}, {"type": "node", "id": 5174143922, "lat": 24.0415717, "lon": 90.9999602, "tags": {"addr:city": "Ashuganj", "name": "\u09b9\u09cb\u099f\u09c7\u09b2 \u0985\u09b9\u09a8\u09be", "name:en": "Hotel Ahana \u09b9\u09cb\u099f\u09c7\u09b2 \u0985\u09b9\u09a8\u09be", "tourism": "hotel"}}, {"type": "node", "id": 5174156122, "lat": 24.0470449, "lon": 90.9924285, "tags": {"addr:city": "Dhaka - Sylhet Hwy", "name": "\u09ae\u09c7\u0998\u09a8\u09be \u09a8\u09a6\u09c0\u09b0 \u09aa\u09be\u09dc", "name:en": "Meghna River Bank \u09ae\u09c7\u0998\u09a8\u09be \u09a8\u09a6\u09c0\u09b0 \u09aa\u09be\u09a1\u09bc", "tourism": "attraction"}}, {"type": "node", "id": 5174295336, "lat": 24.0545617, "lon": 90.9835665, "tags": {"addr:city": "Dhaka-Sylhet Highway", "name": "\u098f\u09a8 \u098f \u09b8\u09be\u0988\u09ab\u09c7\u09b0 \u09b8\u09ae\u09cd\u09aa\u09a4\u09cd\u09a4\u09bf", "name:bn": "\u098f\u09a8 \u098f \u09b8\u09be\u0988\u09ab\u09c7\u09b0 \u09b8\u09ae\u09cd\u09aa\u09a4\u09cd\u09a4\u09bf", "name:en": "N.A Sayeef's Property", "tourism": "guest_house"}}, {"type": "node", "id": 5174353268, "lat": 24.0550509, "lon": 90.9822978, "tags": {"addr:city": "Dhaka-Sylhet Highway", "name": "\u09b9\u09cb\u099f\u09c7\u09b2 \u0986\u09b2-\u099c\u09bf\u09b9\u09be\u09a6", "name:bn": "\u09b9\u09cb\u099f\u09c7\u09b2 \u0986\u09b2-\u099c\u09bf\u09b9\u09be\u09a6", "name:en": "Hotel Al-Jihad", "tourism": "hotel"}}, {"type": "node", "id": 5175739655, "lat": 24.0572401, "lon": 90.9542795, "tags": {"addr:city": "Dhaka - Sylhet Hwy", "name": "Nilkuthi \u09a8\u09c0\u09b2 \u0995\u09c1\u09a0\u09c0", "tourism": "guest_house"}}, {"type": "node", "id": 5175742476, "lat": 24.0567238, "lon": 90.9431236, "tags": {"addr:city": "Musa Hazir Bari, Raipura,, Mirzapur, Norsingdi, Dhaka - Sylhet Hwy,", "name": "Maa Santi Nibash, Raipura Norsingdi", "tourism": "hotel"}}, {"type": "node", "id": 6068395608, "lat": 24.0416208, "lon": 91.0123415, "tags": {"name": "\u09aa\u09cd\u09b0\u09b6\u09bf\u0995\u09cd\u09b7\u09a3 \u0995\u09c7\u09a8\u09cd\u09a6\u09cd\u09b0 \u09ac\u09be\u09b2\u0995 \u09b9\u09b2", "name:bn": "\u09aa\u09cd\u09b0\u09b6\u09bf\u0995\u09cd\u09b7\u09a3 \u0995\u09c7\u09a8\u09cd\u09a6\u09cd\u09b0 \u09ac\u09be\u09b2\u0995 \u09b9\u09b2", "name:en": "Apscl Training Center Boys Hall", "tourism": "hostel"}}, {"type": "node", "id": 6068405545, "lat": 24.041385, "lon": 91.0140212}, {"type": "node", "id": 6068405546, "lat": 24.0410127, "lon": 91.0142948}, {"type": "node", "id": 6068405547, "lat": 24.0408645, "lon": 91.0140614}, {"type": "node", "id": 6068405548, "lat": 24.0412595, "lon": 91.0137945}, {"type": "node", "id": 6152945044, "lat": 24.1973839, "lon": 90.9157732, "tags": {"name": "Majedul Islam Hall", "tourism": "hostel"}}, {"type": "node", "id": 6152945698, "lat": 24.2009399, "lon": 90.917117, "tags": {"name": "Alhajj Murshid Uddin Hall", "tourism": "hostel"}}, {"type": "node", "id": 6807632722, "lat": 24.3275479, "lon": 90.6801036, "tags": {"addr:subdistrict": "Pakundia", "name": "Zila Parishad Dak Banglo", "operator": "Zila Parishad", "tourism": "guest_house"}}, {"type": "node", "id": 7388254552, "lat": 24.0470148, "lon": 90.9863606, "tags": {"addr:city": "Bhairab, Kishoregonj", "addr:postcode": "2350", "addr:street": "Bangabandhu Sharani", "name": "Hotel Asia", "tourism": "hotel"}}, {"type": "node", "id": 7459520152, "lat": 24.2188153, "lon": 90.7510432, "tags": {"name": "Masum-Mamun Store", "tourism": "hotel"}}, {"type": "node", "id": 7459520153, "lat": 24.2190519, "lon": 90.7512694, "tags": {"name": "Mahida-Mahiya Hotel", "tourism": "hotel"}}, {"type": "node", "id": 7459556377, "lat": 24.2310794, "lon": 90.7366382, "tags": {"name": "Oise-Onno Mistanno Vandar", "tourism": "hotel"}}, {"type": "node", "id": 7470522156, "lat": 24.1086874, "lon": 90.754974}, {"type": "node", "id": 7470522157, "lat": 24.1086434, "lon": 90.7552798}, {"type": "node", "id": 7470522158, "lat": 24.1084573, "lon": 90.7552503}, {"type": "node", "id": 7470522159, "lat": 24.1084842, "lon": 90.7551457}, {"type": "node", "id": 7470522160, "lat": 24.1085993, "lon": 90.7551672}, {"type": "node", "id": 7470522161, "lat": 24.1086262, "lon": 90.754966}, {"type": "node", "id": 7470719735, "lat": 24.1997323, "lon": 90.7822994}, {"type": "node", "id": 7470719736, "lat": 24.1997005, "lon": 90.7823638}, {"type": "node", "id": 7470719737, "lat": 24.1998669, "lon": 90.7824563}, {"type": "node", "id": 7470719738, "lat": 24.1999024, "lon": 90.7823892}, {"type": "node", "id": 7613075529, "lat": 24.0388204, "lon": 90.7370492, "tags": {"air_conditioning": "yes", "guest_house": "guest_house", "internet_access": "no", "name": "Shibpur Dak Bunglow", "name:bn": "\u09b6\u09bf\u09ac\u09aa\u09c1\u09b0 \u09a1\u09be\u0995 \u09ac\u09be\u0982\u09b2\u09cb", "operator": "Government", "rooms": "8", "tourism": "guest_house"}}, {"type": "way", "id": 370830238, "nodes": [3745149837, 3745149838, 3745149839, 3745149840, 3745149837], "tags": {"building": "yes", "name": "Pnach Kandi College Boys Hostel", "tourism": "hostel"}}, {"type": "way", "id": 370830567, "nodes": [3745149656, 3745149657, 3745149658, 3745149659, 3745149656], "tags": {"building": "yes", "name": "Panch Kandi college Girls Hostel", "tourism": "hostel"}}, {"type": "way", "id": 370831127, "nodes": [3745156225, 3745156226, 3745156227, 3745156228, 3745156225], "tags": {"building": "yes", "name": "Panch Kandi College Girls Hostel", "tourism": "hostel"}}, {"type": "way", "id": 645609020, "nodes": [6068405548, 6068405547, 6068405546, 6068405545, 6068405548], "tags": {"name": "Apscl \u09aa\u09be\u09b0\u09cd\u0995", "name:en": "Apscl Park", "tourism": "theme_park"}}, {"type": "way", "id": 798788361, "nodes": [7470522156, 7470522157, 7470522158, 7470522159, 7470522160, 7470522161, 7470522156], "tags": {"building": "yes", "name": "Boys Hostel PDC", "tourism": "hostel"}}, {"type": "way", "id": 798811058, "nodes": [7470719735, 7470719736, 7470719737, 7470719738, 7470719735], "tags": {"building": "yes", "tourism": "hostel"}}]}