{"version": 0.6, "generator": "Overpass API 0.7.62.1 084b4234", "osm3s": {"timestamp_osm_base": "2024-04-27T01:33:06Z", "copyright": "The data included in this document is from www.openstreetmap.org. The data is made available under ODbL."}, "elements": [{"type": "node", "id": 2426583047, "lat": 23.6016539, "lon": 89.8311206, "tags": {"name": "Hotel Park Plaza", "tourism": "hotel"}}, {"type": "node", "id": 3615077017, "lat": 23.6053038, "lon": 89.8422241}, {"type": "node", "id": 3615077018, "lat": 23.6053889, "lon": 89.8424309}, {"type": "node", "id": 3615077019, "lat": 23.6051316, "lon": 89.8425322}, {"type": "node", "id": 3615077020, "lat": 23.6050636, "lon": 89.8423495}, {"type": "node", "id": 4164442490, "lat": 23.7597784, "lon": 89.9209695, "tags": {"name": "BADHAN's HOME", "tourism": "guest_house"}}, {"type": "node", "id": 4164445989, "lat": 23.7597863, "lon": 89.9209201, "tags": {"internet_access": "wlan", "name": "BADHAN 's HOME ", "opening_hours": "24/7", "tourism": "guest_house"}}, {"type": "node", "id": 4348153589, "lat": 23.8568429, "lon": 90.0003673}, {"type": "node", "id": 4348153590, "lat": 23.8566908, "lon": 90.0002892}, {"type": "node", "id": 4348153592, "lat": 23.856507, "lon": 90.000445}, {"type": "node", "id": 4348154832, "lat": 23.856499, "lon": 90.0003275}, {"type": "node", "id": 4729207190, "lat": 23.6164453, "lon": 90.0605386, "tags": {"name:en": "Moinat ghat", "tourism": "attraction"}}, {"type": "node", "id": 4756639234, "lat": 23.5989768, "lon": 89.8277584, "tags": {"addr:street": "Dhaka - Khulna Hwy", "internet_access": "wlan", "name:en": "Hotel Rajstan", "tourism": "hotel"}}, {"type": "node", "id": 4756644128, "lat": 23.6019102, "lon": 89.8294874, "tags": {"name:en": "Hotel Rajstan", "tourism": "hotel"}}, {"type": "node", "id": 5176055317, "lat": 23.5822078, "lon": 89.7951364, "tags": {"name": "Jui House", "tourism": "guest_house"}}, {"type": "node", "id": 5176103442, "lat": 23.5916176, "lon": 89.8146959}, {"type": "node", "id": 5176103443, "lat": 23.5912475, "lon": 89.8147783}, {"type": "node", "id": 5176103444, "lat": 23.5912678, "lon": 89.8148654}, {"type": "node", "id": 5176103445, "lat": 23.5916394, "lon": 89.8147846}, {"type": "node", "id": 5176106478, "lat": 23.5917998, "lon": 89.8144738}, {"type": "node", "id": 5176106479, "lat": 23.5919645, "lon": 89.8143746}, {"type": "node", "id": 5176106480, "lat": 23.5920014, "lon": 89.8144322}, {"type": "node", "id": 5176106481, "lat": 23.5918404, "lon": 89.8145342}, {"type": "node", "id": 5179258210, "lat": 23.5992129, "lon": 89.8260007}, {"type": "node", "id": 5179258211, "lat": 23.5991012, "lon": 89.8260515}, {"type": "node", "id": 5179258212, "lat": 23.5991514, "lon": 89.8261714}, {"type": "node", "id": 5179258213, "lat": 23.5992632, "lon": 89.8261104}, {"type": "node", "id": 5179263522, "lat": 23.5992856, "lon": 89.8261531}, {"type": "node", "id": 5179263523, "lat": 23.5991757, "lon": 89.8262121}, {"type": "node", "id": 5179263524, "lat": 23.5992204, "lon": 89.8262873}, {"type": "node", "id": 5179263525, "lat": 23.5993247, "lon": 89.8262283}, {"type": "node", "id": 5179263632, "lat": 23.5993806, "lon": 89.8263056}, {"type": "node", "id": 5179263633, "lat": 23.5992315, "lon": 89.826395}, {"type": "node", "id": 5179263634, "lat": 23.5991906, "lon": 89.8263096}, {"type": "node", "id": 5179283295, "lat": 23.6016429, "lon": 89.8329858}, {"type": "node", "id": 5179283296, "lat": 23.6018076, "lon": 89.8328933}, {"type": "node", "id": 5179283297, "lat": 23.6017511, "lon": 89.8327927}, {"type": "node", "id": 5179283298, "lat": 23.6015888, "lon": 89.8328959}, {"type": "node", "id": 5179287195, "lat": 23.6017781, "lon": 89.8331999}, {"type": "node", "id": 5179287196, "lat": 23.6017387, "lon": 89.8331436}, {"type": "node", "id": 5179287197, "lat": 23.6019956, "lon": 89.8330001}, {"type": "node", "id": 5179287198, "lat": 23.6020226, "lon": 89.8330537}, {"type": "node", "id": 5179605765, "lat": 23.6040277, "lon": 89.8358391}, {"type": "node", "id": 5179605766, "lat": 23.6038519, "lon": 89.8359679}, {"type": "node", "id": 5179605767, "lat": 23.6039035, "lon": 89.8360403}, {"type": "node", "id": 5179605768, "lat": 23.6040694, "lon": 89.8359008}, {"type": "node", "id": 5179611049, "lat": 23.603933, "lon": 89.8357359}, {"type": "node", "id": 5179611050, "lat": 23.6037573, "lon": 89.8358941}, {"type": "node", "id": 5179611051, "lat": 23.6038015, "lon": 89.8359464}, {"type": "node", "id": 5179611052, "lat": 23.6039773, "lon": 89.8357868}, {"type": "node", "id": 5179615658, "lat": 23.604293, "lon": 89.8359651}, {"type": "node", "id": 5179615659, "lat": 23.6044072, "lon": 89.8358256}, {"type": "node", "id": 5179615660, "lat": 23.6045056, "lon": 89.8359289}, {"type": "node", "id": 5179615661, "lat": 23.6043925, "lon": 89.836063}, {"type": "node", "id": 5179645054, "lat": 23.608302, "lon": 89.8411222}, {"type": "node", "id": 5179645055, "lat": 23.6078289, "lon": 89.8413435}, {"type": "node", "id": 5179645056, "lat": 23.6078768, "lon": 89.8414548}, {"type": "node", "id": 5179645057, "lat": 23.60827, "lon": 89.8412631}, {"type": "node", "id": 5179645058, "lat": 23.6083081, "lon": 89.8413422}, {"type": "node", "id": 5179645059, "lat": 23.6083942, "lon": 89.841302}, {"type": "node", "id": 5179678350, "lat": 23.6078015, "lon": 89.8445132}, {"type": "node", "id": 5179678351, "lat": 23.6076021, "lon": 89.8447273}, {"type": "node", "id": 5179678352, "lat": 23.6079458, "lon": 89.8451467}, {"type": "node", "id": 5179678353, "lat": 23.6081842, "lon": 89.8449096}, {"type": "node", "id": 5304943508, "lat": 23.8610108, "lon": 90.0007199}, {"type": "node", "id": 5304943509, "lat": 23.8609687, "lon": 90.0014028}, {"type": "node", "id": 5304943510, "lat": 23.8605066, "lon": 90.0013736}, {"type": "node", "id": 5304943511, "lat": 23.8605247, "lon": 90.0010153}, {"type": "node", "id": 5304943512, "lat": 23.8609081, "lon": 90.0010385}, {"type": "node", "id": 5304943513, "lat": 23.8609245, "lon": 90.0007147}, {"type": "node", "id": 5511958721, "lat": 23.8544751, "lon": 90.0026173, "tags": {"addr:housenumber": "54/2", "addr:postcode": "1800", "addr:street": "Beutha Road", "name:en": "Nabab Manjil", "operator": "Md. Nowab Ali", "tourism": "apartment"}}, {"type": "node", "id": 5536183427, "lat": 23.8546749, "lon": 90.0023774, "tags": {"addr:housenumber": "54/2", "addr:postcode": "1800", "addr:street": "Beutha Road", "internet_access": "wlan", "name:en": "Nabab Manjil", "operator": "Nowab Ali", "tourism": "apartment"}}, {"type": "node", "id": 5583682722, "lat": 23.8545392, "lon": 90.0021049, "tags": {"addr:housenumber": "54/2", "addr:postcode": "1800", "addr:street": "Beutha Road", "name:en": "Nabab Manjil", "operator": "Md.Nowab Ali", "tourism": "apartment"}}, {"type": "node", "id": 5757802922, "lat": 23.748114, "lon": 89.92176, "tags": {"tourism": "museum"}}, {"type": "node", "id": 5786203159, "lat": 23.6364108, "lon": 89.7535566, "tags": {"name:en": "Aziz Pipe Mosque", "tourism": "attraction"}}, {"type": "node", "id": 5831828585, "lat": 23.9658396, "lon": 89.9233866, "tags": {"name:en": "Purbo Teguri", "tourism": "apartment"}}, {"type": "node", "id": 6247303885, "lat": 23.6022063, "lon": 89.8139529, "tags": {"name:en": "Rodela Nir, Raghunandanpur, Faridpur.", "tourism": "viewpoint"}}, {"type": "node", "id": 6274223842, "lat": 23.8162309, "lon": 90.1145293, "tags": {"name": "Parvez Ali", "name:bn": "\u09aa\u09be\u09b0\u09ad\u09c7\u099c \u0986\u09b2\u09c0", "tourism": "yes"}}, {"type": "node", "id": 6362265386, "lat": 23.8546824, "lon": 90.0027192, "tags": {"addr:housenumber": "54/2", "addr:postcode": "1800", "addr:street": "Beutha Road", "name:en": "Nabab Manjil", "operator": "Md. Nowab Ali", "tourism": "apartment"}}, {"type": "node", "id": 6579382685, "lat": 23.5920347, "lon": 89.8155924, "tags": {"tourism": "hotel"}}, {"type": "node", "id": 6579805086, "lat": 23.8610766, "lon": 90.0021421, "tags": {"name:en": "City Hotel", "tourism": "hotel"}}, {"type": "node", "id": 6976978485, "lat": 23.6012872, "lon": 89.8309446, "tags": {"internet_access": "wlan", "name:en": "Hotel Royal Palace", "tourism": "hotel"}}, {"type": "node", "id": 7393892971, "lat": 23.833973, "lon": 89.9837453, "tags": {"addr:city": "Manikganj", "addr:postcode": "1800", "guest_house": "groupaccomodation", "internet_access": "yes", "name": "Teachers' Quarter, Kaniz Fatema Girls' School & College", "operator": "Quazi Abedin Welfare Trust", "tourism": "hostel"}}, {"type": "node", "id": 8349888955, "lat": 23.6206409, "lon": 90.06721, "tags": {"addr:city": "Dohar", "addr:postcode": "1330", "addr:street": "Kartikpur - Moinot Ghat Road", "name": "Moinot Ghat", "source": "Maxar Premium Imagery (Beta), Field Mapping", "tourism": "attraction"}}, {"type": "node", "id": 8677125027, "lat": 23.6016847, "lon": 89.8416822}, {"type": "node", "id": 8677125028, "lat": 23.6016976, "lon": 89.8417087}, {"type": "node", "id": 8677125029, "lat": 23.6017015, "lon": 89.8417384}, {"type": "node", "id": 8677125030, "lat": 23.6015601, "lon": 89.8417921}, {"type": "node", "id": 8677125031, "lat": 23.601547, "lon": 89.8417683}, {"type": "node", "id": 8677125032, "lat": 23.6015414, "lon": 89.8417413}, {"type": "node", "id": 8677125033, "lat": 23.6015439, "lon": 89.8417137}, {"type": "node", "id": 8677125034, "lat": 23.601696, "lon": 89.8417677}, {"type": "node", "id": 8677125035, "lat": 23.6016817, "lon": 89.8417934}, {"type": "node", "id": 8677125036, "lat": 23.6016603, "lon": 89.8418122}, {"type": "node", "id": 8677125037, "lat": 23.6016344, "lon": 89.8418221}, {"type": "node", "id": 8677125038, "lat": 23.6016069, "lon": 89.8418218}, {"type": "node", "id": 8677125039, "lat": 23.6015811, "lon": 89.8418114}, {"type": "node", "id": 8677125040, "lat": 23.6015541, "lon": 89.8416883}, {"type": "node", "id": 8677125041, "lat": 23.601571, "lon": 89.8416677}, {"type": "node", "id": 8677125042, "lat": 23.6015931, "lon": 89.841654}, {"type": "node", "id": 8677125043, "lat": 23.6016179, "lon": 89.8416484}, {"type": "node", "id": 8677125044, "lat": 23.6016432, "lon": 89.8416516}, {"type": "node", "id": 8677125045, "lat": 23.6016662, "lon": 89.8416632}, {"type": "node", "id": 9365663771, "lat": 23.8701436, "lon": 89.7758752, "tags": {"name": "Teota Jamidar Bari", "tourism": "attraction"}}, {"type": "node", "id": 9782031423, "lat": 23.6050091, "lon": 90.0897761, "tags": {"access": "yes", "addr:city": "Dhaka", "addr:postcode": "1330", "addr:street": "Hajarbigha, Char Mohammadpur, Dohar", "capacity:persons": "100", "name": "GoCamp - Dohar Campsite and Activity Zone", "operator": "GoCamp", "tourism": "camp_site"}}, {"type": "node", "id": 9782035920, "lat": 23.6049688, "lon": 90.0892651}, {"type": "node", "id": 9782035921, "lat": 23.6044661, "lon": 90.0896969}, {"type": "node", "id": 9782035922, "lat": 23.6047677, "lon": 90.0902951}, {"type": "node", "id": 9782035923, "lat": 23.6052671, "lon": 90.0900544}, {"type": "node", "id": 9782035924, "lat": 23.6054293, "lon": 90.0899659}, {"type": "node", "id": 9782035925, "lat": 23.6052704, "lon": 90.0894917}, {"type": "node", "id": 9866785534, "lat": 23.6392955, "lon": 90.1124228, "tags": {"museum": "history", "name": "Poddar Bari Liberation War Museum", "tourism": "museum"}}, {"type": "node", "id": 10580643973, "lat": 23.8568246, "lon": 90.0002747}, {"type": "node", "id": 11283006577, "lat": 23.5857334, "lon": 90.1293931}, {"type": "node", "id": 11283006578, "lat": 23.5858233, "lon": 90.129797}, {"type": "node", "id": 11283006579, "lat": 23.585864, "lon": 90.1297877}, {"type": "node", "id": 11283006580, "lat": 23.5859324, "lon": 90.1297574}, {"type": "node", "id": 11283006581, "lat": 23.5859752, "lon": 90.1297223}, {"type": "node", "id": 11283006582, "lat": 23.5860544, "lon": 90.1296756}, {"type": "node", "id": 11283006583, "lat": 23.5861357, "lon": 90.1296032}, {"type": "node", "id": 11283006584, "lat": 23.5861657, "lon": 90.1295822}, {"type": "node", "id": 11283006585, "lat": 23.5861421, "lon": 90.1294491}, {"type": "node", "id": 11283006586, "lat": 23.5860715, "lon": 90.1292927}, {"type": "node", "id": 11283006587, "lat": 23.5860445, "lon": 90.1291872}, {"type": "node", "id": 11283006588, "lat": 23.5858116, "lon": 90.1292861}, {"type": "node", "id": 11283006589, "lat": 23.5857256, "lon": 90.1293225}, {"type": "node", "id": 11283006590, "lat": 23.5857097, "lon": 90.1293293}, {"type": "way", "id": 356025462, "nodes": [3615077017, 3615077018, 3615077019, 3615077020, 3615077017], "tags": {"building": "yes", "name": "\u09ab\u09b0\u09bf\u09a6\u09aa\u09c1\u09b0 \u099c\u09be\u09a6\u09c1\u0998\u09b0", "name:en": "Faridpur Museum", "tourism": "museum", "wikidata": "Q118465114", "wikimedia_commons": "Category:Faridpur Museum"}}, {"type": "way", "id": 436982393, "nodes": [4348153589, 10580643973, 4348153590, 4348154832, 4348153592, 4348153589], "tags": {"addr:city": "manikganj", "addr:street": "bewtha road", "building": "yes", "building:levels": "2", "name": "Circuit House Manikganj", "tourism": "guest_house"}}, {"type": "way", "id": 533549031, "nodes": [5176103442, 5176103443, 5176103444, 5176103445, 5176103442], "tags": {"building": "yes", "name": "Hotel Sundarban \u09b9\u09cb\u099f\u09c7\u09b2 \u09b8\u09c1\u09a8\u09cd\u09a6\u09b0\u09ac\u09a8", "tourism": "hotel"}}, {"type": "way", "id": 533549563, "nodes": [5176106478, 5176106479, 5176106480, 5176106481, 5176106478], "tags": {"building": "yes", "name": "Hotel Himaloy \u09b9\u09cb\u099f\u09c7\u09b2 \u09b9\u09bf\u09ae\u09be\u09b2\u09af\u09bc", "tourism": "hotel"}}, {"type": "way", "id": 533929088, "nodes": [5179258210, 5179258211, 5179258212, 5179258213, 5179258210], "tags": {"building": "yes", "name": "Hotel Super \u09b9\u09cb\u099f\u09c7\u09b2 \u09b8\u09c1\u09aa\u09be\u09b0", "tourism": "hotel"}}, {"type": "way", "id": 533929089, "nodes": [5179263522, 5179263523, 5179263524, 5179263525, 5179263522], "tags": {"addr:city": "Goalchamot, Dhaka - Faridpur Hwy, Faridpur", "building": "yes", "name": "Hotel Al-Beg \u09b9\u09cb\u099f\u09c7\u09b2 \u0986\u09b2-\u09ac\u09c7\u0997", "tourism": "hotel"}}, {"type": "way", "id": 533929098, "nodes": [5179263632, 5179263633, 5179263634, 5179263525, 5179263632], "tags": {"building": "yes", "name": "Luxury Hotel", "tourism": "hotel"}}, {"type": "way", "id": 533931024, "nodes": [5179283295, 5179283296, 5179283297, 5179283298, 5179283295], "tags": {"building": "yes", "name": "Hotel Reverse Inn", "tourism": "hotel"}}, {"type": "way", "id": 533931187, "nodes": [5179287195, 5179287196, 5179287197, 5179287198, 5179287195], "tags": {"building": "yes", "name": "Shyamoly Hotel", "tourism": "hotel"}}, {"type": "way", "id": 533970343, "nodes": [5179611049, 5179611050, 5179611051, 5179611052, 5179611049], "tags": {"building": "yes", "name": "Meghna Hotel \u09ae\u09c7\u0998\u09a8\u09be \u0986\u09ac\u09be\u09b8\u09bf\u0995 \u09b9\u09cb\u099f\u09c7\u09b2", "tourism": "hotel"}}, {"type": "way", "id": 533970455, "nodes": [5179605765, 5179605766, 5179605767, 5179605768, 5179605765], "tags": {"building": "yes", "name": "Padma Hotel \u09aa\u09a6\u09cd\u09ae\u09be \u0986\u09ac\u09be\u09b8\u09bf\u0995 \u09b9\u09cb\u099f\u09c7\u09b2", "tourism": "hotel"}}, {"type": "way", "id": 533970687, "nodes": [5179615658, 5179615659, 5179615660, 5179615661, 5179615658], "tags": {"building": "yes", "name": "Hotel J K International", "tourism": "hotel"}}, {"type": "way", "id": 533974036, "nodes": [5179645054, 5179645055, 5179645056, 5179645057, 5179645058, 5179645059, 5179645054], "tags": {"building": "yes", "name": "Mats Boys Hostel", "tourism": "hostel"}}, {"type": "way", "id": 533977080, "nodes": [5179678350, 5179678351, 5179678352, 5179678353, 5179678350], "tags": {"building": "yes", "name": "Circuit House \u09b8\u09be\u09b0\u09cd\u0995\u09bf\u099f \u09b9\u09be\u0989\u099c", "tourism": "guest_house"}}, {"type": "way", "id": 549171521, "nodes": [5304943508, 5304943509, 5304943510, 5304943511, 5304943512, 5304943513, 5304943508], "tags": {"leisure": "park", "name": "Muktizoddha Shishu Park, Manikganj", "tourism": "attraction"}}, {"type": "way", "id": 936441389, "nodes": [8677125040, 8677125041, 8677125042, 8677125043, 8677125044, 8677125045, 8677125027, 8677125028, 8677125029, 8677125034, 8677125035, 8677125036, 8677125037, 8677125038, 8677125039, 8677125030, 8677125031, 8677125032, 8677125033, 8677125040], "tags": {"building": "yes", "name": "Haji Sariyatulla Hal", "rooms": "20", "tourism": "hostel"}}, {"type": "way", "id": 1065156078, "nodes": [9782035920, 9782035921, 9782035922, 9782035923, 9782035924, 9782035925, 9782035920], "tags": {"access": "yes", "addr:city": "Dhaka", "addr:postcode": "1330", "addr:street": "Hajarbigha, Char Mohammad Pur, Dohar", "capacity:persons": "100", "name": "GoCamp - Dohar Campsite", "operator": "GoCamp", "tourism": "camp_site"}}, {"type": "way", "id": 1217711201, "nodes": [11283006577, 11283006578, 11283006579, 11283006580, 11283006581, 11283006582, 11283006583, 11283006584, 11283006585, 11283006586, 11283006587, 11283006588, 11283006589, 11283006590, 11283006577], "tags": {"addr:city": "Dhaka", "addr:postcode": "1330", "addr:street": "Modhurchar, Dohar", "building": "yes", "internet_access": "yes", "internet_access:fee": "customers", "name": "Modhurchar Eco Village", "operator": "Jolkumari", "phone": "+8801814207992", "reservation": "yes", "tourism": "chalet"}}]}