{"version": 0.6, "generator": "Overpass API 0.7.62.1 084b4234", "osm3s": {"timestamp_osm_base": "2024-04-27T01:33:06Z", "copyright": "The data included in this document is from www.openstreetmap.org. The data is made available under ODbL."}, "elements": [{"type": "node", "id": 2428072330, "lat": 23.2344078, "lon": 90.6742433, "tags": {"name": "Chandpur Circuit House", "tourism": "guest_house"}}, {"type": "node", "id": 3784880185, "lat": 23.4894889, "lon": 90.9944321, "tags": {"beds": "6", "internet_access": "no", "name": "Rest House", "operator": "Comilla PBS-1", "rooms": "3", "tourism": "guest_house"}}, {"type": "node", "id": 5118900268, "lat": 23.5314926, "lon": 90.7154868, "tags": {"name": "Vandari Hotel", "tourism": "hotel"}}, {"type": "node", "id": 5542209722, "lat": 23.3488657, "lon": 90.8638294, "tags": {"addr:street": "batabaria-bachaiya road, monpura,kachua,chandpur", "internet_access": "wlan", "name": "Bangladesh", "name:en": "Shiraz villa", "tourism": "apartment"}}, {"type": "node", "id": 6005096787, "lat": 23.4556955, "lon": 90.7070868, "tags": {"name:en": "Matlab Bridge", "tourism": "viewpoint"}}, {"type": "node", "id": 9364936817, "lat": 23.2316661, "lon": 90.6495717, "tags": {"email": "prince.ramjan@gmail.com", "internet_access": "wlan", "name:en": "Hotel Prince", "opening_hours": "24/7", "phone": "01865050735", "tourism": "hotel"}}, {"type": "node", "id": 9655483971, "lat": 23.1562496, "lon": 91.0588483, "tags": {"addr:city": "Cumilla", "addr:postcode": "3623", "guest_house": "guest_house", "name": "Monohorganj Upazila Dakbanglow", "operator": "Government", "tourism": "guest_house"}}]}