{"version": 0.6, "generator": "Overpass API 0.7.62.1 084b4234", "osm3s": {"timestamp_osm_base": "2024-04-27T01:41:29Z", "copyright": "The data included in this document is from www.openstreetmap.org. The data is made available under ODbL."}, "elements": [{"type": "node", "id": 1039784293, "lat": -34.7153218, "lon": -68.5664414, "tags": {"tourism": "viewpoint"}}, {"type": "node", "id": 1039784339, "lat": -34.7152098, "lon": -68.564444, "tags": {"tourism": "viewpoint"}}, {"type": "node", "id": 1686155304, "lat": -34.5972607, "lon": -68.6411424, "tags": {"contact:instagram": "clubhidyn", "name": "Camping Inhisa", "name:en": "Club Hidyn", "name:es": "Club Hidyn", "phone": "2604636935", "tourism": "camp_site"}}, {"type": "node", "id": 2229045657, "lat": -34.6054784, "lon": -68.6079358}, {"type": "node", "id": 2229045667, "lat": -34.6065895, "lon": -68.6108432}, {"type": "node", "id": 2229045684, "lat": -34.6078049, "lon": -68.6102201}, {"type": "node", "id": 2229045685, "lat": -34.6078524, "lon": -68.6071166}, {"type": "node", "id": 2229045687, "lat": -34.6079759, "lon": -68.6096548}, {"type": "node", "id": 2229045690, "lat": -34.6080613, "lon": -68.6077858}, {"type": "node", "id": 2247284003, "lat": -34.5781828, "lon": -68.5496954, "tags": {"name": "Granja Donde Topa", "tourism": "attraction"}}, {"type": "node", "id": 2294708823, "lat": -34.6012411, "lon": -68.6413545, "tags": {"image": "http://lh6.googleusercontent.com/-IHuOwH7MZ6o/UurpFxlY9RI/AAAAAAAABl0/d-JDG_a4Xy0/s1600/P1055542.JPG", "tourism": "viewpoint"}}, {"type": "node", "id": 2644839771, "lat": -34.6014075, "lon": -68.6410716, "tags": {"image": "http://lh5.googleusercontent.com/-FXksKRp70gE/UurdnKI26iI/AAAAAAAABlk/dQ6vwC5jSgc/s1600/P1055536.JPG", "name": "G\u00e9nesis de paz", "note": "some info (in spanish): https://web.archive.org/web/20130207063708/http://www.diariosanrafael.com.ar/55539", "tourism": "artwork"}}, {"type": "node", "id": 3343218569, "lat": -34.5878242, "lon": -68.5507902}, {"type": "node", "id": 3343218570, "lat": -34.5879911, "lon": -68.5493835}, {"type": "node", "id": 3343218571, "lat": -34.5889627, "lon": -68.5495981}, {"type": "node", "id": 3343218572, "lat": -34.5888449, "lon": -68.5509451}, {"type": "node", "id": 3343218573, "lat": -34.5884425, "lon": -68.5508855}, {"type": "node", "id": 3343220021, "lat": -34.5840865, "lon": -68.5598348}, {"type": "node", "id": 3343220022, "lat": -34.5841967, "lon": -68.5589976}, {"type": "node", "id": 3343220023, "lat": -34.5856371, "lon": -68.5592771}, {"type": "node", "id": 3343220024, "lat": -34.5855269, "lon": -68.5601144}, {"type": "node", "id": 3343227393, "lat": -34.5797747, "lon": -68.5296999}, {"type": "node", "id": 3343227394, "lat": -34.5799053, "lon": -68.5285632}, {"type": "node", "id": 3343227395, "lat": -34.581849, "lon": -68.5288927}, {"type": "node", "id": 3343227396, "lat": -34.5817184, "lon": -68.5300294}, {"type": "node", "id": 4490607094, "lat": -34.6321545, "lon": -68.4620361, "tags": {"addr:housenumber": "672,5", "addr:street": "Ruta 144", "email": "complejolapalloza@hotmail.com", "internet_access": "wlan", "name": "La Palloza", "name:es": "La Palloza", "opening_hours": "24/7", "phone": "02604323222", "tourism": "apartment"}}, {"type": "node", "id": 4575469292, "lat": -34.653307, "lon": -68.6002628, "tags": {"name": "Mine de pierres jaunes", "tourism": "artwork"}}, {"type": "node", "id": 4579715090, "lat": -34.7760993, "lon": -68.4370306, "tags": {"email": "contacto@membrillarsuites.com.ar", "name": "Membrillar - Suites de Monta\u00f1a", "name:es": "Membrillar - Suites de Monta\u00f1a", "phone": "+5492604482013", "tourism": "chalet", "website": "https://www.membrillarsuites.com.ar/"}}, {"type": "node", "id": 5945897471, "lat": -34.5989425, "lon": -68.6195675, "tags": {"name": "Mirador", "tourism": "viewpoint"}}, {"type": "node", "id": 5945897472, "lat": -34.5977525, "lon": -68.6234486, "tags": {"name": "Mirador", "tourism": "viewpoint"}}, {"type": "node", "id": 5945909924, "lat": -34.5889867, "lon": -68.5583192, "tags": {"name": "Camping Dique Galileo Vitale", "tourism": "camp_site"}}, {"type": "node", "id": 5945909934, "lat": -34.587865, "lon": -68.5381919, "tags": {"name": "Camping Oasis Del Sol", "tourism": "camp_site"}}, {"type": "node", "id": 5945909939, "lat": -34.5839984, "lon": -68.5584721, "tags": {"name": "Camping Luz Maria", "tourism": "camp_site"}}, {"type": "node", "id": 5996817014, "lat": -34.5428159, "lon": -68.6905678, "tags": {"name": "Ca\u00f1\u00f3n", "tourism": "attraction"}}, {"type": "node", "id": 7007148772, "lat": -34.5795175, "lon": -68.6591548, "tags": {"name": "Mirador", "tourism": "viewpoint"}}, {"type": "node", "id": 7693272785, "lat": -34.6040833, "lon": -68.4565333, "tags": {"addr:housenumber": "8501", "addr:postcode": "5600", "addr:street": "Los Filtros", "email": "cabanias.delpuente@gmail.com", "internet_access": "wlan", "name": "Caba\u00f1as del puente", "opening_hours": "24/7", "phone": "+54 11 6794-7338", "tourism": "apartment", "website": "http://www.cabdelpuente.com"}}, {"type": "node", "id": 8519308717, "lat": -34.629446, "lon": -68.4435097, "tags": {"name": "Caba\u00f1as Benegas", "tourism": "apartment"}}, {"type": "node", "id": 10695114192, "lat": -34.7294355, "lon": -68.4889688, "tags": {"internet_access": "wlan", "name": "Parque de la aventura", "opening_hours": "Mo-Su 10:30-22:30", "operator": "Parque de la aventura", "phone": "+54 9 2604659528", "tourism": "theme_park", "website": "https://parquedelaaventura.com/"}}, {"type": "node", "id": 11162688546, "lat": -34.5834863, "lon": -68.4448161, "tags": {"addr:city": "Capit\u00e1n Montoya", "addr:housenumber": "100", "addr:postcode": "5600", "addr:street": "Sardini", "cabins": "yes", "name": "Caba\u00f1as Don Nino", "tourism": "hotel"}}, {"type": "node", "id": 11327582358, "lat": -34.559861, "lon": -68.4731601}, {"type": "node", "id": 11327582359, "lat": -34.5598892, "lon": -68.4731595}, {"type": "node", "id": 11327582360, "lat": -34.5598934, "lon": -68.4734183}, {"type": "node", "id": 11327582361, "lat": -34.5598662, "lon": -68.4734189}, {"type": "node", "id": 11327582362, "lat": -34.559868, "lon": -68.4735281}, {"type": "node", "id": 11327582363, "lat": -34.5599409, "lon": -68.4735263}, {"type": "node", "id": 11327582364, "lat": -34.5599391, "lon": -68.4734112}, {"type": "node", "id": 11327582365, "lat": -34.559935, "lon": -68.4731604}, {"type": "node", "id": 11327582366, "lat": -34.5599336, "lon": -68.473077}, {"type": "node", "id": 11327582367, "lat": -34.5598597, "lon": -68.4730788}, {"type": "node", "id": 11331026738, "lat": -34.5734048, "lon": -68.4727648, "tags": {"historic": "memorial", "memorial": "war_memorial", "tourism": "attraction"}}, {"type": "node", "id": 11331040522, "lat": -34.5745598, "lon": -68.4726736, "tags": {"artwork_type": "statue", "tourism": "artwork"}}, {"type": "node", "id": 11664917105, "lat": -34.6547549, "lon": -68.4800188, "tags": {"name": "Caba\u00f1as Yampai", "tourism": "hotel"}}, {"type": "way", "id": 213160597, "nodes": [2229045667, 2229045657, 2229045685, 2229045690, 2229045687, 2229045684, 2229045667], "tags": {"name": "Camping El Tigre", "tourism": "camp_site"}}, {"type": "way", "id": 327531525, "nodes": [3343218569, 3343218570, 3343218571, 3343218572, 3343218573, 3343218569], "tags": {"name": "Fuerte San Rafael del Diamante", "tourism": "museum"}}, {"type": "way", "id": 327531555, "nodes": [3343220021, 3343220022, 3343220023, 3343220024, 3343220021], "tags": {"name": "Villa Bonita", "tourism": "chalet"}}, {"type": "way", "id": 327532026, "nodes": [3343227393, 3343227394, 3343227395, 3343227396, 3343227393], "tags": {"name": "Camping De La Alimentaci\u00f3n", "tourism": "camp_site"}}, {"type": "way", "id": 1221358655, "nodes": [11327582367, 11327582366, 11327582365, 11327582364, 11327582363, 11327582362, 11327582361, 11327582360, 11327582359, 11327582358, 11327582367], "tags": {"artwork_type": "city_entrance", "attraction": "artwork", "building": "roof", "layer": "1", "name": "Bienvenidos a San Rafael", "tourism": "artwork"}}]}