{"version": 0.6, "generator": "Overpass API 0.7.62.1 084b4234", "osm3s": {"timestamp_osm_base": "2024-04-26T23:32:24Z", "copyright": "The data included in this document is from www.openstreetmap.org. The data is made available under ODbL."}, "elements": [{"type": "node", "id": 4547001589, "lat": 24.2113065, "lon": 91.3577367, "tags": {"addr:street": "Dhaka-Sylhet Highway", "internet_access": "wlan", "name:en": "Shahjibazar Power Company Residential Area", "tourism": "guest_house"}}, {"type": "node", "id": 4761671904, "lat": 24.1984741, "lon": 91.1926416, "tags": {"name": "Nasirnagar Duk Bunglow", "tourism": "guest_house"}}, {"type": "node", "id": 5349831622, "lat": 24.3728174, "lon": 91.4152783, "tags": {"addr:street": "Thana Rd.", "amenity": "pharmacy", "name": "Messrs Adhorso Pharmacy", "tourism": "guest_house"}}, {"type": "node", "id": 5917936133, "lat": 24.3725614, "lon": 91.4157401}, {"type": "node", "id": 5917936134, "lat": 24.3723532, "lon": 91.4157802}, {"type": "node", "id": 5917936135, "lat": 24.3723729, "lon": 91.415903}, {"type": "node", "id": 5917936136, "lat": 24.372581, "lon": 91.4158628}, {"type": "node", "id": 5917940636, "lat": 24.3717404, "lon": 91.4164033}, {"type": "node", "id": 5917940637, "lat": 24.3716014, "lon": 91.4164465}, {"type": "node", "id": 5917940638, "lat": 24.3716237, "lon": 91.4165333}, {"type": "node", "id": 5917940639, "lat": 24.3717627, "lon": 91.4164901}, {"type": "node", "id": 6654720433, "lat": 24.5265919, "lon": 91.3600469, "tags": {"name": "\u09ac\u09be\u09a8\u09bf\u09df\u09be\u099a\u0982 \u09b0\u09be\u099c\u09ac\u09be\u09dc\u09c0", "opening_hours": "Fr-Sa 16:00-19:00", "tourism": "museum", "wheelchair": "no"}}, {"type": "node", "id": 8234472529, "lat": 24.3738582, "lon": 91.4165986, "tags": {"addr:street": "Habiganj sadar Hospital Road", "name": "M A Rob (Biruttam) Library and Memorial Museum", "tourism": "museum"}}, {"type": "node", "id": 10793513477, "lat": 24.2515671, "lon": 91.3832484}, {"type": "node", "id": 10793513478, "lat": 24.2514095, "lon": 91.3836265}, {"type": "node", "id": 10793513479, "lat": 24.2514373, "lon": 91.3836509}, {"type": "node", "id": 10793513480, "lat": 24.2513558, "lon": 91.3838643}, {"type": "node", "id": 10793513481, "lat": 24.2513891, "lon": 91.3839822}, {"type": "node", "id": 10793513482, "lat": 24.2516208, "lon": 91.3839619}, {"type": "node", "id": 10793513483, "lat": 24.2517413, "lon": 91.3837586}, {"type": "node", "id": 10793513484, "lat": 24.2520136, "lon": 91.3839403}, {"type": "node", "id": 10793513485, "lat": 24.2522974, "lon": 91.3837915}, {"type": "node", "id": 10793513486, "lat": 24.2522458, "lon": 91.383473}, {"type": "node", "id": 10793513487, "lat": 24.2521425, "lon": 91.3833314}, {"type": "node", "id": 10793513488, "lat": 24.2519489, "lon": 91.3836074}, {"type": "way", "id": 626873475, "nodes": [5917936133, 5917936134, 5917936135, 5917936136, 5917936133], "tags": {"addr:city": "Habiganj", "addr:postcode": "3300", "addr:street": "Circuit House Road", "building": "yes", "name": "Habiganj Circuit House", "name:bn": "\u09b9\u09ac\u09bf\u0997\u099e\u09cd\u099c \u09b8\u09be\u09b0\u09cd\u0995\u09bf\u099f \u09b9\u09be\u0989\u099c", "tourism": "guest_house"}}, {"type": "way", "id": 626874273, "nodes": [5917940636, 5917940637, 5917940638, 5917940639, 5917940636], "tags": {"addr:city": "Habiganj", "addr:postcode": "3300", "building": "yes", "name": "Zilla Parishad Rest House Habiganj", "name:bn": "\u099c\u09c7\u09b2\u09be \u09aa\u09b0\u09bf\u09b7\u09a6 \u09b0\u09c7\u09b8\u09cd\u099f \u09b9\u09be\u0989\u099c \u09b9\u09ac\u09bf\u0997\u099e\u09cd\u099c", "tourism": "guest_house"}}, {"type": "way", "id": 1160528407, "nodes": [10793513477, 10793513478, 10793513479, 10793513480, 10793513481, 10793513482, 10793513483, 10793513484, 10793513485, 10793513486, 10793513487, 10793513488, 10793513477], "tags": {"tourism": "zoo", "zoo": "petting_zoo"}}]}