{"version": 0.6, "generator": "Overpass API 0.7.62.1 084b4234", "osm3s": {"timestamp_osm_base": "2024-04-27T00:13:46Z", "copyright": "The data included in this document is from www.openstreetmap.org. The data is made available under ODbL."}, "elements": [{"type": "node", "id": 3745149656, "lat": 24.1080461, "lon": 90.7551054}, {"type": "node", "id": 3745149657, "lat": 24.1080155, "lon": 90.75529}, {"type": "node", "id": 3745149658, "lat": 24.1079028, "lon": 90.7552675}, {"type": "node", "id": 3745149659, "lat": 24.1079334, "lon": 90.7550829}, {"type": "node", "id": 3745149837, "lat": 24.1080734, "lon": 90.7544131}, {"type": "node", "id": 3745149838, "lat": 24.1080056, "lon": 90.7547419}, {"type": "node", "id": 3745149839, "lat": 24.1078155, "lon": 90.7546948}, {"type": "node", "id": 3745149840, "lat": 24.1078833, "lon": 90.7543661}, {"type": "node", "id": 3745156225, "lat": 24.1082921, "lon": 90.7553876}, {"type": "node", "id": 3745156226, "lat": 24.1082545, "lon": 90.7555763}, {"type": "node", "id": 3745156227, "lat": 24.1078704, "lon": 90.7554844}, {"type": "node", "id": 3745156228, "lat": 24.107908, "lon": 90.7552957}, {"type": "node", "id": 4491871693, "lat": 24.1004317, "lon": 90.5965144, "tags": {"tourism": "artwork"}}, {"type": "node", "id": 4491897790, "lat": 24.1018097, "lon": 90.5943875, "tags": {"addr:housenumber": "2016", "addr:street": "Ranigang-Kapasia road", "tourism": "guest_house"}}, {"type": "node", "id": 4491897791, "lat": 24.1021533, "lon": 90.5962573, "tags": {"tourism": "viewpoint"}}, {"type": "node", "id": 4491969589, "lat": 24.0397759, "lon": 90.6444252, "tags": {"name:en": "Rawnat,Kapasia", "tourism": "viewpoint"}}, {"type": "node", "id": 4491969690, "lat": 24.0932261, "lon": 90.6041701, "tags": {"name:en": "maruntak", "tourism": "viewpoint"}}, {"type": "node", "id": 4761651221, "lat": 24.1049415, "lon": 90.7297248, "tags": {"name:en": "Anik's House (\u0985\u09a8\u09bf\u0995\u09c7\u09b0 \u09ac\u09be\u09b8\u09be)", "tourism": "guest_house"}}, {"type": "node", "id": 5181211021, "lat": 23.9333372, "lon": 90.7074384, "tags": {"addr:city": "Dhaka - Sylhet Hwy", "name": "\u0985\u09cd\u09af\u09be\u09ae\u09c7\u099a\u09be\u09b0 \u099f\u09cd\u09af\u09c1\u09b0\u09bf\u09b8\u09cd\u099f \u098f\u09b8\u09cb\u09b8\u09bf\u09df\u09c7\u09b6\u09a8", "tourism": "attraction"}}, {"type": "node", "id": 5181215135, "lat": 23.932428, "lon": 90.7051028}, {"type": "node", "id": 5181215136, "lat": 23.9324819, "lon": 90.7052691}, {"type": "node", "id": 5181215137, "lat": 23.9326805, "lon": 90.7052007}, {"type": "node", "id": 5181215138, "lat": 23.9326265, "lon": 90.7050397}, {"type": "node", "id": 5181216962, "lat": 23.9326587, "lon": 90.7051357}, {"type": "node", "id": 5181418177, "lat": 23.9300472, "lon": 90.70334}, {"type": "node", "id": 5181418178, "lat": 23.9300778, "lon": 90.7035351}, {"type": "node", "id": 5181418179, "lat": 23.9299078, "lon": 90.703586}, {"type": "node", "id": 5181418180, "lat": 23.9298642, "lon": 90.7033695}, {"type": "node", "id": 5231825867, "lat": 23.9242699, "lon": 90.5727517}, {"type": "node", "id": 5231825868, "lat": 23.9243042, "lon": 90.5729347}, {"type": "node", "id": 5231825869, "lat": 23.9243943, "lon": 90.5729099}, {"type": "node", "id": 5231825870, "lat": 23.9243625, "lon": 90.5727329}, {"type": "node", "id": 5231854029, "lat": 23.9256467, "lon": 90.5774796, "tags": {"name": "Habibur Rahman Jalal \u09b9\u09be\u09ac\u09bf\u09ac\u09c1\u09b0 \u09b0\u09b9\u09ae\u09be\u09a8 \u099c\u09be\u09b2\u09be\u09b2", "tourism": "hotel"}}, {"type": "node", "id": 7470522156, "lat": 24.1086874, "lon": 90.754974}, {"type": "node", "id": 7470522157, "lat": 24.1086434, "lon": 90.7552798}, {"type": "node", "id": 7470522158, "lat": 24.1084573, "lon": 90.7552503}, {"type": "node", "id": 7470522159, "lat": 24.1084842, "lon": 90.7551457}, {"type": "node", "id": 7470522160, "lat": 24.1085993, "lon": 90.7551672}, {"type": "node", "id": 7470522161, "lat": 24.1086262, "lon": 90.754966}, {"type": "node", "id": 7470719735, "lat": 24.1997323, "lon": 90.7822994}, {"type": "node", "id": 7470719736, "lat": 24.1997005, "lon": 90.7823638}, {"type": "node", "id": 7470719737, "lat": 24.1998669, "lon": 90.7824563}, {"type": "node", "id": 7470719738, "lat": 24.1999024, "lon": 90.7823892}, {"type": "node", "id": 7613075529, "lat": 24.0388204, "lon": 90.7370492, "tags": {"air_conditioning": "yes", "guest_house": "guest_house", "internet_access": "no", "name": "Shibpur Dak Bunglow", "name:bn": "\u09b6\u09bf\u09ac\u09aa\u09c1\u09b0 \u09a1\u09be\u0995 \u09ac\u09be\u0982\u09b2\u09cb", "operator": "Government", "rooms": "8", "tourism": "guest_house"}}, {"type": "node", "id": 9480551964, "lat": 24.1072674, "lon": 90.5778279, "tags": {"tourism": "viewpoint"}}, {"type": "node", "id": 9835631103, "lat": 23.9328877, "lon": 90.7234327}, {"type": "node", "id": 9835631104, "lat": 23.9327613, "lon": 90.7238868}, {"type": "node", "id": 9835631105, "lat": 23.9326488, "lon": 90.7238596}, {"type": "node", "id": 9835631106, "lat": 23.9327673, "lon": 90.7234011}, {"type": "node", "id": 9835631107, "lat": 23.9325491, "lon": 90.7236057}, {"type": "node", "id": 9835631108, "lat": 23.9323401, "lon": 90.7235599}, {"type": "node", "id": 9835631109, "lat": 23.932373, "lon": 90.7234096}, {"type": "node", "id": 9835631110, "lat": 23.932585, "lon": 90.723463}, {"type": "node", "id": 9835732254, "lat": 23.9333722, "lon": 90.7235561}, {"type": "node", "id": 9835732255, "lat": 23.9333173, "lon": 90.7238588}, {"type": "node", "id": 9835732256, "lat": 23.9332327, "lon": 90.7238476}, {"type": "node", "id": 9835732257, "lat": 23.9332853, "lon": 90.7235436}, {"type": "node", "id": 9835732258, "lat": 23.9332613, "lon": 90.7236756}, {"type": "node", "id": 9835732259, "lat": 23.9332259, "lon": 90.7236437}, {"type": "node", "id": 9835732260, "lat": 23.9331264, "lon": 90.7236224}, {"type": "node", "id": 9835732261, "lat": 23.9330841, "lon": 90.7238125}, {"type": "node", "id": 9835732262, "lat": 23.9331847, "lon": 90.7238301}, {"type": "node", "id": 9835732263, "lat": 23.9330899, "lon": 90.7236529}, {"type": "node", "id": 9835732264, "lat": 23.9330559, "lon": 90.723797}, {"type": "node", "id": 9835732265, "lat": 23.9328533, "lon": 90.7237397}, {"type": "node", "id": 9835732266, "lat": 23.9328873, "lon": 90.7235957}, {"type": "node", "id": 10941247813, "lat": 23.9294914, "lon": 90.7011795, "tags": {"addr:city": "Narsingdi", "addr:postcode": "1600", "addr:street": "Fancier Street", "charge": "100 BDT", "fee": "yes", "name": "Royal Fancier", "opening_hours": "Mo-Su 08:00-19:00", "operator": "Fahmid Hasan Mashud", "tourism": "zoo", "zoo": "petting_zoo"}}, {"type": "way", "id": 370830238, "nodes": [3745149837, 3745149838, 3745149839, 3745149840, 3745149837], "tags": {"building": "yes", "name": "Pnach Kandi College Boys Hostel", "tourism": "hostel"}}, {"type": "way", "id": 370830567, "nodes": [3745149656, 3745149657, 3745149658, 3745149659, 3745149656], "tags": {"building": "yes", "name": "Panch Kandi college Girls Hostel", "tourism": "hostel"}}, {"type": "way", "id": 370831127, "nodes": [3745156225, 3745156226, 3745156227, 3745156228, 3745156225], "tags": {"building": "yes", "name": "Panch Kandi College Girls Hostel", "tourism": "hostel"}}, {"type": "way", "id": 534193746, "nodes": [5181215135, 5181215136, 5181215137, 5181216962, 5181215138, 5181215135], "tags": {"addr:city": "Dhaka - Sylhet Hwy", "building": "yes", "name": "Abdul Kadir Mullah City College Ladies Hostel", "tourism": "hostel"}}, {"type": "way", "id": 534218879, "nodes": [5181418177, 5181418178, 5181418179, 5181418180, 5181418177], "tags": {"addr:city": "Dhaka - Sylhet Hwy", "building": "yes", "name": "Abdul Kadir Mollah City College Girls Hostel", "tourism": "hostel"}}, {"type": "way", "id": 540912253, "nodes": [5231825867, 5231825868, 5231825869, 5231825870, 5231825867], "tags": {"building": "yes", "name": "Upazila Rest House \u0989\u09aa\u099c\u09c7\u09b2\u09be \u09b0\u09c7\u09b8\u09cd\u099f \u09b9\u09be\u0989\u099c", "tourism": "guest_house"}}, {"type": "way", "id": 798788361, "nodes": [7470522156, 7470522157, 7470522158, 7470522159, 7470522160, 7470522161, 7470522156], "tags": {"building": "yes", "name": "Boys Hostel PDC", "tourism": "hostel"}}, {"type": "way", "id": 798811058, "nodes": [7470719735, 7470719736, 7470719737, 7470719738, 7470719735], "tags": {"building": "yes", "tourism": "hostel"}}, {"type": "way", "id": 1071896031, "nodes": [9835631103, 9835631104, 9835631105, 9835631106, 9835631103], "tags": {"access": "permissive", "addr:city": "Narsingdi", "addr:housenumber": "West Brahmondi", "addr:postcode": "1602", "addr:street": "Narsingdi Govt. College Raod", "building": "yes", "building:levels": "5", "name": "Narsingdi Govt. College Ladies Hostel", "operator": "Narsingdi Government College", "tourism": "hostel"}}, {"type": "way", "id": 1071896032, "nodes": [9835631107, 9835631108, 9835631109, 9835631110, 9835631107], "tags": {"access": "permissive", "addr:city": "Narsingdi", "addr:housenumber": "West Brahmondi", "addr:postcode": "1602", "addr:street": "Narsingdi Govt. College Raod", "building": "yes", "building:levels": "4", "name": "\u09a1\u09be\u0995\u09cd\u09a4\u09be\u09b0 \u099c\u09cb\u09b9\u09b0\u09be \u09ac\u09c7\u0997\u09ae \u0995\u09be\u099c\u09c0 \u09ae\u09b9\u09bf\u09b2\u09be \u09b9\u09cb\u09b8\u09cd\u099f\u09c7\u09b2", "name:en": "Doctor Zohra Begum Kazi Ladies Hostel", "operator": "Narsingdi Government College", "tourism": "hostel"}}, {"type": "way", "id": 1071906274, "nodes": [9835732254, 9835732255, 9835732256, 9835732258, 9835732257, 9835732254], "tags": {"access": "permissive", "addr:city": "Narsingdi", "addr:housenumber": "West Brahmondi", "addr:postcode": "1602", "addr:street": "Narsingdi Govt. College Raod", "building": "yes", "building:levels": "2", "name": "Jitendra Kishor Moulik Hostel", "operator": "Narsingdi Government College", "tourism": "hostel"}}, {"type": "way", "id": 1071906275, "nodes": [9835732259, 9835732260, 9835732261, 9835732262, 9835732259], "tags": {"access": "permissive", "addr:city": "Narsingdi", "addr:housenumber": "West Brahmondi", "addr:postcode": "1602", "addr:street": "Narsingdi Govt. College Raod", "building": "yes", "building:levels": "2", "name": "Jitendra Kishor Moulik Hostel", "operator": "Narsingdi Government College", "tourism": "hostel"}}, {"type": "way", "id": 1071906276, "nodes": [9835732263, 9835732264, 9835732265, 9835732266, 9835732263], "tags": {"access": "permissive", "addr:city": "Narsingdi", "addr:housenumber": "West Brahmondi", "addr:postcode": "1602", "addr:street": "Narsingdi Govt. College Raod", "building": "yes", "building:levels": "4", "operator": "Narsingdi Government College", "tourism": "hostel"}}]}