{"version": 0.6, "generator": "Overpass API 0.7.62.1 084b4234", "osm3s": {"timestamp_osm_base": "2024-04-26T23:31:24Z", "copyright": "The data included in this document is from www.openstreetmap.org. The data is made available under ODbL."}, "elements": [{"type": "node", "id": 245731299, "lat": 25.2777336, "lon": 91.7292416, "tags": {"alt_name": "Sohra;Cherrapunji;Cherrapunjee;Cherra", "name": "Sohra (Cherrapunji)", "name:bn": "\u099a\u09c7\u09b0\u09be\u09aa\u09c1\u099e\u09cd\u099c\u09bf", "name:en": "Sohra (Cherrapunji)", "name:hi": "\u091a\u0947\u0930\u093e\u092a\u0942\u0902\u091c\u0940\u00a0(\u0938\u094b\u0939\u0930\u093e)", "name:kn": "\u0c9a\u0cc7\u0cb0\u0cbe\u0caa\u0cc1\u0c82\u0c9c\u0cbf", "name:zh": "\u4e5e\u62c9\u670b\u9f50", "place": "town", "postal_code": "793108", "tourism": "attraction", "wikidata": "Q211030", "wikipedia": "en:Cherrapunji"}}, {"type": "node", "id": 3178190298, "lat": 25.2447743, "lon": 91.7247784, "tags": {"name": "Mawsmai Caves", "natural": "cave_entrance", "tourism": "attraction"}}, {"type": "node", "id": 3701005037, "lat": 25.2725094, "lon": 91.7325169, "tags": {"name": "By the way", "phone": "+91 98566 30274", "tourism": "hostel", "website": "https://www.facebook.com/cherrapunjeebedsandlodging/"}}, {"type": "node", "id": 3701026050, "lat": 25.2534198, "lon": 91.6876081}, {"type": "node", "id": 3701026051, "lat": 25.2536793, "lon": 91.687603}, {"type": "node", "id": 3701030279, "lat": 25.2487978, "lon": 91.6799513}, {"type": "node", "id": 3701030280, "lat": 25.249061, "lon": 91.6799432}, {"type": "node", "id": 3701048117, "lat": 25.2160933, "lon": 91.6843098, "tags": {"tourism": "viewpoint"}}, {"type": "node", "id": 3701076600, "lat": 25.2132572, "lon": 91.7322988, "tags": {"name": "Viewpoint over Bangladesh", "tourism": "viewpoint"}}, {"type": "node", "id": 3933644720, "lat": 25.2756548, "lon": 91.6865847, "tags": {"name": "Nohkalikai Falls", "tourism": "attraction", "waterway": "waterfall", "wikidata": "Q3631209", "wikipedia": "en:Nohkalikai Falls"}}, {"type": "node", "id": 3933644723, "lat": 25.2506987, "lon": 91.6719477, "tags": {"internet_access": "no", "name": "Serene Homestay", "tourism": "guest_house", "wheelchair": "no"}}, {"type": "node", "id": 3933648202, "lat": 25.25078, "lon": 91.6722174}, {"type": "node", "id": 3933648218, "lat": 25.2513795, "lon": 91.6715835}, {"type": "node", "id": 3933648227, "lat": 25.2515328, "lon": 91.6717328}, {"type": "node", "id": 3933648267, "lat": 25.2575659, "lon": 91.6752988}, {"type": "node", "id": 3933648269, "lat": 25.2576879, "lon": 91.6754388}, {"type": "node", "id": 3933648438, "lat": 25.2677171, "lon": 91.6774449, "tags": {"name": "Rainbow Falls", "tourism": "attraction", "waterway": "waterfall"}}, {"type": "node", "id": 4571353732, "lat": 25.243415, "lon": 91.7313765, "tags": {"historic": "archaeological_site", "name": "Mawsmai stones", "tourism": "attraction"}}, {"type": "node", "id": 4683428389, "lat": 25.2632975, "lon": 91.7318694, "tags": {"addr:postcode": "793108", "addr:street": "Mawpunkyrtiang", "email": "iainehlang.s@gmail.com", "name": "D Cloud Guesthouse", "name:hi": "D Cloud Guesthouse", "opening_hours": "24/7", "operator": "Yai", "phone": "9856181358", "tourism": "guest_house", "website": "http://www.cherrapunjee.in"}}, {"type": "node", "id": 4905125027, "lat": 25.2543383, "lon": 91.6560497, "tags": {"name": "Jingmaham cave", "name:en": "Jingmaham cave", "natural": "cave_entrance", "tourism": "attraction"}}, {"type": "node", "id": 4905266653, "lat": 25.2178255, "lon": 91.7219701, "tags": {"tourism": "viewpoint"}}, {"type": "node", "id": 4905266715, "lat": 25.2172665, "lon": 91.723377, "tags": {"name": "Park Layout", "tourism": "information"}}, {"type": "node", "id": 4905270243, "lat": 25.2171797, "lon": 91.7221103, "tags": {"tourism": "viewpoint"}}, {"type": "node", "id": 4905465855, "lat": 25.2710581, "lon": 91.6896468, "tags": {"tourism": "viewpoint"}}, {"type": "node", "id": 4905465858, "lat": 25.2717094, "lon": 91.6900539, "tags": {"name": "Nohkalikai Falls View Point", "tourism": "viewpoint"}}, {"type": "node", "id": 5234210321, "lat": 25.2541863, "lon": 91.7004148, "tags": {"name": "Viewpoint over the valley", "tourism": "viewpoint"}}, {"type": "node", "id": 5234254821, "lat": 25.2451257, "lon": 91.6922764, "tags": {"name": "Hotel under construction", "tourism": "hotel"}}, {"type": "node", "id": 5240282522, "lat": 25.2399902, "lon": 91.6803386, "tags": {"name": "Serenity Homestay", "operator": "Byron", "tourism": "guest_house"}}, {"type": "node", "id": 5316578721, "lat": 25.2650651, "lon": 91.6842467, "tags": {"tourism": "viewpoint"}}, {"type": "node", "id": 5352561190, "lat": 25.2130828, "lon": 91.676736, "tags": {"name": "Living Root Bridge", "tourism": "attraction"}}, {"type": "node", "id": 5352609019, "lat": 25.2190505, "lon": 91.6614737}, {"type": "node", "id": 5352609020, "lat": 25.2189613, "lon": 91.66151}, {"type": "node", "id": 5352609021, "lat": 25.2189887, "lon": 91.6615923}, {"type": "node", "id": 5352609022, "lat": 25.2190779, "lon": 91.6615561}, {"type": "node", "id": 5352609023, "lat": 25.2190298, "lon": 91.6627688}, {"type": "node", "id": 5352609024, "lat": 25.2190577, "lon": 91.6628172}, {"type": "node", "id": 5352609025, "lat": 25.2190714, "lon": 91.6628085}, {"type": "node", "id": 5352609026, "lat": 25.2190459, "lon": 91.6627585}, {"type": "node", "id": 5352609027, "lat": 25.2189595, "lon": 91.6627725}, {"type": "node", "id": 5352609028, "lat": 25.2190251, "lon": 91.6628865}, {"type": "node", "id": 5352609029, "lat": 25.2190767, "lon": 91.6628502}, {"type": "node", "id": 5352609030, "lat": 25.2190111, "lon": 91.6627362}, {"type": "node", "id": 5352609031, "lat": 25.2190792, "lon": 91.6626599}, {"type": "node", "id": 5352609032, "lat": 25.2191037, "lon": 91.6626463}, {"type": "node", "id": 5352609033, "lat": 25.2191308, "lon": 91.6626417}, {"type": "node", "id": 5352609034, "lat": 25.2191579, "lon": 91.6626467}, {"type": "node", "id": 5352609035, "lat": 25.2191823, "lon": 91.6626606}, {"type": "node", "id": 5352609036, "lat": 25.2192015, "lon": 91.6626823}, {"type": "node", "id": 5352609037, "lat": 25.2192178, "lon": 91.6627368}, {"type": "node", "id": 5352609038, "lat": 25.2192146, "lon": 91.6627643}, {"type": "node", "id": 5352609039, "lat": 25.2192045, "lon": 91.6627897}, {"type": "node", "id": 5352609040, "lat": 25.2191884, "lon": 91.6628109}, {"type": "node", "id": 5352609041, "lat": 25.2191674, "lon": 91.6628261}, {"type": "node", "id": 5352609042, "lat": 25.2191141, "lon": 91.6628336}, {"type": "node", "id": 5352609043, "lat": 25.2190866, "lon": 91.6628223}, {"type": "node", "id": 5352609044, "lat": 25.2190428, "lon": 91.6627423}, {"type": "node", "id": 5352609045, "lat": 25.2190465, "lon": 91.6627102}, {"type": "node", "id": 5352609046, "lat": 25.2191434, "lon": 91.6628341}, {"type": "node", "id": 5352609047, "lat": 25.2190597, "lon": 91.6626813}, {"type": "node", "id": 5352609048, "lat": 25.2192138, "lon": 91.6627094}, {"type": "node", "id": 5352612521, "lat": 25.225849, "lon": 91.6751012, "tags": {"name": "Jingkieng Nongriat Living Root Bridge", "tourism": "attraction"}}, {"type": "node", "id": 5352802188, "lat": 25.2430438, "lon": 91.7386669, "tags": {"height": "315", "name": "Nohsngithiang Falls (Seven Sisters)", "tourism": "attraction", "waterway": "waterfall"}}, {"type": "node", "id": 5352802731, "lat": 25.268652, "lon": 91.6892418, "tags": {"archaeological_site": "megalith", "historic": "archaeological_site", "tourism": "attraction"}}, {"type": "node", "id": 5352803211, "lat": 25.2275378, "lon": 91.7166755, "tags": {"name": "Kynrem Falls", "tourism": "attraction", "waterway": "waterfall"}}, {"type": "node", "id": 5352803429, "lat": 25.2506833, "lon": 91.6721468}, {"type": "node", "id": 5352803430, "lat": 25.2505602, "lon": 91.6737145}, {"type": "node", "id": 5352803433, "lat": 25.2505583, "lon": 91.6738237}, {"type": "node", "id": 5352803434, "lat": 25.2505717, "lon": 91.6738694}, {"type": "node", "id": 5352803435, "lat": 25.2505468, "lon": 91.6737843}, {"type": "node", "id": 5352803436, "lat": 25.2505729, "lon": 91.6736434}, {"type": "node", "id": 5352803437, "lat": 25.250602, "lon": 91.6736387}, {"type": "node", "id": 5352803438, "lat": 25.2506202, "lon": 91.6736595}, {"type": "node", "id": 5352803439, "lat": 25.2506736, "lon": 91.6736696}, {"type": "node", "id": 5352803440, "lat": 25.2507203, "lon": 91.6737138}, {"type": "node", "id": 5352803441, "lat": 25.2507561, "lon": 91.6737708}, {"type": "node", "id": 5352803442, "lat": 25.2507573, "lon": 91.6738124}, {"type": "node", "id": 5352803443, "lat": 25.2507263, "lon": 91.6738949, "tags": {"waterway": "waterfall"}}, {"type": "node", "id": 5352803444, "lat": 25.2506912, "lon": 91.6739392}, {"type": "node", "id": 5352803445, "lat": 25.250656, "lon": 91.6739284}, {"type": "node", "id": 5352803446, "lat": 25.2505923, "lon": 91.6738922}, {"type": "node", "id": 5352807778, "lat": 25.242988, "lon": 91.7415637, "tags": {"height": "315", "name": "Nohsngithiang Falls (Seven Sisters)", "tourism": "attraction", "waterway": "waterfall"}}, {"type": "node", "id": 5353533872, "lat": 25.2513686, "lon": 91.6722701, "tags": {"name": "Nongriat Guest House", "tourism": "hotel"}}, {"type": "node", "id": 5353533926, "lat": 25.2505862, "lon": 91.6711651, "tags": {"beds": "4", "name": "Santira Homestay", "tourism": "hotel"}}, {"type": "node", "id": 5353534185, "lat": 25.2427017, "lon": 91.6626383, "tags": {"name": "SHG Homestay Mynteng", "phone": "9615854413", "tourism": "hotel"}}, {"type": "node", "id": 5355167409, "lat": 25.2127424, "lon": 91.7325977, "tags": {"name": "Khoh Ramhah", "tourism": "attraction"}}, {"type": "node", "id": 5355167431, "lat": 25.2338484, "lon": 91.7342958}, {"type": "node", "id": 5355167432, "lat": 25.233877, "lon": 91.7342914}, {"type": "node", "id": 5355167433, "lat": 25.2339056, "lon": 91.7342955}, {"type": "node", "id": 5355167434, "lat": 25.2339322, "lon": 91.7343078}, {"type": "node", "id": 5355167435, "lat": 25.2339549, "lon": 91.7343274}, {"type": "node", "id": 5355167436, "lat": 25.2339721, "lon": 91.7343529}, {"type": "node", "id": 5355167437, "lat": 25.2339826, "lon": 91.7343826}, {"type": "node", "id": 5355167438, "lat": 25.2339803, "lon": 91.7344486}, {"type": "node", "id": 5355167439, "lat": 25.2339662, "lon": 91.7344797}, {"type": "node", "id": 5355167440, "lat": 25.2339446, "lon": 91.734505}, {"type": "node", "id": 5355167441, "lat": 25.2339173, "lon": 91.7345224}, {"type": "node", "id": 5355167442, "lat": 25.2338866, "lon": 91.7345304}, {"type": "node", "id": 5355167443, "lat": 25.2338551, "lon": 91.7345282}, {"type": "node", "id": 5355167444, "lat": 25.2337998, "lon": 91.7344945}, {"type": "node", "id": 5355167445, "lat": 25.2337809, "lon": 91.7344653}, {"type": "node", "id": 5355167446, "lat": 25.2337707, "lon": 91.7344313}, {"type": "node", "id": 5355167447, "lat": 25.2337701, "lon": 91.7343955}, {"type": "node", "id": 5355167448, "lat": 25.2337791, "lon": 91.734361}, {"type": "node", "id": 5355167449, "lat": 25.2337969, "lon": 91.7343311}, {"type": "node", "id": 5355167450, "lat": 25.2338256, "lon": 91.7345162}, {"type": "node", "id": 5355167451, "lat": 25.2338219, "lon": 91.7343083}, {"type": "node", "id": 5355167452, "lat": 25.2339857, "lon": 91.7344142}, {"type": "node", "id": 5355167462, "lat": 25.2385508, "lon": 91.7328035, "tags": {"direction": "NE", "name": "Seven Sisters Waterfalls Viewpoint", "tourism": "viewpoint"}}, {"type": "node", "id": 5355167497, "lat": 25.2474361, "lon": 91.7559202, "tags": {"direction": "180, S", "name": "Bangladesh Plains Viewpoint", "tourism": "viewpoint"}}, {"type": "node", "id": 5355167529, "lat": 25.2452294, "lon": 91.7435087}, {"type": "node", "id": 5355167530, "lat": 25.2451882, "lon": 91.743793}, {"type": "node", "id": 5355167531, "lat": 25.2453825, "lon": 91.7438275}, {"type": "node", "id": 5355167532, "lat": 25.2454238, "lon": 91.7435431}, {"type": "node", "id": 5359722440, "lat": 25.2606918, "lon": 91.747596}, {"type": "node", "id": 5359722441, "lat": 25.2606579, "lon": 91.7475566}, {"type": "node", "id": 5359722442, "lat": 25.2606476, "lon": 91.7475035}, {"type": "node", "id": 5359722443, "lat": 25.2607611, "lon": 91.7476074}, {"type": "node", "id": 5359722444, "lat": 25.2607032, "lon": 91.7474296}, {"type": "node", "id": 5359722445, "lat": 25.2608581, "lon": 91.7477126}, {"type": "node", "id": 5359722446, "lat": 25.2609459, "lon": 91.7478078}, {"type": "node", "id": 5359722447, "lat": 25.2609267, "lon": 91.7478598}, {"type": "node", "id": 5359722448, "lat": 25.2608478, "lon": 91.7479099}, {"type": "node", "id": 5359722449, "lat": 25.2610393, "lon": 91.7479094}, {"type": "node", "id": 5359722450, "lat": 25.2609548, "lon": 91.747971}, {"type": "node", "id": 5359722451, "lat": 25.2608438, "lon": 91.7479205}, {"type": "node", "id": 5359722452, "lat": 25.2607941, "lon": 91.7478856}, {"type": "node", "id": 5359722453, "lat": 25.2606291, "lon": 91.7475231}, {"type": "node", "id": 5359722454, "lat": 25.2607298, "lon": 91.7476402}, {"type": "node", "id": 5359722455, "lat": 25.2606546, "lon": 91.7476416}, {"type": "node", "id": 5359722456, "lat": 25.2606182, "lon": 91.7476054}, {"type": "node", "id": 5359722457, "lat": 25.2605746, "lon": 91.7474243}, {"type": "node", "id": 5359722458, "lat": 25.2606352, "lon": 91.7473559}, {"type": "node", "id": 5359722459, "lat": 25.2610557, "lon": 91.7478975}, {"type": "node", "id": 5359722460, "lat": 25.2604893, "lon": 91.7483106}, {"type": "node", "id": 5359722461, "lat": 25.2605758, "lon": 91.7484556}, {"type": "node", "id": 5359722462, "lat": 25.2611422, "lon": 91.7480426}, {"type": "node", "id": 5359722463, "lat": 25.2609678, "lon": 91.7478316}, {"type": "node", "id": 5359722464, "lat": 25.2610852, "lon": 91.7476992}, {"type": "node", "id": 5359722465, "lat": 25.2607686, "lon": 91.7473559}, {"type": "node", "id": 5359722466, "lat": 25.2609372, "lon": 91.7473143, "tags": {"name": "Jive Resort", "tourism": "hotel"}}, {"type": "node", "id": 5359722850, "lat": 25.2192077, "lon": 91.6628824, "tags": {"name": "Cherrapunjee Holiday Resort", "tourism": "hotel"}}, {"type": "node", "id": 5359722852, "lat": 25.2196863, "lon": 91.6374484, "tags": {"name": "Mawrong, Mot I Lop", "tourism": "viewpoint"}}, {"type": "node", "id": 5359722902, "lat": 25.2048307, "lon": 91.6428396, "tags": {"name": "Living root bridge", "tourism": "attraction"}}, {"type": "node", "id": 5459478933, "lat": 25.242665, "lon": 91.679185, "tags": {"name": "Green land", "tourism": "hostel"}}, {"type": "node", "id": 5525833822, "lat": 25.2465074, "lon": 91.7319052, "tags": {"name": "Wet Land Home Stay", "tourism": "hotel"}}, {"type": "node", "id": 5525833923, "lat": 25.2408516, "lon": 91.6612608, "tags": {"name": "Root bridge", "tourism": "attraction"}}, {"type": "node", "id": 6068048814, "lat": 24.9550736, "lon": 91.8610234, "tags": {"name": "Movenpick Hotel, Sylhet", "tourism": "hotel"}}, {"type": "node", "id": 6203901417, "lat": 25.2730264, "lon": 91.7340776, "tags": {"artwork_type": "statue", "tourism": "artwork"}}, {"type": "node", "id": 6467719986, "lat": 25.2728597, "lon": 91.7305171, "tags": {"name": "Wonder homestay", "tourism": "guest_house"}}, {"type": "node", "id": 6474293185, "lat": 25.2432273, "lon": 91.6628545, "tags": {"name": "Banseisoh SHG Homestay", "tourism": "guest_house"}}, {"type": "node", "id": 6501815785, "lat": 25.2505339, "lon": 91.6721318, "tags": {"name": "Santina Homestay Cottages", "phone": "9862058369", "tourism": "chalet"}}, {"type": "node", "id": 6501815885, "lat": 25.2504779, "lon": 91.6720583, "tags": {"addr:housenumber": "7629891784", "name": "M.K. Homestay Cottages", "name:en": "M.K. Home For Stay Cottages", "tourism": "chalet"}}, {"type": "node", "id": 6859342885, "lat": 25.2491934, "lon": 91.6681543, "tags": {"name": "split rd", "tourism": "viewpoint"}}, {"type": "node", "id": 6862188456, "lat": 25.2750297, "lon": 91.7306223, "tags": {"tourism": "artwork"}}, {"type": "node", "id": 6862188457, "lat": 25.2609493, "lon": 91.7326637, "tags": {"name": "r ki ni homestay", "tourism": "guest_house"}}, {"type": "node", "id": 6875764185, "lat": 25.2690893, "lon": 91.7330087, "tags": {"name": "Kor Shongthait Homestay", "tourism": "hostel"}}, {"type": "node", "id": 7013525585, "lat": 25.2695153, "lon": 91.7401051, "tags": {"name": "Beautiful viewpoint over the valley!", "tourism": "viewpoint"}}, {"type": "node", "id": 7016248885, "lat": 25.2517168, "lon": 91.6718915, "tags": {"name": "Shipara Homestay", "tourism": "guest_house"}}, {"type": "node", "id": 7016714085, "lat": 25.2591297, "lon": 91.6759395, "tags": {"tourism": "viewpoint"}}, {"type": "node", "id": 7058023085, "lat": 25.2397978, "lon": 91.6818639, "tags": {"name": "Jingkyrkhu i pa homestay", "tourism": "guest_house"}}, {"type": "node", "id": 7187909685, "lat": 25.2372595, "lon": 91.7328254, "tags": {"name": "Seven Sister's falls best viewpoint", "name:ru": "\u041b\u0443\u0447\u0448\u0438\u0439 \u0432\u0438\u0434 \u043d\u0430 \u0432\u043e\u0434\u043e\u043f\u0430\u0434 '\u0421\u0435\u043c\u044c \u0441\u0435\u0441\u0442\u0451\u0440' ( \u0421\u043b\u0443\u043d\u0442\u0435\u0440 )", "tourism": "viewpoint"}}, {"type": "node", "id": 7190020885, "lat": 25.2244319, "lon": 91.7283976, "tags": {"name": "Viewpoint to Bangladesh", "name:ru": "\u041e\u0431\u0437\u043e\u0440\u043d\u0430\u044f \u043f\u043b\u043e\u0449\u0430\u0434\u043a\u0430 \u043d\u0430 \u0411\u0430\u043d\u0433\u043b\u0430\u0434\u0435\u0448 ( \u0421\u043b\u0443\u043d\u0442\u0435\u0440 )", "tourism": "viewpoint"}}, {"type": "node", "id": 7207706785, "lat": 25.2517765, "lon": 91.6718278, "tags": {"addr:postcode": "793108", "addr:street": "Double decker root bridge", "email": "shiparahomestay@gmail.com", "name": "Shipara Homestay", "opening_hours": "24/7", "operator": "Constantine", "phone": "+91-6009355430", "tourism": "guest_house", "website": "https://www.facebook.com/shiparahomestay"}}, {"type": "node", "id": 7221682385, "lat": 25.250841, "lon": 91.672608, "tags": {"name": "Arnes Wooden Hut", "phone": "+918014780255", "tourism": "hotel"}}, {"type": "node", "id": 7236153487, "lat": 25.2467693, "lon": 91.6546435, "tags": {"name": "Cricket Pitch", "tourism": "viewpoint"}}, {"type": "node", "id": 8815238412, "lat": 25.2665741, "lon": 91.5899364, "tags": {"name": "Wei\u00efng", "tourism": "camp_site"}}, {"type": "node", "id": 9931768876, "lat": 24.9296322, "lon": 91.7152173, "tags": {"name": "farming reserve", "tourism": "caravan_site"}}, {"type": "node", "id": 10576614194, "lat": 25.236641, "lon": 91.7325873}, {"type": "node", "id": 10576614195, "lat": 25.2364659, "lon": 91.7326873}, {"type": "node", "id": 10576614196, "lat": 25.2364168, "lon": 91.7325823}, {"type": "node", "id": 10576614197, "lat": 25.2366186, "lon": 91.732467}, {"type": "node", "id": 10709987995, "lat": 25.2439442, "lon": 91.7688855, "tags": {"description": "First sign indicating route to Sohkhmi village and Wah Lyngngam", "information": "route_marker", "tourism": "information"}}, {"type": "node", "id": 10709988004, "lat": 25.2369028, "lon": 91.7887497, "tags": {"alt_name": "Wah Lyngngam (The Green River)", "name": "Wah Lyngngam (The Green River)", "tourism": "viewpoint"}}, {"type": "node", "id": 11607366069, "lat": 25.2451045, "lon": 91.6604363, "tags": {"name": "metal suspension bridge", "tourism": "attraction"}}, {"type": "node", "id": 11755379341, "lat": 25.2412399, "lon": 91.6779603, "tags": {"name": "Royal View", "tourism": "hotel"}}, {"type": "node", "id": 11755382392, "lat": 25.2446283, "lon": 91.6794603, "tags": {"name": "Mepa Homestay", "tourism": "guest_house"}}, {"type": "way", "id": 366115739, "nodes": [3701026050, 3701026051], "tags": {"bridge": "yes", "highway": "path", "layer": "1", "name": "Root bridge", "tourism": "attraction"}}, {"type": "way", "id": 366116299, "nodes": [3701030279, 3701030280], "tags": {"bridge": "yes", "highway": "path", "layer": "1", "name:en": "Long root bridge", "opening_hours": "Mo-Su 07:00-17:00", "tourism": "attraction"}}, {"type": "way", "id": 390202521, "nodes": [3933648267, 3933648269], "tags": {"access": "no", "bridge": "yes", "bridge:structure": "suspension", "highway": "path", "layer": "1", "name": "Root bridge", "tourism": "attraction"}}, {"type": "way", "id": 554651407, "nodes": [5352609022, 5352609021, 5352609020, 5352609019, 5352609022], "tags": {"building": "yes", "tourism": "hotel"}}, {"type": "way", "id": 554651408, "nodes": [5352609024, 5352609029, 5352609028, 5352609027, 5352609030, 5352609023, 5352609026, 5352609044, 5352609045, 5352609047, 5352609031, 5352609032, 5352609033, 5352609034, 5352609035, 5352609036, 5352609048, 5352609037, 5352609038, 5352609039, 5352609040, 5352609041, 5352609046, 5352609042, 5352609043, 5352609025, 5352609024], "tags": {"building": "yes", "tourism": "hotel"}}, {"type": "way", "id": 554672537, "nodes": [5352803446, 5352803445, 5352803444, 5352803443, 5352803442, 5352803441, 5352803440, 5352803439, 5352803438, 5352803437, 5352803436, 5352803430, 5352803435, 5352803433, 5352803434, 5352803446], "tags": {"intermittent": "yes", "leisure": "bathing_place", "name": "Blue Lagoon", "natural": "water", "seasonal": "wet_season", "sport": "swimming", "tourism": "attraction", "water": "lagoon"}}, {"type": "way", "id": 554749520, "nodes": [3933648227, 3933648218], "tags": {"bridge": "yes", "bridge:structure": "living roots", "highway": "path", "layer": "1", "name": "Double decker root bridge", "tourism": "attraction"}}, {"type": "way", "id": 554955915, "nodes": [5355167451, 5355167449, 5355167448, 5355167447, 5355167446, 5355167445, 5355167444, 5355167450, 5355167443, 5355167442, 5355167441, 5355167440, 5355167439, 5355167438, 5355167452, 5355167437, 5355167436, 5355167435, 5355167434, 5355167433, 5355167432, 5355167431, 5355167451], "tags": {"name": "Polo Orchid Resort Cherrapunjee", "tourism": "hotel"}}, {"type": "way", "id": 554955925, "nodes": [5355167532, 5355167531, 5355167530, 5355167529, 5355167532], "tags": {"building": "yes", "tourism": "hotel"}}, {"type": "way", "id": 555536214, "nodes": [5359722450, 5359722451, 5359722448, 5359722452, 5359722445, 5359722443, 5359722454, 5359722440, 5359722455, 5359722456, 5359722441, 5359722453, 5359722442, 5359722457, 5359722458, 5359722444, 5359722465, 5359722464, 5359722463, 5359722446, 5359722447, 5359722449, 5359722459, 5359722462, 5359722461, 5359722460, 5359722450], "tags": {"building": "yes", "tourism": "hotel"}}, {"type": "way", "id": 1134497836, "nodes": [10576614194, 10576614195, 10576614196, 10576614197, 10576614194], "tags": {"building": "yes", "name": "7 Sisters Falls View Inn", "tourism": "guest_house"}}, {"type": "way", "id": 1267007976, "nodes": [3933648202, 5352803429], "tags": {"bridge": "yes", "highway": "path", "layer": "1", "surface": "living_wood", "tourism": "attraction"}}]}