{"version": 0.6, "generator": "Overpass API 0.7.62.1 084b4234", "osm3s": {"timestamp_osm_base": "2024-04-27T01:33:06Z", "copyright": "The data included in this document is from www.openstreetmap.org. The data is made available under ODbL."}, "elements": [{"type": "node", "id": 3978584648, "lat": 37.062999, "lon": 7.3794164}, {"type": "node", "id": 3978584649, "lat": 37.0627587, "lon": 7.379678}, {"type": "node", "id": 3978584650, "lat": 37.06249, "lon": 7.3797543}, {"type": "node", "id": 3978584651, "lat": 37.0624003, "lon": 7.3792584}, {"type": "node", "id": 3978584652, "lat": 37.06282, "lon": 7.3789849}, {"type": "node", "id": 4235893267, "lat": 37.0569464, "lon": 7.3863734}, {"type": "node", "id": 4250811342, "lat": 37.0570957, "lon": 7.3864335}, {"type": "node", "id": 4250811343, "lat": 37.0573453, "lon": 7.3854627}, {"type": "node", "id": 4250811347, "lat": 37.0564292, "lon": 7.3860822}, {"type": "node", "id": 4250811348, "lat": 37.0563949, "lon": 7.386152}, {"type": "node", "id": 4260760230, "lat": 37.0664229, "lon": 7.3807134}, {"type": "node", "id": 4260760231, "lat": 37.0664147, "lon": 7.380777}, {"type": "node", "id": 4260760232, "lat": 37.0662889, "lon": 7.3807516}, {"type": "node", "id": 4260760233, "lat": 37.0662971, "lon": 7.380688}, {"type": "node", "id": 4978250021, "lat": 37.0654955, "lon": 7.3300846, "tags": {"name": "\u0627\u0644\u0643\u0627\u0641 \u0627\u0644\u0648\u0627\u0639\u0631", "name:ar": "\u0627\u0644\u0643\u0627\u0641 \u0627\u0644\u0648\u0627\u0639\u0631", "name:fr": "Kaf el Waar", "tourism": "attraction"}}, {"type": "node", "id": 5297051525, "lat": 37.0790091, "lon": 7.3743332}, {"type": "node", "id": 5297051526, "lat": 37.0791482, "lon": 7.3748321}, {"type": "node", "id": 5297051527, "lat": 37.0790733, "lon": 7.3750655}, {"type": "node", "id": 5297051528, "lat": 37.078855, "lon": 7.3751137}, {"type": "node", "id": 5297051529, "lat": 37.0783692, "lon": 7.3748026}, {"type": "node", "id": 5297051530, "lat": 37.0778728, "lon": 7.3744727}, {"type": "node", "id": 5297051531, "lat": 37.0777957, "lon": 7.3742984}, {"type": "node", "id": 5297051532, "lat": 37.0779605, "lon": 7.373837}, {"type": "node", "id": 5297051533, "lat": 37.0781082, "lon": 7.3735205}, {"type": "node", "id": 5297051534, "lat": 37.0783029, "lon": 7.3733998}, {"type": "node", "id": 10297206909, "lat": 37.0646143, "lon": 7.3368283, "tags": {"name:fr": "Plage Sable d\u2019or 3", "tourism": "attraction"}}, {"type": "way", "id": 394968795, "nodes": [3978584648, 3978584649, 3978584650, 3978584651, 3978584652, 3978584648], "tags": {"addr:city": "Cheta\u00efbi", "addr:postcode": "23130", "name": "Parc Mairie", "name:ar": "\u0628\u0627\u0631\u0643 \u0627\u0644\u0628\u0644\u062f\u064a\u0629", "tourism": "caravan_site"}}, {"type": "way", "id": 425770889, "nodes": [4250811342, 4250811343, 4250811347, 4250811348, 4235893267, 4250811342], "tags": {"addr:city": "chetaibi", "addr:postcode": "23014", "tourism": "camp_site"}}, {"type": "way", "id": 426808194, "nodes": [4260760230, 4260760231, 4260760232, 4260760233, 4260760230], "tags": {"addr:city": "Cheta\u00efbi", "addr:postcode": "23014", "addr:street": "Rue Mezghiche Houcine", "building": "yes", "name": "SNTF", "name:ar": "\u0633\u064a \u0623\u0646 \u062a\u064a \u0623\u0641", "tourism": "hostel"}}, {"type": "way", "id": 548299729, "nodes": [5297051525, 5297051526, 5297051527, 5297051528, 5297051529, 5297051530, 5297051531, 5297051532, 5297051533, 5297051534, 5297051525], "tags": {"tourism": "picnic_site"}}]}