{"version": 0.6, "generator": "Overpass API 0.7.62.1 084b4234", "osm3s": {"timestamp_osm_base": "2024-04-26T23:26:15Z", "copyright": "The data included in this document is from www.openstreetmap.org. The data is made available under ODbL."}, "elements": [{"type": "node", "id": 318351582, "lat": 24.2953763, "lon": 91.7473654}, {"type": "node", "id": 318351589, "lat": 24.2952534, "lon": 91.7471569}, {"type": "node", "id": 318351592, "lat": 24.2953275, "lon": 91.7471043}, {"type": "node", "id": 318351603, "lat": 24.2954503, "lon": 91.7473129}, {"type": "node", "id": 318742129, "lat": 24.3282138, "lon": 91.7774109}, {"type": "node", "id": 318742135, "lat": 24.3281171, "lon": 91.7772926}, {"type": "node", "id": 318742140, "lat": 24.3280479, "lon": 91.7773526}, {"type": "node", "id": 318742146, "lat": 24.3281662, "lon": 91.7774801}, {"type": "node", "id": 392553072, "lat": 24.2953134, "lon": 91.7472581, "tags": {"name": "Tea Research Institute Guest House", "tourism": "guest_house"}}, {"type": "node", "id": 401422130, "lat": 24.3009428, "lon": 91.7660233}, {"type": "node", "id": 401422493, "lat": 24.3000563, "lon": 91.7600109}, {"type": "node", "id": 401422494, "lat": 24.2998698, "lon": 91.760032}, {"type": "node", "id": 401422495, "lat": 24.2998634, "lon": 91.7599634}, {"type": "node", "id": 401422496, "lat": 24.3000498, "lon": 91.7599422}, {"type": "node", "id": 401444669, "lat": 24.301964, "lon": 91.7598473}, {"type": "node", "id": 401444670, "lat": 24.3018658, "lon": 91.7598691}, {"type": "node", "id": 401444671, "lat": 24.3019088, "lon": 91.7601033}, {"type": "node", "id": 401444672, "lat": 24.3018696, "lon": 91.7601686}, {"type": "node", "id": 401444673, "lat": 24.3016695, "lon": 91.7602129}, {"type": "node", "id": 401444674, "lat": 24.3016859, "lon": 91.760302}, {"type": "node", "id": 401444675, "lat": 24.3020335, "lon": 91.7602252}, {"type": "node", "id": 4537382201, "lat": 24.3006414, "lon": 91.763501}, {"type": "node", "id": 4537382202, "lat": 24.3014195, "lon": 91.7635985}, {"type": "node", "id": 4537382203, "lat": 24.3019234, "lon": 91.7635579}, {"type": "node", "id": 4537382204, "lat": 24.3021383, "lon": 91.7636229}, {"type": "node", "id": 4537382205, "lat": 24.3026274, "lon": 91.763688}, {"type": "node", "id": 4537382206, "lat": 24.3027089, "lon": 91.7639075}, {"type": "node", "id": 4537382207, "lat": 24.3027163, "lon": 91.7640214}, {"type": "node", "id": 4537382208, "lat": 24.3027015, "lon": 91.7641189}, {"type": "node", "id": 4537382209, "lat": 24.3026941, "lon": 91.7641758}, {"type": "node", "id": 4537382210, "lat": 24.3028868, "lon": 91.7646637}, {"type": "node", "id": 4537382211, "lat": 24.3025459, "lon": 91.7652573}, {"type": "node", "id": 4537382212, "lat": 24.3029979, "lon": 91.7652979}, {"type": "node", "id": 4537382213, "lat": 24.3029016, "lon": 91.7666395}, {"type": "node", "id": 4537382214, "lat": 24.3023123, "lon": 91.7663567}, {"type": "node", "id": 4537382215, "lat": 24.3016439, "lon": 91.7664623}, {"type": "node", "id": 4537382216, "lat": 24.3010564, "lon": 91.7650784}, {"type": "node", "id": 4537382217, "lat": 24.3006439, "lon": 91.7642722}, {"type": "node", "id": 4537382218, "lat": 24.3028127, "lon": 91.7650987}, {"type": "node", "id": 4537382219, "lat": 24.3028942, "lon": 91.7649422}, {"type": "node", "id": 4707949703, "lat": 24.4021538, "lon": 91.5991844, "tags": {"name:en": "The palace", "tourism": "hotel"}}, {"type": "node", "id": 4866231922, "lat": 24.3091217, "lon": 91.7307824, "tags": {"name:en": "Tea Town Rest House", "tourism": "hotel"}}, {"type": "node", "id": 4871957537, "lat": 24.3094064, "lon": 91.7252512, "tags": {"addr:city": "Sreemangal", "addr:street": "Dhaka - Moulvibazar Highway", "name": "Sreemangal Guest House", "name:bn": "\u09b6\u09cd\u09b0\u09c0\u09ae\u0999\u09cd\u0997\u09b2 \u0997\u09c7\u09b8\u09cd\u099f \u09b9\u09be\u0989\u09b8", "tourism": "guest_house"}}, {"type": "node", "id": 4873352596, "lat": 24.4841159, "lon": 91.7774459}, {"type": "node", "id": 4873352597, "lat": 24.4841313, "lon": 91.7776585}, {"type": "node", "id": 4873352598, "lat": 24.4841045, "lon": 91.7776693}, {"type": "node", "id": 4873352599, "lat": 24.4841096, "lon": 91.7777467}, {"type": "node", "id": 4873352600, "lat": 24.4841387, "lon": 91.7777444}, {"type": "node", "id": 4873352601, "lat": 24.4841338, "lon": 91.7777792}, {"type": "node", "id": 4873352602, "lat": 24.484158, "lon": 91.7777775}, {"type": "node", "id": 4873352603, "lat": 24.4841679, "lon": 91.7779411}, {"type": "node", "id": 4873352604, "lat": 24.4842838, "lon": 91.7779326}, {"type": "node", "id": 4873352605, "lat": 24.4842656, "lon": 91.7776317}, {"type": "node", "id": 4873352606, "lat": 24.4842363, "lon": 91.7776424}, {"type": "node", "id": 4873352607, "lat": 24.4842214, "lon": 91.7774367}, {"type": "node", "id": 4892358822, "lat": 24.3053846, "lon": 91.7394126}, {"type": "node", "id": 4892358823, "lat": 24.3054715, "lon": 91.739596}, {"type": "node", "id": 4892358824, "lat": 24.3052863, "lon": 91.7397017}, {"type": "node", "id": 4892358825, "lat": 24.3051993, "lon": 91.7395182}, {"type": "node", "id": 5100014421, "lat": 24.3460589, "lon": 91.7445859, "tags": {"name:en": "banglow", "tourism": "guest_house"}}, {"type": "node", "id": 5580524045, "lat": 24.3107617, "lon": 91.7331531, "tags": {"addr:street": "College Road", "email": "greenleaftour.bd@gmail.com", "internet_access": "wlan", "name:en": "Green Leaf Guest House", "opening_hours": "24/7", "phone": "+8801723292994", "tourism": "hotel", "website": "http://www.greenleafeco-tourism.com"}}, {"type": "node", "id": 5587551059, "lat": 24.3150205, "lon": 91.7231671, "tags": {"addr:city": "Sreemangal", "name": "Zoo - Sitesh Ranjan Deb (Wildlife Conservationist)", "name:bn": "\u099a\u09bf\u09a1\u09bc\u09bf\u09af\u09bc\u09be\u0996\u09be\u09a8\u09be - \u09b8\u09bf\u09a4\u09c7\u09b6 \u09b0\u099e\u09cd\u099c\u09a8 \u09a6\u09c7\u09ac (\u09ac\u09a8\u09cd\u09af\u09aa\u09cd\u09b0\u09be\u09a3\u09c0 \u09b8\u0982\u09b0\u0995\u09cd\u09b7\u09a3\u0995\u09be\u09b0\u09c0)", "tourism": "zoo"}}, {"type": "node", "id": 6199801714, "lat": 24.3452016, "lon": 91.7002375, "tags": {"man_made": "tower", "tourism": "viewpoint", "tower:type": "observation"}}, {"type": "node", "id": 6199801741, "lat": 24.3508757, "lon": 91.7030136, "tags": {"man_made": "tower", "tourism": "viewpoint", "tower:type": "observation"}}, {"type": "node", "id": 6199801749, "lat": 24.3515621, "lon": 91.7055306}, {"type": "node", "id": 6199801750, "lat": 24.351406, "lon": 91.7055791}, {"type": "node", "id": 6199801751, "lat": 24.3513861, "lon": 91.7055016}, {"type": "node", "id": 6199801752, "lat": 24.3515421, "lon": 91.7054532}, {"type": "node", "id": 6787831183, "lat": 24.489816, "lon": 91.7619282, "tags": {"addr:city": "Moulvibazar", "addr:housename": "S R Plaza", "addr:street": "M Saifur Rahman Road", "name": "Rest Inn Hotel", "tourism": "hotel"}}, {"type": "node", "id": 7003395785, "lat": 24.3069363, "lon": 91.7245966, "tags": {"internet_access": "wlan", "name:en": "Hotel Merina (from 500Tk, 11-2019)", "tourism": "hotel", "website": "https://hotelmerina.com/"}}, {"type": "node", "id": 7080121485, "lat": 24.2940775, "lon": 91.7655316, "tags": {"addr:postcode": "3210", "addr:street": "Radhanagar", "email": "balishiraresort@Gmail.com", "internet_access": "wlan", "name:en": "Balishira Resort", "phone": "+8801766557760", "tourism": "hotel", "website": "https://balishiraresort.com/"}}, {"type": "node", "id": 8694309514, "lat": 24.291892, "lon": 91.7395171, "tags": {"name": "Noor Villa", "tourism": "hotel"}}, {"type": "way", "id": 28954558, "nodes": [318351582, 318351589, 318351592, 318351603, 318351582], "tags": {"name": "Tea Research Institute guest house Sreemongal", "tourism": "guest_house"}}, {"type": "way", "id": 28986960, "nodes": [318742129, 318742135, 318742140, 318742146, 318742129], "tags": {"name": "Lawachara forest village", "tourism": "attraction"}}, {"type": "way", "id": 34580584, "nodes": [401422493, 401422494, 401422495, 401422496, 401422493], "tags": {"addr:street": "Sreemangal - Bhanugach Road", "building": "yes", "fee": "yes", "name": "Tea Museum", "name:bn": "\u099a\u09be \u09af\u09be\u09a6\u09c1\u0998\u09b0", "opening_hours": "PH,Mo-Su 09:00-16:00", "tourism": "museum"}}, {"type": "way", "id": 34582634, "nodes": [401444669, 401444670, 401444671, 401444672, 401444673, 401444674, 401444675, 401444669], "tags": {"name": "Bangladesh Tea Board Resort", "tourism": "guest_house"}}, {"type": "way", "id": 457631212, "nodes": [4537382201, 4537382202, 4537382203, 4537382204, 4537382205, 4537382206, 4537382207, 4537382208, 4537382209, 4537382210, 4537382219, 4537382218, 4537382211, 4537382212, 4537382213, 4537382214, 4537382215, 401422130, 4537382216, 4537382217, 4537382201], "tags": {"addr:city": "Moulvibazar", "addr:housenumber": "Radhanagar", "addr:postcode": "3210", "addr:street": "Sreemangal - Bhanugach Road", "building": "yes", "name": "Grand Sultan Tea Resort & Golf", "name:bn": "\u0997\u09cd\u09b0\u09be\u09a8\u09cd\u09a1 \u09b8\u09c1\u09b2\u09a4\u09be\u09a8 \u099f\u09bf \u09b0\u09bf\u09b8\u09cb\u09b0\u09cd\u099f \u098f\u09a8\u09cd\u09a1 \u0997\u09b2\u09ab \u0995\u09cd\u09b2\u09be\u09ac", "stars": "5", "tourism": "hotel", "website": "https://www.grandsultanresort.com/"}}, {"type": "way", "id": 495594420, "nodes": [4873352596, 4873352597, 4873352598, 4873352599, 4873352600, 4873352601, 4873352602, 4873352603, 4873352604, 4873352605, 4873352606, 4873352607, 4873352596], "tags": {"addr:city": "Moulvibazar", "building": "yes", "name": "Moulvibazar Circuit House", "name:bn": "\u09ae\u09cc\u09b2\u09ad\u09c0\u09ac\u09be\u099c\u09be\u09b0 \u09b8\u09be\u09b0\u09cd\u0995\u09bf\u099f \u09b9\u09be\u0989\u09b8", "tourism": "guest_house"}}, {"type": "way", "id": 497716615, "nodes": [4892358822, 4892358823, 4892358824, 4892358825, 4892358822], "tags": {"addr:city": "Sreemangal", "addr:housenumber": "10", "addr:postcode": "3210", "addr:street": "Sreemangal - Bhanugach Road", "air_conditioning": "yes", "building": "yes", "guest_house": "guest_house", "internet_access": "wlan", "internet_access:fee": "no", "name": "Hill View Rest House", "name:bn": "\u09b9\u09bf\u09b2 \u09ad\u09bf\u0989 \u09b0\u09c7\u09b7\u09cd\u099f \u09b9\u09be\u0989\u09b8", "operator": "Privet", "payment:cash": "yes", "payment:credit_cards": "yes", "payment:debit_cards": "yes", "phone": "+8801736284156", "reservation": "yes", "tourism": "guest_house"}}, {"type": "way", "id": 662227909, "nodes": [6199801752, 6199801751, 6199801750, 6199801749, 6199801752], "tags": {"building": "yes", "name": "Baikka Beel Visitor Centre", "tourism": "attraction"}}]}