{"version": 0.6, "generator": "Overpass API 0.7.62.1 084b4234", "osm3s": {"timestamp_osm_base": "2024-04-27T00:13:46Z", "copyright": "The data included in this document is from www.openstreetmap.org. The data is made available under ODbL."}, "elements": [{"type": "node", "id": 5118900268, "lat": 23.5314926, "lon": 90.7154868, "tags": {"name": "Vandari Hotel", "tourism": "hotel"}}, {"type": "node", "id": 5542209722, "lat": 23.3488657, "lon": 90.8638294, "tags": {"addr:street": "batabaria-bachaiya road, monpura,kachua,chandpur", "internet_access": "wlan", "name": "Bangladesh", "name:en": "Shiraz villa", "tourism": "apartment"}}, {"type": "node", "id": 6004173386, "lat": 23.4845208, "lon": 90.5982171, "tags": {"name:en": "\u09b7\u09be\u099f\u09a8\u09b2", "tourism": "viewpoint"}}, {"type": "node", "id": 6005096787, "lat": 23.4556955, "lon": 90.7070868, "tags": {"name:en": "Matlab Bridge", "tourism": "viewpoint"}}, {"type": "node", "id": 11187908393, "lat": 23.3962266, "lon": 90.5984477, "tags": {"name": "\u09ae\u09cb\u09b9\u09a8\u09aa\u09c1\u09b0 \u09aa\u09b0\u09cd\u09af\u099f\u09a8 \u0995\u09c7\u09a8\u09cd\u09a6\u09cd\u09b0", "name:en": "Mohonpur Tourist Centre", "tourism": "attraction"}}]}