{"version": 0.6, "generator": "Overpass API 0.7.62.1 084b4234", "osm3s": {"timestamp_osm_base": "2024-04-26T23:31:24Z", "copyright": "The data included in this document is from www.openstreetmap.org. The data is made available under ODbL."}, "elements": [{"type": "node", "id": 1262013973, "lat": 25.2988198, "lon": 91.5824514, "tags": {"name": "Mawsynram", "name:hi": "\u092e\u093e\u0935\u0938\u093f\u0928\u0930\u093e\u092e", "place": "town", "tourism": "attraction", "wikidata": "Q2708616", "wikipedia": "en:Mawsynram"}}, {"type": "node", "id": 3178190093, "lat": 25.3033534, "lon": 91.7270047, "tags": {"name": "Arwah Cave", "natural": "cave_entrance", "tourism": "attraction"}}, {"type": "node", "id": 3178190297, "lat": 25.2885616, "lon": 91.7042077, "tags": {"leisure": "resort", "name": "Sa-I-Mika Park Resort", "tourism": "attraction"}}, {"type": "node", "id": 3700997996, "lat": 25.4215997, "lon": 91.7915274, "tags": {"tourism": "viewpoint"}}, {"type": "node", "id": 3700999867, "lat": 25.3113607, "lon": 91.732834, "tags": {"tourism": "attraction", "waterway": "waterfall"}}, {"type": "node", "id": 4571342649, "lat": 25.5378683, "lon": 91.8220559, "tags": {"name": "Kshaid Lai Pateng", "name:en": "Elephant Falls", "tourism": "attraction", "waterway": "waterfall"}}, {"type": "node", "id": 4571345967, "lat": 25.3112017, "lon": 91.7308075, "tags": {"amenity": "shelter", "shelter_type": "picnic_shelter", "tourism": "viewpoint"}}, {"type": "node", "id": 4725188191, "lat": 25.284836, "lon": 91.7201793, "tags": {"name": "Pateng Home Stay", "name:en": "Pateng Home Stay", "tourism": "guest_house"}}, {"type": "node", "id": 4905125028, "lat": 25.2989007, "lon": 91.6992614, "tags": {"name": "Umtynghiang Falls", "name:en": "Umtynghiang Falls", "tourism": "attraction", "waterway": "waterfall"}}, {"type": "node", "id": 5352802384, "lat": 25.2933296, "lon": 91.6836709, "tags": {"name": "Dai\u00f1thlen Falls", "tourism": "attraction", "waterway": "waterfall"}}, {"type": "node", "id": 5352802387, "lat": 25.2915847, "lon": 91.6782783}, {"type": "node", "id": 5352802388, "lat": 25.2915023, "lon": 91.6782743}, {"type": "node", "id": 5352802389, "lat": 25.2913907, "lon": 91.678226}, {"type": "node", "id": 5352802390, "lat": 25.2913992, "lon": 91.678167}, {"type": "node", "id": 5352802391, "lat": 25.2914926, "lon": 91.6781683}, {"type": "node", "id": 5352802392, "lat": 25.2915229, "lon": 91.6781428}, {"type": "node", "id": 5352802393, "lat": 25.2915629, "lon": 91.6780825}, {"type": "node", "id": 5352802394, "lat": 25.2916163, "lon": 91.6780892}, {"type": "node", "id": 5352802395, "lat": 25.2916345, "lon": 91.6781294}, {"type": "node", "id": 5352802396, "lat": 25.291632, "lon": 91.6782126, "tags": {"name": "Wei Sawdong", "tourism": "attraction", "waterway": "waterfall"}}, {"type": "node", "id": 5353042028, "lat": 25.3285268, "lon": 91.7192946, "tags": {"name": "Lyngnga", "tourism": "attraction", "waterway": "waterfall"}}, {"type": "node", "id": 5353042053, "lat": 25.3218657, "lon": 91.709927, "tags": {"name": "Kshaid Diengdoh", "tourism": "attraction", "waterway": "waterfall"}}, {"type": "node", "id": 5353042061, "lat": 25.3177391, "lon": 91.706998, "tags": {"name": "Lyngksiar", "tourism": "attraction", "waterway": "waterfall"}}, {"type": "node", "id": 5353042073, "lat": 25.313901, "lon": 91.7015907, "tags": {"name": "Janailar", "tourism": "attraction", "waterway": "waterfall"}}, {"type": "node", "id": 5353042095, "lat": 25.3059866, "lon": 91.6942294, "tags": {"name": "Mawsawa", "tourism": "attraction", "waterway": "waterfall"}}, {"type": "node", "id": 5355167148, "lat": 25.3315536, "lon": 91.7286515, "tags": {"name": "Kshaid-U-Rai", "tourism": "attraction", "waterway": "waterfall"}}, {"type": "node", "id": 5355192300, "lat": 25.3914046, "lon": 91.7422627, "tags": {"name": "Rock Bridge", "tourism": "attraction"}}, {"type": "node", "id": 5355192302, "lat": 25.3899762, "lon": 91.742483, "tags": {"name": "Devil's Rock", "tourism": "attraction"}}, {"type": "node", "id": 5355192425, "lat": 25.3792561, "lon": 91.7536598, "tags": {"direction": "157, SSE", "tourism": "viewpoint"}}, {"type": "node", "id": 5380914133, "lat": 25.5317552, "lon": 91.8511876, "tags": {"tourism": "viewpoint"}}, {"type": "node", "id": 5411135453, "lat": 25.4482809, "lon": 91.7483228, "tags": {"name": "Khasi Heritage Village", "tourism": "attraction"}}, {"type": "node", "id": 5411135491, "lat": 25.4453055, "lon": 91.7410004, "tags": {"direction": "270, W", "tourism": "viewpoint"}}, {"type": "node", "id": 5465547132, "lat": 25.3067771, "lon": 91.5766668, "tags": {"name": "Mawtongjnam Ne Thong", "natural": "rock", "tourism": "attraction"}}, {"type": "node", "id": 5465547172, "lat": 25.2955109, "lon": 91.5696032, "tags": {"name": "Khreng Khreng Falls", "tourism": "attraction", "waterway": "waterfall"}}, {"type": "node", "id": 5465547299, "lat": 25.3045075, "lon": 91.585097, "tags": {"name": "Mawjymbuin Cave", "natural": "cave_entrance", "tourism": "attraction"}}, {"type": "node", "id": 5864925486, "lat": 25.5808331, "lon": 91.8684981, "tags": {"name": "Ibapynsuk Shadap", "tourism": "apartment"}}, {"type": "node", "id": 5864925487, "lat": 25.5822145, "lon": 91.868413, "tags": {"name": "Home", "tourism": "apartment"}}, {"type": "node", "id": 5864925489, "lat": 25.5825655, "lon": 91.8688073, "tags": {"name": "Armand Lanong", "tourism": "apartment"}}, {"type": "node", "id": 5864925492, "lat": 25.5836807, "lon": 91.8666781, "tags": {"name": "Steven Mawlein", "tourism": "apartment"}}, {"type": "node", "id": 5864949387, "lat": 25.5832568, "lon": 91.8695682, "tags": {"name": "Banteilang L Mawphlang", "tourism": "apartment"}}, {"type": "node", "id": 5864949393, "lat": 25.5844156, "lon": 91.8697417, "tags": {"name": "Paul Lyngdoh & Sweety Pala", "tourism": "apartment"}}, {"type": "node", "id": 5864949986, "lat": 25.5840519, "lon": 91.8669788, "tags": {"name": "Phila Kharkongor", "tourism": "apartment"}}, {"type": "node", "id": 6160571585, "lat": 25.4469039, "lon": 91.7626596, "tags": {"name": "Mawphlang Dam Viewpoint", "name:en": "Mawkhan Viewpoint", "tourism": "viewpoint"}}, {"type": "node", "id": 6203901249, "lat": 25.291301, "lon": 91.6779363, "tags": {"tourism": "viewpoint"}}, {"type": "node", "id": 6855328186, "lat": 25.2847022, "lon": 91.7195258, "tags": {"addr:street": "Shillong Road", "name": "Inn Sohra", "name:en": "Inn Sohra Bed & Breakfast", "opening_hours": "24/7", "tourism": "guest_house"}}, {"type": "node", "id": 6960013898, "lat": 25.5912933, "lon": 91.8675414, "tags": {"tourism": "viewpoint"}}, {"type": "node", "id": 7025305787, "lat": 25.6015239, "lon": 91.8573209, "tags": {"name": "Beadon Bishop Viewpoint", "tourism": "viewpoint"}}, {"type": "node", "id": 7113636602, "lat": 25.3247275, "lon": 91.7338717, "tags": {"name": "Rani Homestay", "phone": "+91 70058 57640,+91 69095 29277", "tourism": "hotel"}}, {"type": "node", "id": 8668401167, "lat": 25.3041049, "lon": 91.5807299}, {"type": "node", "id": 8668401168, "lat": 25.3040248, "lon": 91.5808047}, {"type": "node", "id": 8668401169, "lat": 25.3040998, "lon": 91.5808975}, {"type": "node", "id": 8668401170, "lat": 25.3039957, "lon": 91.5810008}, {"type": "node", "id": 8668401171, "lat": 25.3038878, "lon": 91.5808839}, {"type": "node", "id": 8668401172, "lat": 25.303796, "lon": 91.5809724}, {"type": "node", "id": 8668401173, "lat": 25.3039672, "lon": 91.581153}, {"type": "node", "id": 8668401174, "lat": 25.3042425, "lon": 91.5808926}, {"type": "node", "id": 8668441176, "lat": 25.3041844, "lon": 91.5788934}, {"type": "node", "id": 8668441177, "lat": 25.3043295, "lon": 91.5790853}, {"type": "node", "id": 8668441178, "lat": 25.3042509, "lon": 91.5791688}, {"type": "node", "id": 8668441179, "lat": 25.304143, "lon": 91.5790327}, {"type": "node", "id": 8668441180, "lat": 25.3040588, "lon": 91.5791106}, {"type": "node", "id": 8668441181, "lat": 25.3041404, "lon": 91.5792332}, {"type": "node", "id": 8668441182, "lat": 25.3040661, "lon": 91.5793008}, {"type": "node", "id": 8668441183, "lat": 25.3039448, "lon": 91.5791162}, {"type": "node", "id": 8679064624, "lat": 25.2953459, "lon": 91.5810221}, {"type": "node", "id": 8679064625, "lat": 25.2954351, "lon": 91.5814073}, {"type": "node", "id": 8679064626, "lat": 25.2953901, "lon": 91.5814201}, {"type": "node", "id": 8679064627, "lat": 25.2953807, "lon": 91.5813795}, {"type": "node", "id": 8679064628, "lat": 25.2953142, "lon": 91.5813983}, {"type": "node", "id": 8679064629, "lat": 25.295248, "lon": 91.5811123}, {"type": "node", "id": 8679064630, "lat": 25.2953158, "lon": 91.5810931}, {"type": "node", "id": 8679064631, "lat": 25.2953022, "lon": 91.5810344}, {"type": "node", "id": 8681149454, "lat": 25.2868225, "lon": 91.5763941}, {"type": "node", "id": 8681149455, "lat": 25.2868785, "lon": 91.5764142}, {"type": "node", "id": 8681149456, "lat": 25.2868714, "lon": 91.5764385}, {"type": "node", "id": 8681149457, "lat": 25.2869351, "lon": 91.5764613}, {"type": "node", "id": 8681149458, "lat": 25.2869232, "lon": 91.5765019}, {"type": "node", "id": 8681149459, "lat": 25.2868673, "lon": 91.5764818}, {"type": "node", "id": 8681149460, "lat": 25.2868406, "lon": 91.5765729}, {"type": "node", "id": 8681149461, "lat": 25.2869305, "lon": 91.5766052}, {"type": "node", "id": 8681149462, "lat": 25.2869061, "lon": 91.5766885}, {"type": "node", "id": 8681149463, "lat": 25.2868364, "lon": 91.5766635}, {"type": "node", "id": 8681149464, "lat": 25.2868259, "lon": 91.5766996}, {"type": "node", "id": 8681149465, "lat": 25.2867752, "lon": 91.5766814}, {"type": "node", "id": 8681149466, "lat": 25.2867857, "lon": 91.5766455}, {"type": "node", "id": 8681149467, "lat": 25.2867229, "lon": 91.576623}, {"type": "node", "id": 8681149468, "lat": 25.2867512, "lon": 91.5765266}, {"type": "node", "id": 8681149469, "lat": 25.2867806, "lon": 91.5765372}, {"type": "node", "id": 8791625796, "lat": 25.285501, "lon": 91.5749235}, {"type": "node", "id": 8791625797, "lat": 25.285479, "lon": 91.5749676}, {"type": "node", "id": 8791625798, "lat": 25.2853212, "lon": 91.574871}, {"type": "node", "id": 8791625799, "lat": 25.2853608, "lon": 91.5747919}, {"type": "node", "id": 8791625800, "lat": 25.2854168, "lon": 91.5748262}, {"type": "node", "id": 8791625801, "lat": 25.2853992, "lon": 91.5748613}, {"type": "node", "id": 8918711388, "lat": 25.28603, "lon": 91.5759303, "tags": {"name": "Rit Mawksir Viewpoint", "tourism": "viewpoint"}}, {"type": "node", "id": 10296466445, "lat": 25.298978, "lon": 91.5813722}, {"type": "node", "id": 10296466446, "lat": 25.2989261, "lon": 91.5814297}, {"type": "node", "id": 10296466447, "lat": 25.2989921, "lon": 91.5815025}, {"type": "node", "id": 10296466448, "lat": 25.2990439, "lon": 91.581445}, {"type": "node", "id": 10298195263, "lat": 25.3000345, "lon": 91.5848611, "tags": {"name": "Emily and Sankrita Homestay", "tourism": "guest_house"}}, {"type": "node", "id": 10298242254, "lat": 25.2987255, "lon": 91.5866699, "tags": {"name": "Wansa-Naki Homestay", "tourism": "guest_house"}}, {"type": "node", "id": 10300084190, "lat": 25.2965639, "lon": 91.5793183, "tags": {"name": "Mar \u00cfa Homestay", "tourism": "guest_house"}}, {"type": "node", "id": 10570250785, "lat": 25.3173151, "lon": 91.8212671, "tags": {"tourism": "viewpoint"}}, {"type": "node", "id": 11583935770, "lat": 25.3336603, "lon": 91.8276742, "tags": {"tourism": "viewpoint"}}, {"type": "node", "id": 11752769677, "lat": 25.3226012, "lon": 91.7458011, "tags": {"tourism": "viewpoint"}}, {"type": "node", "id": 11752790887, "lat": 25.286216, "lon": 91.7193351}, {"type": "node", "id": 11752790888, "lat": 25.2861256, "lon": 91.7193614}, {"type": "node", "id": 11752790889, "lat": 25.2860918, "lon": 91.7192194}, {"type": "node", "id": 11752790890, "lat": 25.2861823, "lon": 91.7191931}, {"type": "node", "id": 11758294137, "lat": 25.4419762, "lon": 91.8232835, "tags": {"name": "Hillol Resort", "tourism": "hotel"}}, {"type": "node", "id": 11758294371, "lat": 25.3889389, "lon": 91.8710005, "tags": {"tourism": "viewpoint"}}, {"type": "node", "id": 11758295012, "lat": 25.3274359, "lon": 91.7317661, "tags": {"name": "Trinity Homestay", "tourism": "guest_house"}}, {"type": "node", "id": 11758295013, "lat": 25.4418105, "lon": 91.8436496, "tags": {"name": "Moonlight", "tourism": "guest_house"}}, {"type": "node", "id": 11770812037, "lat": 25.5376061, "lon": 91.8225986, "tags": {"tourism": "viewpoint"}}, {"type": "way", "id": 554672508, "nodes": [5352802396, 5352802395, 5352802394, 5352802393, 5352802392, 5352802391, 5352802390, 5352802389, 5352802388, 5352802387, 5352802396], "tags": {"intermittent": "yes", "name": "Wei Sawdong", "natural": "water", "seasonal": "wet_season", "tourism": "attraction", "water": "lagoon"}}, {"type": "way", "id": 935401659, "nodes": [8668401167, 8668401168, 8668401169, 8668401170, 8668401171, 8668401172, 8668401173, 8668401174, 8668401167], "tags": {"addr:city": "Mawsynram", "addr:postcode": "793113", "addr:street": "Sohklong", "building": "yes", "building:levels": "3", "guest_house": "student_accomodation", "name": "St. Francis Xavier's Boarding", "tourism": "hostel"}}, {"type": "way", "id": 935405716, "nodes": [8668441176, 8668441177, 8668441178, 8668441179, 8668441180, 8668441181, 8668441182, 8668441183, 8668441176], "tags": {"addr:city": "Mawsynram", "addr:street": "Sohklong", "building": "yes", "guest_house": "student_accomodation", "name": "St. Francis Xavier's convent", "tourism": "hostel"}}, {"type": "way", "id": 936655096, "nodes": [8679064624, 8679064625, 8679064626, 8679064627, 8679064628, 8679064629, 8679064630, 8679064631, 8679064624], "tags": {"building": "yes", "building:levels": "3", "name": "Girls' hostel", "tourism": "hostel"}}, {"type": "way", "id": 936916365, "nodes": [8681149454, 8681149455, 8681149456, 8681149457, 8681149458, 8681149459, 8681149460, 8681149461, 8681149462, 8681149463, 8681149464, 8681149465, 8681149466, 8681149467, 8681149468, 8681149469, 8681149454], "tags": {"building": "yes", "layer": "1", "name": "Inspection Bungalow", "tourism": "guest_house"}}, {"type": "way", "id": 949677654, "nodes": [8791625796, 8791625797, 8791625798, 8791625799, 8791625800, 8791625801, 8791625796], "tags": {"building": "yes", "name": "Rit Mawksir", "tourism": "guest_house"}}, {"type": "way", "id": 1125996132, "nodes": [10296466445, 10296466446, 10296466447, 10296466448, 10296466445], "tags": {"building": "yes", "name": "Menang's Inn", "tourism": "guest_house"}}, {"type": "way", "id": 1265137098, "nodes": [11752790887, 11752790888, 11752790889, 11752790890, 11752790887], "tags": {"building": "yes", "name": "Labana", "tourism": "hotel"}}]}