{"version": 0.6, "generator": "Overpass API 0.7.62.1 084b4234", "osm3s": {"timestamp_osm_base": "2024-04-26T23:32:24Z", "copyright": "The data included in this document is from www.openstreetmap.org. The data is made available under ODbL."}, "elements": [{"type": "node", "id": 3446179712, "lat": 24.8880398, "lon": 90.7202741}, {"type": "node", "id": 3446179714, "lat": 24.8880481, "lon": 90.7199866}, {"type": "node", "id": 3446179777, "lat": 24.8881889, "lon": 90.7202793}, {"type": "node", "id": 3446179785, "lat": 24.8881972, "lon": 90.7199919}, {"type": "node", "id": 3559113606, "lat": 24.7165898, "lon": 90.9579979, "tags": {"addr:city": "\u09ae\u09a6\u09a8", "addr:city:bn": "\u09ae\u09a6\u09a8", "addr:city:en": "Madan", "addr:postcode": "2490", "addr:subdistrict": "\u09ae\u09a6\u09a8", "addr:subdistrict:bn": "\u09ae\u09a6\u09a8", "addr:subdistrict:en": "Madan", "name": "\u099c\u09c7\u09b2\u09be \u09aa\u09b0\u09bf\u09b7\u09a6 \u09a1\u09be\u0995 \u09ac\u09be\u0982\u09b2\u09cb", "name:bn": "\u099c\u09c7\u09b2\u09be \u09aa\u09b0\u09bf\u09b7\u09a6 \u09a1\u09be\u0995 \u09ac\u09be\u0982\u09b2\u09cb", "name:en": "Zilla Parisad Dak Banglo", "tourism": "guest_house"}}, {"type": "node", "id": 4585995391, "lat": 24.6679797, "lon": 90.9600891, "tags": {"name:en": "sosur bari", "tourism": "guest_house"}}, {"type": "node", "id": 5224145695, "lat": 24.8740606, "lon": 90.7279904}, {"type": "node", "id": 5224145696, "lat": 24.874075, "lon": 90.7279205}, {"type": "node", "id": 5224145697, "lat": 24.8742123, "lon": 90.7279549}, {"type": "node", "id": 5224145698, "lat": 24.8741979, "lon": 90.7280248}, {"type": "node", "id": 5224198160, "lat": 24.8922848, "lon": 90.7389864}, {"type": "node", "id": 5224198161, "lat": 24.8922776, "lon": 90.7391537}, {"type": "node", "id": 5224198162, "lat": 24.8921308, "lon": 90.7390681}, {"type": "node", "id": 5224198163, "lat": 24.8921346, "lon": 90.7389785}, {"type": "node", "id": 5224217959, "lat": 24.8738502, "lon": 90.976641}, {"type": "node", "id": 5224217960, "lat": 24.8737342, "lon": 90.9768086}, {"type": "node", "id": 5224217961, "lat": 24.8736622, "lon": 90.9767496}, {"type": "node", "id": 5224217962, "lat": 24.8737845, "lon": 90.9765809}, {"type": "node", "id": 5224232486, "lat": 24.8758425, "lon": 90.9774852}, {"type": "node", "id": 5224232487, "lat": 24.8757839, "lon": 90.9778064}, {"type": "node", "id": 5224232488, "lat": 24.8756418, "lon": 90.9777622}, {"type": "node", "id": 5224232489, "lat": 24.8757148, "lon": 90.9774534}, {"type": "node", "id": 5224265802, "lat": 24.8987235, "lon": 91.0152236}, {"type": "node", "id": 5224265803, "lat": 24.8987756, "lon": 91.0152039}, {"type": "node", "id": 5224265804, "lat": 24.8987978, "lon": 91.0152752}, {"type": "node", "id": 5224265805, "lat": 24.8987457, "lon": 91.015295}, {"type": "node", "id": 5683207500, "lat": 24.6761107, "lon": 90.8628482}, {"type": "node", "id": 5683207501, "lat": 24.6767005, "lon": 90.8643734}, {"type": "node", "id": 5683207502, "lat": 24.6735449, "lon": 90.8660785}, {"type": "node", "id": 5683207503, "lat": 24.6728698, "lon": 90.8642795}, {"type": "node", "id": 5752359673, "lat": 24.8921274, "lon": 90.7391458}, {"type": "node", "id": 5752360056, "lat": 24.8922193, "lon": 90.7390472, "tags": {"name": "Hotel Kobir International and Kutumbari Restaurant", "tourism": "hotel"}}, {"type": "node", "id": 5752360057, "lat": 24.8921183, "lon": 90.7389255}, {"type": "node", "id": 5752360058, "lat": 24.8921079, "lon": 90.7392681}, {"type": "node", "id": 5752360059, "lat": 24.8923173, "lon": 90.7392758}, {"type": "node", "id": 5752360060, "lat": 24.8923276, "lon": 90.7389332}, {"type": "node", "id": 5752360061, "lat": 24.8922671, "lon": 90.7392466}, {"type": "node", "id": 5752360062, "lat": 24.8921245, "lon": 90.7392436}, {"type": "node", "id": 5752360063, "lat": 24.8921259, "lon": 90.7391569}, {"type": "node", "id": 5752360064, "lat": 24.8922686, "lon": 90.7391598}, {"type": "node", "id": 5752360069, "lat": 24.8921996, "lon": 90.7391496}, {"type": "node", "id": 5765647534, "lat": 24.8049223, "lon": 90.7519653, "tags": {"addr:city": "Netrokona", "addr:country": "BD", "addr:district": "Netrokona", "name": "Madanpur Dak Bungalow", "operator": "Government", "tourism": "guest_house"}}, {"type": "node", "id": 5801145466, "lat": 24.6169186, "lon": 90.7850434}, {"type": "node", "id": 5801145467, "lat": 24.6169132, "lon": 90.7851904}, {"type": "node", "id": 5801145468, "lat": 24.6171111, "lon": 90.7851992}, {"type": "node", "id": 5801145469, "lat": 24.6171165, "lon": 90.7850522}, {"type": "node", "id": 6581785855, "lat": 24.8138706, "lon": 90.8582954, "tags": {"addr:city": "Atpara", "addr:street": "\u09a5\u09be\u09a8\u09be \u09b0\u09cb\u09a1", "amenity": "motel", "internet_access": "no", "name": "\u099c\u09c7\u09b2\u09be \u09aa\u09b0\u09bf\u09b7\u09a6 \u09a1\u09be\u0995\u09ac\u09be\u0982\u09b2\u09be", "opening_hours": "Mo-Su 07:00-23:00", "operator": "Government", "rooms": "5", "smoking": "no", "tourism": "motel", "wheelchair": "no"}}, {"type": "node", "id": 6869891767, "lat": 24.7166094, "lon": 90.9544033, "tags": {"addr:city": "Madan", "addr:street": "\u09ae\u09a6\u09a8 \u09ac\u09be\u099c\u09be\u09b0 \u09ae\u09c7\u0987\u09a8 \u09b0\u09cb\u09a1", "name": "Sagar Hotel", "name:bn": "\u09b8\u09be\u0997\u09b0 \u09b9\u09cb\u099f\u09c7\u09b2", "tourism": "hotel"}}, {"type": "node", "id": 6872898171, "lat": 24.7168858, "lon": 90.9482971, "tags": {"addr:": "\u09ae\u09a6\u09a8 \u09aa\u09b0\u09bf\u09b7\u09a6", "addr:postcode": "2490", "addr:street": "\u099c\u09be\u09b9\u09be\u0999\u09cd\u0997\u09c0\u09b0\u09aa\u09c1\u09b0 \u09b8\u09c7\u09a8\u09cd\u099f\u09be\u09b0 \u0995\u09c7\u09a6\u09cd\u09b0\u09c0\u09df \u09ac\u09be\u099c\u09be\u09b0", "name": "Hazrat Shah Jalal (R:) Hotel", "name:bn": "\u09b9\u09af\u09b0\u09a4 \u09b6\u09be\u09b9\u09cd \u099c\u09be\u09b2\u09be\u09b2 (\u09b0\u0983) \u09b9\u09cb\u099f\u09c7\u09b2", "tourism": "hotel"}}, {"type": "node", "id": 6873392726, "lat": 24.7166747, "lon": 90.9475863, "tags": {"addr:city": "madan", "addr:postcode": "2490", "addr:street": "\u099c\u09be\u09b9\u09be\u0999\u09cd\u0997\u09c0\u09b0\u09aa\u09c1\u09b0 \u09b8\u09c7\u09a8\u09cd\u099f\u09be\u09b0 \u09ae\u09c7\u0987\u09a8 \u09b0\u09cb\u09a1", "name": "Joy Ma Confectionery", "name:bn": "\u099c\u09df \u09ae\u09be \u09ae\u09bf\u09b7\u09cd\u099f\u09be\u09a8\u09cd\u09a8 \u09ad\u09be\u09a8\u09cd\u09a1\u09be\u09b0", "tourism": "hotel"}}, {"type": "node", "id": 6873700358, "lat": 24.7167391, "lon": 90.946461, "tags": {"addr:city": "madan", "addr:postcode": "2490", "addr:street": "\u099c\u09be\u09b9\u09be\u0999\u09cd\u0997\u09c0\u09b0\u09aa\u09c1\u09b0 \u09b8\u09c7\u09a8\u09cd\u099f\u09be\u09b0 \u09ae\u09c7\u0987\u09a8 \u09b0\u09cb\u09a1", "name": "Hotel", "name:bn": "\u099f\u09c7\u09ae\u09cd\u09aa\u09c1 \u09b9\u09cb\u099f\u09c7\u09b2", "tourism": "hotel"}}, {"type": "node", "id": 6875201463, "lat": 24.7166104, "lon": 90.956059, "tags": {"addr:street": "\u09ae\u09a6\u09a8 \u09ac\u09be\u099c\u09be\u09b0 \u09ae\u09c7\u0987\u09a8 \u09b0\u09cb\u09a1", "name": "Naba Ratna Hotel", "name:bn": "\u09a8\u09ac\u09b0\u09a4\u09cd\u09a8 \u09b9\u09cb\u099f\u09c7\u09b2", "tourism": "hotel"}}, {"type": "node", "id": 6877355024, "lat": 24.7169202, "lon": 90.9564446, "tags": {"addr:city": "Madan", "addr:street": "\u09ae\u09a6\u09a8 \u09ae\u09c7\u0987\u09a8 \u09b0\u09cb\u09a1", "name": "Animals Hospital", "name:bn": "\u09aa\u09b6\u09c1 \u09b9\u09be\u09b8\u09aa\u09be\u09a4\u09be\u09b2", "tourism": "hostel"}}, {"type": "node", "id": 6877506985, "lat": 24.7168854, "lon": 90.9487671, "tags": {"addr:street": "\u099c\u09be\u09b9\u09be\u0999\u09cd\u0997\u09c0\u09b0\u09aa\u09c1\u09b0 \u0995\u09c7\u09a8\u09cd\u09a6\u09cd\u09b0\u09c0\u09df \u09ac\u09be\u099c\u09be\u09b0 \u09ae\u09c7\u0987\u09a8 \u09b0\u09cb\u09a1", "name": "Vai Vai Hotel", "name:bn": "\u09ad\u09be\u0987 \u09ad\u09be\u0987 \u09b9\u09cb\u099f\u09c7\u09b2", "tourism": "hotel"}}, {"type": "node", "id": 6893202309, "lat": 24.7170526, "lon": 90.9480119, "tags": {"addr:city": "Madan", "addr:street": "\u099c\u09be\u09b9\u09be\u0999\u09cd\u0997\u09c0\u09b0\u09aa\u09c1\u09b0 \u09b8\u09c7\u09a8\u09cd\u099f\u09be\u09b0 \u09b0\u09be\u099c\u09cd\u099c\u09be\u0995 \u09ae\u09be\u09b0\u09cd\u0995\u09c7\u099f", "name": "Kashbon Sweets Fast-food & Cerf", "tourism": "hotel"}}, {"type": "node", "id": 6894308943, "lat": 24.717013, "lon": 90.9480168, "tags": {"addr:street": "\u0987\u09ac\u09cd\u09b0\u09be\u09b9\u09bf\u09ae \u09ae\u09be\u09b0\u09cd\u0995\u09c7\u099f \u09b0\u09cb\u09a1", "name": "Hotel Nirala", "name:bn": "\u09b9\u09cb\u099f\u09c7\u09b2 \u09a8\u09bf\u09b0\u09be\u09b2\u09be", "tourism": "hotel"}}, {"type": "node", "id": 6895527237, "lat": 24.7177756, "lon": 90.9439012, "tags": {"addr:street": "\u09b8\u09c7\u09a8\u09cd\u099f\u09be\u09b0 \u09aa\u09c1\u09b0\u09be\u09a4\u09a8 \u09ac\u09be\u09b8 \u09b8\u09cd\u099f\u09cd\u09af\u09be\u09a8\u09cd\u09a1", "name": "Abdullah Khabar Hotel", "name:bn": "\u0986\u09ac\u09cd\u09a6\u09c1\u09b2\u09cd\u09b2\u09be\u09b9 \u0996\u09be\u09ac\u09be\u09b0 \u09b9\u09cb\u099f\u09c7\u09b2", "tourism": "hotel"}}, {"type": "node", "id": 6899486918, "lat": 24.7148332, "lon": 90.9869477, "tags": {"addr:street": "\u0989\u099a\u09bf\u09a4\u09aa\u09c1\u09b0 \u09b0\u09cb\u09a1", "name": "\u099b\u09df \u09a4\u09be\u09b0\u09be \u09b9\u09cb\u099f\u09c7\u09b2", "tourism": "hotel"}}, {"type": "node", "id": 6899487613, "lat": 24.7148205, "lon": 90.9870299, "tags": {"addr:street": "\u0989\u099a\u09bf\u09a4\u09aa\u09c1\u09b0 \u09b0\u09cb\u09a1", "name": "Hazrat Shah Ali  Hotel", "name:bn": "\u09b9\u09af\u09b0\u09a4 \u09b6\u09be\u09b9\u09cd \u0986\u09b2\u09c0 \u09b9\u09cb\u099f\u09c7\u09b2", "tourism": "hotel"}}, {"type": "node", "id": 6904673459, "lat": 24.887254, "lon": 90.7452803}, {"type": "node", "id": 6904673460, "lat": 24.8871756, "lon": 90.7455325}, {"type": "node", "id": 6904673461, "lat": 24.8868452, "lon": 90.7454181}, {"type": "node", "id": 6904673462, "lat": 24.8869151, "lon": 90.7451472}, {"type": "node", "id": 11022023283, "lat": 24.662098, "lon": 90.8407342, "tags": {"name": "\u09a1\u09be\u0995 \u09ac\u09be\u0982\u09b2\u09cb", "name:bn": "\u09a1\u09be\u0995 \u09ac\u09be\u0982\u09b2\u09cb", "name:en": "Dak Bungalow", "tourism": "chalet"}}, {"type": "way", "id": 337545534, "nodes": [3446179785, 3446179777, 3446179712, 3446179714, 3446179785], "tags": {"addr:housenumber": "\u099b\u09be\u09a4\u09cd\u09b0\u09c0 \u09b9\u09cb\u09b8\u09cd\u099f\u09c7\u09b2 1", "addr:street": "purbodola Road", "building": "yes", "name": "Lady's College Hostel", "tourism": "hostel"}}, {"type": "way", "id": 539943224, "nodes": [5224145695, 5224145696, 5224145697, 5224145698, 5224145695], "tags": {"building": "yes", "name": "Shourov Hotel \u09b8\u09cc\u09b0\u09ad \u09b9\u09cb\u099f\u09c7\u09b2", "tourism": "hotel"}}, {"type": "way", "id": 539948118, "nodes": [5224198160, 5224198161, 5752360069, 5752359673, 5224198162, 5224198163, 5224198160], "tags": {"building": "yes"}}, {"type": "way", "id": 539950192, "nodes": [5224217959, 5224217960, 5224217961, 5224217962, 5224217959], "tags": {"building": "yes", "name": "Shapla Guest House", "tourism": "hotel"}}, {"type": "way", "id": 539951131, "nodes": [5224232486, 5224232487, 5224232488, 5224232489, 5224232486], "tags": {"building": "yes", "name": "Hotel Haor Inn,Mohanganj \u09b9\u09cb\u099f\u09c7\u09b2 \u09b9\u09be\u0993\u09a1\u09bc \u0987\u09a8, \u09ae\u09cb\u09b9\u09a8\u0997\u099e\u09cd\u099c\u09c7\u09b0", "tourism": "hotel"}}, {"type": "way", "id": 539953584, "nodes": [5224265802, 5224265803, 5224265804, 5224265805, 5224265802], "tags": {"building": "yes", "name": "Hotel Khalek \u09b9\u09cb\u099f\u09c7\u09b2 \u0996\u09be\u09b2\u09c7\u0995", "tourism": "hotel"}}, {"type": "way", "id": 596650933, "nodes": [5683207500, 5683207501, 5683207502, 5683207503, 5683207500], "tags": {"name": "\u0996\u09cb\u0981\u099c\u09be\u09b0 \u09a6\u09bf\u0998\u09c0", "name:bn": "\u0996\u09cb\u0981\u099c\u09be\u09b0 \u09a6\u09bf\u0998\u09c0", "natural": "water", "tourism": "attraction", "water": "pond"}}, {"type": "way", "id": 606810159, "nodes": [5752360060, 5752360059, 5752360058, 5752360057, 5752360060], "tags": {"name": "Hotel Kobir International and Kutumbari Restaurant"}}, {"type": "way", "id": 606810160, "nodes": [5752360064, 5752360061, 5752360062, 5752360063, 5752360064], "tags": {"building": "yes"}}, {"type": "way", "id": 612972927, "nodes": [5801145469, 5801145468, 5801145467, 5801145466, 5801145469], "tags": {"alt_name": "\u09b0\u09c1\u09df\u09be\u0987\u09b2\u09ac\u09be\u09dc\u09bf \u09a6\u09c1\u09b0\u09cd\u0997;Ruailbari Fort;Roailbari Durgo", "barrier": "wall", "castle_type": "fortress", "height": "1.6", "historic": "castle", "material": "brick", "name": "\u09b0\u09cb\u09df\u09be\u0987\u09b2\u09ac\u09be\u09dc\u09c0\u09b0 \u09a6\u09c1\u09b0\u09cd\u0997", "name:bn": "\u09b0\u09cb\u09df\u09be\u0987\u09b2\u09ac\u09be\u09dc\u09c0\u09b0 \u09a6\u09c1\u09b0\u09cd\u0997", "name:en": "Roailbari Fort", "tourism": "attraction", "website": "http://www.kendua.netrokona.gov.bd/site/tourist_spot/5590aecc-1e93-11e7-8f57-286ed488c766/\u09b0\u09cb\u09af\u09bc\u09be\u0987\u09b2%20\u09ac\u09be\u09a1\u09bc\u09c0", "wikidata": "Q31724743", "wikipedia": "bn:\u09b0\u09cb\u09af\u09bc\u09be\u0987\u09b2\u09ac\u09be\u09a1\u09bc\u09bf \u09a6\u09c1\u09b0\u09cd\u0997"}}, {"type": "way", "id": 737480171, "nodes": [6904673459, 6904673460, 6904673461, 6904673462, 6904673459], "tags": {"tourism": "trail_riding_station"}}, {"type": "relation", "id": 8440247, "members": [{"type": "way", "ref": 606810159, "role": "outer"}, {"type": "way", "ref": 606810160, "role": "inner"}, {"type": "way", "ref": 539948118, "role": "inner"}], "tags": {"name": "Hotel Kobir International", "tourism": "hotel", "type": "multipolygon"}}]}