{"version": 0.6, "generator": "Overpass API 0.7.62.1 084b4234", "osm3s": {"timestamp_osm_base": "2024-04-26T23:31:24Z", "copyright": "The data included in this document is from www.openstreetmap.org. The data is made available under ODbL."}, "elements": [{"type": "node", "id": 245735780, "lat": 25.5760446, "lon": 91.8825282, "tags": {"capital": "4", "is_capital": "state", "is_in:country": "India", "is_in:country_code": "IN", "name": "Shillong", "name:ar": "\u0634\u064a\u0644\u0648\u0646\u063a", "name:bn": "\u09b6\u09bf\u09b2\u0982", "name:cs": "\u0160illong", "name:de": "Shillong", "name:en": "Shillong", "name:es": "Shillong", "name:fa": "\u0634\u06cc\u0644\u0648\u0646\u06af", "name:fr": "Shillong", "name:hi": "\u0936\u093f\u0932\u093e\u0902\u0917", "name:ja": "\u30b7\u30ed\u30f3", "name:kn": "\u0cb6\u0cbf\u0cb2\u0ccd\u0cb2\u0cbe\u0c82\u0c97\u0ccd", "name:ml": "\u0d37\u0d3f\u0d32\u0d4d\u0d32\u0d4b\u0d19\u0d4d\u0d19\u0d4d", "name:mr": "\u0936\u093f\u0932\u093e\u0901\u0917", "name:ne": "\u0938\u093f\u0932\u094b\u0919", "name:ta": "\u0bb7\u0bbf\u0bb2\u0bcd\u0bb2\u0bbe\u0b99\u0bcd", "name:ur": "\u0634\u06cc\u0644\u0627\u0646\u06af", "place": "city", "population": "143000", "postal_code": "793001", "tourism": "attraction", "wikidata": "Q207752", "wikipedia": "en:Shillong"}}, {"type": "node", "id": 1365122774, "lat": 25.5670857, "lon": 91.8882049, "tags": {"name": "Lachumiere House", "tourism": "guest_house"}}, {"type": "node", "id": 2805759660, "lat": 25.5754958, "lon": 91.8894997}, {"type": "node", "id": 2805759662, "lat": 25.5755037, "lon": 91.8895598}, {"type": "node", "id": 2805759667, "lat": 25.5755265, "lon": 91.8895359}, {"type": "node", "id": 2805759670, "lat": 25.5755565, "lon": 91.8894363}, {"type": "node", "id": 2805759671, "lat": 25.5755755, "lon": 91.8896442}, {"type": "node", "id": 2805759673, "lat": 25.5756038, "lon": 91.8896147}, {"type": "node", "id": 2805759674, "lat": 25.5756108, "lon": 91.8896875}, {"type": "node", "id": 2805759675, "lat": 25.5756399, "lon": 91.8896571}, {"type": "node", "id": 2805759676, "lat": 25.5756673, "lon": 91.8897541}, {"type": "node", "id": 2805759677, "lat": 25.5756885, "lon": 91.8897842}, {"type": "node", "id": 2805759678, "lat": 25.5756983, "lon": 91.8897217}, {"type": "node", "id": 2805759679, "lat": 25.57572, "lon": 91.8898213}, {"type": "node", "id": 2805759680, "lat": 25.5757219, "lon": 91.8897494}, {"type": "node", "id": 2805759682, "lat": 25.575755, "lon": 91.8898061}, {"type": "node", "id": 2805759683, "lat": 25.5757591, "lon": 91.8897804}, {"type": "node", "id": 2805759684, "lat": 25.5757604, "lon": 91.8896763}, {"type": "node", "id": 2805759685, "lat": 25.5757688, "lon": 91.8897918}, {"type": "node", "id": 2805759686, "lat": 25.5757693, "lon": 91.889641}, {"type": "node", "id": 2805759687, "lat": 25.5757741, "lon": 91.8895429}, {"type": "node", "id": 2805759688, "lat": 25.575781, "lon": 91.8896548}, {"type": "node", "id": 2805759689, "lat": 25.5758075, "lon": 91.889508}, {"type": "node", "id": 2805759690, "lat": 25.5758136, "lon": 91.889875}, {"type": "node", "id": 2805759692, "lat": 25.575816, "lon": 91.8895922}, {"type": "node", "id": 2805759693, "lat": 25.5758437, "lon": 91.8895506}, {"type": "node", "id": 2805759695, "lat": 25.5758607, "lon": 91.889506}, {"type": "node", "id": 2805759696, "lat": 25.5758613, "lon": 91.8897788}, {"type": "node", "id": 2805759697, "lat": 25.5758712, "lon": 91.889421}, {"type": "node", "id": 2805759698, "lat": 25.5758727, "lon": 91.8895202}, {"type": "node", "id": 2805759699, "lat": 25.5758822, "lon": 91.8898034}, {"type": "node", "id": 2805759700, "lat": 25.5758892, "lon": 91.8894762}, {"type": "node", "id": 2805759702, "lat": 25.5759045, "lon": 91.8894602}, {"type": "node", "id": 2805759704, "lat": 25.5759358, "lon": 91.8893536}, {"type": "node", "id": 2805759705, "lat": 25.5759425, "lon": 91.8896941}, {"type": "node", "id": 2805759708, "lat": 25.5760669, "lon": 91.88967}, {"type": "node", "id": 2805759709, "lat": 25.5760677, "lon": 91.8898415}, {"type": "node", "id": 2805759710, "lat": 25.5760805, "lon": 91.8895239}, {"type": "node", "id": 2805759712, "lat": 25.5761194, "lon": 91.8894834}, {"type": "node", "id": 2805759714, "lat": 25.5761444, "lon": 91.8897613}, {"type": "node", "id": 2805759715, "lat": 25.5761787, "lon": 91.8895533}, {"type": "node", "id": 2805968738, "lat": 25.5667473, "lon": 91.8922709, "tags": {"name": "Assam House", "operator": "Govt. Of Assam", "tourism": "guest_house"}}, {"type": "node", "id": 2852867052, "lat": 25.5746528, "lon": 91.8836108}, {"type": "node", "id": 2852867053, "lat": 25.5746586, "lon": 91.8835589}, {"type": "node", "id": 2852867054, "lat": 25.5746899, "lon": 91.8833641}, {"type": "node", "id": 2852867055, "lat": 25.5746957, "lon": 91.8835351}, {"type": "node", "id": 2852867056, "lat": 25.5747016, "lon": 91.8836606}, {"type": "node", "id": 2852867057, "lat": 25.5747074, "lon": 91.883256}, {"type": "node", "id": 2852867058, "lat": 25.5747074, "lon": 91.8833879}, {"type": "node", "id": 2852867059, "lat": 25.5747348, "lon": 91.8832408}, {"type": "node", "id": 2852867060, "lat": 25.5747513, "lon": 91.8836621}, {"type": "node", "id": 2852867061, "lat": 25.5747826, "lon": 91.8836783}, {"type": "node", "id": 2852867062, "lat": 25.5748143, "lon": 91.8835427}, {"type": "node", "id": 2852867063, "lat": 25.574823, "lon": 91.8834746}, {"type": "node", "id": 2852867064, "lat": 25.574844, "lon": 91.8832516}, {"type": "node", "id": 2852867065, "lat": 25.5748489, "lon": 91.8836372}, {"type": "node", "id": 2852867066, "lat": 25.5748538, "lon": 91.8832819}, {"type": "node", "id": 2852867067, "lat": 25.5748562, "lon": 91.8835839}, {"type": "node", "id": 2852867068, "lat": 25.5748953, "lon": 91.883414}, {"type": "node", "id": 2852867069, "lat": 25.5749714, "lon": 91.8834573}, {"type": "node", "id": 2852867070, "lat": 25.5749723, "lon": 91.8834237}, {"type": "node", "id": 2852867071, "lat": 25.5749943, "lon": 91.8833079}, {"type": "node", "id": 2852867073, "lat": 25.5750211, "lon": 91.8835936}, {"type": "node", "id": 2852867074, "lat": 25.5750328, "lon": 91.8834649}, {"type": "node", "id": 2852867075, "lat": 25.5750402, "lon": 91.8832694}, {"type": "node", "id": 2852867077, "lat": 25.5750568, "lon": 91.883661}, {"type": "node", "id": 2852867078, "lat": 25.5750607, "lon": 91.8832683}, {"type": "node", "id": 2852867079, "lat": 25.575089, "lon": 91.8834511}, {"type": "node", "id": 2852867080, "lat": 25.5751065, "lon": 91.8833732}, {"type": "node", "id": 2852867081, "lat": 25.5751075, "lon": 91.8834317}, {"type": "node", "id": 2852867083, "lat": 25.5751241, "lon": 91.8833527}, {"type": "node", "id": 2854419888, "lat": 25.5707312, "lon": 91.8867705}, {"type": "node", "id": 2854419889, "lat": 25.5707805, "lon": 91.8866694}, {"type": "node", "id": 2854419890, "lat": 25.5706837, "lon": 91.8867384}, {"type": "node", "id": 2854419891, "lat": 25.5708379, "lon": 91.8869542}, {"type": "node", "id": 2854419892, "lat": 25.5708066, "lon": 91.8867145}, {"type": "node", "id": 2854419893, "lat": 25.5709782, "lon": 91.8868541}, {"type": "node", "id": 2854419894, "lat": 25.5708706, "lon": 91.8866689}, {"type": "node", "id": 2854419895, "lat": 25.5707108, "lon": 91.886785}, {"type": "node", "id": 2854432956, "lat": 25.576003, "lon": 91.8821006}, {"type": "node", "id": 2854432961, "lat": 25.5761458, "lon": 91.8821704}, {"type": "node", "id": 2854432963, "lat": 25.5760079, "lon": 91.8824332}, {"type": "node", "id": 2854432964, "lat": 25.5759982, "lon": 91.8824064}, {"type": "node", "id": 2854432970, "lat": 25.5760635, "lon": 91.8824252}, {"type": "node", "id": 2854432973, "lat": 25.5760345, "lon": 91.8824413}, {"type": "node", "id": 2854432977, "lat": 25.5759679, "lon": 91.8820872}, {"type": "node", "id": 2854432978, "lat": 25.5759377, "lon": 91.8821006}, {"type": "node", "id": 3178189938, "lat": 25.5670821, "lon": 91.9025162, "tags": {"name": "Landmark Hotel", "tourism": "hotel"}}, {"type": "node", "id": 3448029577, "lat": 25.5474118, "lon": 91.874989, "tags": {"name": "Shillong Peak View Point", "tourism": "viewpoint"}}, {"type": "node", "id": 3512781809, "lat": 25.571333, "lon": 91.8714934}, {"type": "node", "id": 3512781810, "lat": 25.5713493, "lon": 91.871375}, {"type": "node", "id": 3512781812, "lat": 25.5714028, "lon": 91.8714494}, {"type": "node", "id": 3512781813, "lat": 25.5714116, "lon": 91.8713855}, {"type": "node", "id": 3512781814, "lat": 25.5714266, "lon": 91.8715093}, {"type": "node", "id": 3512781816, "lat": 25.5714341, "lon": 91.8714547}, {"type": "node", "id": 3585438593, "lat": 25.5617425, "lon": 91.9010098, "tags": {"addr:city": "Shillong", "addr:postcode": "793014", "addr:street": "Spring Side Rd, Nongthymmai", "amenity": "disused", "description": "Reportedly permanently closed", "name": "Waving Pines Lodge", "note": "icytreats@gmail.com", "smoking": "outside", "tourism": "guest_house", "website": "https://www.airbnb.co.in/rooms/6330362"}}, {"type": "node", "id": 3700966927, "lat": 25.592776, "lon": 91.8824925}, {"type": "node", "id": 3700966928, "lat": 25.5932524, "lon": 91.8825344}, {"type": "node", "id": 3700966929, "lat": 25.5931216, "lon": 91.8823681}, {"type": "node", "id": 3700966931, "lat": 25.5928366, "lon": 91.8826883}, {"type": "node", "id": 3701112645, "lat": 25.5499029, "lon": 92.1669033, "tags": {"tourism": "camp_site"}}, {"type": "node", "id": 3701118493, "lat": 25.5743561, "lon": 92.2171629}, {"type": "node", "id": 3701118494, "lat": 25.5732933, "lon": 92.2160168}, {"type": "node", "id": 3701118495, "lat": 25.5734827, "lon": 92.2156555}, {"type": "node", "id": 3701118496, "lat": 25.5749409, "lon": 92.2162152}, {"type": "node", "id": 4411556890, "lat": 25.6053036, "lon": 91.8803238, "tags": {"addr:street": "Nehu", "name": "Indira Gandhi National Open University", "tourism": "attraction"}}, {"type": "node", "id": 4544256492, "lat": 25.5769935, "lon": 91.8809494, "tags": {"internet_access": "wlan", "name": "Hotel Embassy", "name:en": "Hotel Embassy", "phone": "03642223164", "tourism": "hotel"}}, {"type": "node", "id": 4555300891, "lat": 25.5753401, "lon": 91.8826755, "tags": {"internet_access": "wlan", "name": "Bramhome Guest House", "name:en": "Bramhome Guest House", "phone": "03642226683", "tourism": "guest_house"}}, {"type": "node", "id": 4769127025, "lat": 25.5746872, "lon": 91.8855029, "tags": {"tourism": "hotel"}}, {"type": "node", "id": 4965261523, "lat": 25.5772642, "lon": 91.8850987, "tags": {"addr:postcode": "793001", "addr:street": "okland road, police bazar", "name": "Earle Holiday Home", "name:en": "Earle Holiday Home", "phone": "9863302149", "tourism": "hotel"}}, {"type": "node", "id": 5209509422, "lat": 25.5676497, "lon": 91.9006362, "tags": {"addr:street": "Laitumkhrah Main Road C/o Mimmolis Gatphoh, Behind Ramkrishna Dispensary, Lummawrie, Shillong, 79300", "name": "Esabella Hostel", "phone": "+91 81310 20113", "tourism": "hostel"}}, {"type": "node", "id": 5219524722, "lat": 25.569539, "lon": 91.8839432, "tags": {"name": "State Museum", "tourism": "museum"}}, {"type": "node", "id": 5305803921, "lat": 25.5756394, "lon": 91.8815626, "tags": {"name": "rainbow hotel", "opening_hours": "Mo-Su 07:00-22:00", "tourism": "apartment"}}, {"type": "node", "id": 5351785119, "lat": 25.5741988, "lon": 92.2164609, "tags": {"archaeological_site": "megalith", "historic": "archaeological_site", "name": "Nartiang Monoliths", "tourism": "attraction"}}, {"type": "node", "id": 5352508989, "lat": 25.5736732, "lon": 92.2163348}, {"type": "node", "id": 5352508990, "lat": 25.5740143, "lon": 92.2166862}, {"type": "node", "id": 5352508991, "lat": 25.5750111, "lon": 92.2165614}, {"type": "node", "id": 5352508992, "lat": 25.5746458, "lon": 92.2159016}, {"type": "node", "id": 5352508993, "lat": 25.5741861, "lon": 92.2155932}, {"type": "node", "id": 5380913853, "lat": 25.4814778, "lon": 91.9311094, "tags": {"name": "Thangsning", "tourism": "attraction", "waterway": "waterfall"}}, {"type": "node", "id": 5380914138, "lat": 25.4728347, "lon": 91.9227509, "tags": {"ele": "1913", "name": "Rableng Hill", "natural": "peak", "tourism": "attraction"}}, {"type": "node", "id": 5380914438, "lat": 25.4488186, "lon": 91.9114374, "tags": {"name": "Laitlum Grand Canyon", "name:bn": "\u09b2\u09be\u0987\u099f\u09b2\u09c1\u09ae \u0997\u09cd\u09b0\u09cd\u09af\u09be\u09a8\u09cd\u09a1 \u0995\u09cd\u09af\u09be\u09a8\u09bf\u09af\u09bc\u09a8", "name:en": "Laitlum Grand Canyon", "name:hi": "\u0932\u0948\u091f\u0932\u092e \u0917\u094d\u0930\u093e\u0902\u0921 \u0915\u0948\u0928\u094d\u092f\u0928", "tourism": "viewpoint"}}, {"type": "node", "id": 5380914650, "lat": 25.4446515, "lon": 91.8959261, "tags": {"name": "Lumheh Laitkyrhong View Point", "tourism": "viewpoint"}}, {"type": "node", "id": 5381238428, "lat": 25.5598834, "lon": 91.9344798}, {"type": "node", "id": 5381238429, "lat": 25.5599594, "lon": 91.9344762}, {"type": "node", "id": 5381238430, "lat": 25.5599546, "lon": 91.9343103}, {"type": "node", "id": 5381238431, "lat": 25.5598786, "lon": 91.934313}, {"type": "node", "id": 5381238432, "lat": 25.5600479, "lon": 91.9344731}, {"type": "node", "id": 5381238433, "lat": 25.5598459, "lon": 91.9344811}, {"type": "node", "id": 5381238434, "lat": 25.5598498, "lon": 91.9346168}, {"type": "node", "id": 5381238435, "lat": 25.5600519, "lon": 91.9346096}, {"type": "node", "id": 5381238657, "lat": 25.5606874, "lon": 91.9585463, "tags": {"name": "Sweet Falls", "tourism": "attraction", "waterway": "waterfall"}}, {"type": "node", "id": 5381238666, "lat": 25.5649508, "lon": 91.9562303, "tags": {"name": "Sweet Falls View Point", "tourism": "viewpoint"}}, {"type": "node", "id": 5381238925, "lat": 25.5088656, "lon": 91.9380194, "tags": {"name": "Rengthiam", "tourism": "attraction", "waterway": "waterfall"}}, {"type": "node", "id": 5381302073, "lat": 25.3445181, "lon": 92.1126285, "tags": {"name": "Pdem Falls", "tourism": "attraction", "waterway": "waterfall"}}, {"type": "node", "id": 5381302074, "lat": 25.3453883, "lon": 92.1127948, "tags": {"name": "Pdem Falls", "tourism": "attraction", "waterway": "waterfall"}}, {"type": "node", "id": 5381302075, "lat": 25.3459362, "lon": 92.1127385, "tags": {"name": "Pdem Falls", "tourism": "attraction", "waterway": "waterfall"}}, {"type": "node", "id": 5381302076, "lat": 25.3464695, "lon": 92.112194, "tags": {"name": "Pdem Falls", "tourism": "attraction", "waterway": "waterfall"}}, {"type": "node", "id": 5381302709, "lat": 25.3492685, "lon": 92.0531934, "tags": {"name": "Maw Blei", "natural": "rock", "tourism": "attraction"}}, {"type": "node", "id": 5381302820, "lat": 25.353271, "lon": 92.0613554, "tags": {"name": "Wahrashi Falls", "tourism": "attraction", "waterway": "waterfall"}}, {"type": "node", "id": 5381302822, "lat": 25.353974, "lon": 92.061393, "tags": {"name": "Wahrashi Falls", "tourism": "attraction", "waterway": "waterfall"}}, {"type": "node", "id": 5381302824, "lat": 25.3545411, "lon": 92.0613071, "tags": {"name": "Wahrashi Falls", "tourism": "attraction", "waterway": "waterfall"}}, {"type": "node", "id": 5547515922, "lat": 25.5775211, "lon": 91.8813374, "tags": {"name": "Galaxy Guesthouse", "tourism": "guest_house"}}, {"type": "node", "id": 5547526722, "lat": 25.576628, "lon": 91.883093, "tags": {"name": "Little Castle Inn", "tourism": "guest_house"}}, {"type": "node", "id": 5547526822, "lat": 25.575665, "lon": 91.881456, "tags": {"name": "India Tourism Office", "tourism": "information"}}, {"type": "node", "id": 5826253754, "lat": 25.5958528, "lon": 91.9082201, "tags": {"addr:city": "Shillong", "addr:postcode": "793003", "addr:street": "Lagkyrding - Mawpat Road", "guest_house": "guest_house", "name": "Latei Ville Inn", "tourism": "guest_house"}}, {"type": "node", "id": 5864925488, "lat": 25.58129, "lon": 91.8744012, "tags": {"name": "George Badwar", "tourism": "apartment"}}, {"type": "node", "id": 5864949385, "lat": 25.5851384, "lon": 91.8703794, "tags": {"name": "Amelia Warjri", "tourism": "apartment"}}, {"type": "node", "id": 6076276487, "lat": 25.5605771, "lon": 91.8994586, "tags": {"name": "Kynjai homestay", "operator": "Dajied", "tourism": "guest_house", "website": "http://Airbnb.com"}}, {"type": "node", "id": 6100973277, "lat": 25.5951159, "lon": 91.8974716, "tags": {"addr:city": "Shillong", "addr:postcode": "793008", "addr:street": "Kynton Lieh, Marwroh", "internet_access": "yes", "name": "Tranquill Cottage", "smoking": "yes", "tourism": "guest_house"}}, {"type": "node", "id": 6196883990, "lat": 25.3451258, "lon": 91.8910387, "tags": {"name": "Viewpoint", "tourism": "attraction"}}, {"type": "node", "id": 6218143886, "lat": 25.5641367, "lon": 91.8788217}, {"type": "node", "id": 6218143887, "lat": 25.5641367, "lon": 91.8789096}, {"type": "node", "id": 6218143888, "lat": 25.5640237, "lon": 91.8788724}, {"type": "node", "id": 6218143889, "lat": 25.5640439, "lon": 91.8787844}, {"type": "node", "id": 6382900286, "lat": 25.35014, "lon": 92.1462154, "tags": {"addr:street": "West Jaintia Hills", "email": "donbokbuam44@gmail.com", "name": "Paradise Adventure Camp", "opening_hours": "24/7", "operator": "Mr. Donbok", "phone": "+917005107717", "tourism": "camp_site", "website": "https://krangshuriadventuretours.com/"}}, {"type": "node", "id": 6404548498, "lat": 25.4860854, "lon": 91.9057896, "tags": {"tourism": "camp_site"}}, {"type": "node", "id": 6461934686, "lat": 25.5671928, "lon": 91.9006064, "tags": {"name": "Ila cottage", "name:en": "ILA Traveller\u2019s Cottage", "tourism": "guest_house"}}, {"type": "node", "id": 6507580786, "lat": 25.351774, "lon": 92.1607349, "tags": {"name": "Way to base of Phe Phe Falls", "tourism": "information"}}, {"type": "node", "id": 6865318685, "lat": 25.5676725, "lon": 91.8724965, "tags": {"name": "Cheapest Oyo Dew Drop", "tourism": "hotel"}}, {"type": "node", "id": 6959439767, "lat": 25.5845378, "lon": 91.8872242, "tags": {"addr:city": "Shillong", "addr:postcode": "793001", "guest_house": "guest_house", "name": "Rainforest Guest House", "operator": "Forest & Environment Department, Meghalaya", "tourism": "guest_house"}}, {"type": "node", "id": 6959904409, "lat": 25.5806398, "lon": 91.8881464, "tags": {"name": "Orchid Hotel", "tourism": "hotel"}}, {"type": "node", "id": 6959904410, "lat": 25.5809224, "lon": 91.8874229, "tags": {"name": "Majestic Hotel", "tourism": "hotel"}}, {"type": "node", "id": 6959904413, "lat": 25.580756, "lon": 91.8867953, "tags": {"name": "Hotel Polo Towers", "tourism": "hotel"}}, {"type": "node", "id": 6959952559, "lat": 25.5762206, "lon": 91.8837153, "tags": {"name": "Hotel Pegasus Crown", "tourism": "hotel"}}, {"type": "node", "id": 6959952560, "lat": 25.5763607, "lon": 91.882997, "tags": {"name": "Magnum Hotel", "tourism": "hotel"}}, {"type": "node", "id": 6959992048, "lat": 25.5777812, "lon": 91.8800178, "tags": {"tourism": "hotel"}}, {"type": "node", "id": 6969847915, "lat": 25.5567677, "lon": 91.9054674, "tags": {"name": "RGIIM Barracks", "operator": "RGIIM Shillong", "tourism": "hostel"}}, {"type": "node", "id": 6975904996, "lat": 25.5600415, "lon": 91.9047989, "tags": {"tourism": "guest_house"}}, {"type": "node", "id": 6975942512, "lat": 25.5572208, "lon": 91.9049837, "tags": {"name": "NIFT Hostel", "tourism": "hostel"}}, {"type": "node", "id": 6979049685, "lat": 25.5749736, "lon": 91.8850396, "tags": {"name": "Lake View Inn Hotel", "tourism": "hotel"}}, {"type": "node", "id": 7006079885, "lat": 25.5755262, "lon": 91.8813644, "tags": {"internet_access": "wlan", "name": "Hotel Rainbow", "tourism": "hotel"}}, {"type": "node", "id": 7015867685, "lat": 25.5505985, "lon": 92.064706, "tags": {"name": "Pinky hotel", "tourism": "hotel"}}, {"type": "node", "id": 7015867686, "lat": 25.5510085, "lon": 92.0621194, "tags": {"name": "Hotel & Dhaba", "tourism": "hotel"}}, {"type": "node", "id": 7016154789, "lat": 25.4948777, "lon": 92.1716727, "tags": {"name": "High winds campsite", "tourism": "camp_site"}}, {"type": "node", "id": 7016154790, "lat": 25.4835838, "lon": 92.171444, "tags": {"name": "Tyrchi Inn", "tourism": "hotel"}}, {"type": "node", "id": 7016156486, "lat": 25.4963763, "lon": 92.1707259, "tags": {"name": "Orchid Inn", "tourism": "hotel"}}, {"type": "node", "id": 7016157386, "lat": 25.468724, "lon": 92.1828955, "tags": {"name": "RD Restwell", "tourism": "guest_house"}}, {"type": "node", "id": 7016217286, "lat": 25.4441672, "lon": 92.1958436, "tags": {"name": "New Broadway", "tourism": "hotel"}}, {"type": "node", "id": 7016301085, "lat": 25.4671313, "lon": 92.2467051, "tags": {"name": "Pine Breeze", "phone": "9436565005", "tourism": "guest_house"}}, {"type": "node", "id": 7025353385, "lat": 25.5816224, "lon": 91.8801886, "tags": {"name": "Butterfly museum", "tourism": "museum"}}, {"type": "node", "id": 7025361585, "lat": 25.5684009, "lon": 91.8913797, "tags": {"name": "Cathedral of Mary Help of Christians", "tourism": "attraction"}}, {"type": "node", "id": 7106037486, "lat": 25.5769494, "lon": 91.8834859, "tags": {"internet_access": "wlan", "name": "Elgin Hotel (300rps a night)", "tourism": "hostel"}}, {"type": "node", "id": 7242742887, "lat": 25.5459069, "lon": 91.8828119, "tags": {"name": "Military area", "tourism": "information"}}, {"type": "node", "id": 9651790849, "lat": 25.575793, "lon": 91.8895651}, {"type": "node", "id": 10570248225, "lat": 25.4272017, "lon": 92.1159702, "tags": {"name": "Nongirong viewpoint", "tourism": "viewpoint"}}, {"type": "node", "id": 10570254227, "lat": 25.3853091, "lon": 91.9676267, "tags": {"name": "Broken hut", "tourism": "wilderness_hut"}}, {"type": "node", "id": 10593583435, "lat": 25.5689065, "lon": 91.8727957, "tags": {"addr:city": "Shillong, Meghalaya", "addr:postcode": "793004", "addr:street": "Near Meghalaya Legislative Assembly", "name": "Brookside Bunglow Rabindranath Tagore Museum", "tourism": "museum"}}, {"type": "node", "id": 10602146254, "lat": 25.594019, "lon": 91.8842919}, {"type": "node", "id": 10602146255, "lat": 25.59413, "lon": 91.8843346}, {"type": "node", "id": 10602146256, "lat": 25.5941941, "lon": 91.8840409}, {"type": "node", "id": 10602146257, "lat": 25.5940937, "lon": 91.8836763}, {"type": "node", "id": 10602146258, "lat": 25.5939784, "lon": 91.883655}, {"type": "node", "id": 10602146259, "lat": 25.5939848, "lon": 91.883584}, {"type": "node", "id": 10602146260, "lat": 25.5941172, "lon": 91.8836005}, {"type": "node", "id": 10602146261, "lat": 25.5941151, "lon": 91.8836597}, {"type": "node", "id": 10602146262, "lat": 25.5942475, "lon": 91.8836811}, {"type": "node", "id": 10695055017, "lat": 25.5619297, "lon": 91.9014996, "tags": {"addr:housenumber": "23", "addr:street": "Springside Rd", "name": "Mimosa Ridge", "tourism": "guest_house"}}, {"type": "node", "id": 10695055019, "lat": 25.5641122, "lon": 91.9033917, "tags": {"internet_access": "wlan", "name": "Stone Crest Homestay", "tourism": "guest_house"}}, {"type": "node", "id": 10729485269, "lat": 25.5705074, "lon": 91.8953107, "tags": {"guest_house": "apartment", "name": "Hotel Yalana", "operator": "Hotel Yalana", "tourism": "guest_house"}}, {"type": "node", "id": 10819423105, "lat": 25.5802444, "lon": 91.8963953, "tags": {"internet_access": "wlan", "name:de": "The Nest Executive Inn", "tourism": "hotel"}}, {"type": "node", "id": 10893520678, "lat": 25.5801821, "lon": 91.8971746}, {"type": "node", "id": 10893520679, "lat": 25.5800324, "lon": 91.8972053}, {"type": "node", "id": 10893520680, "lat": 25.579977, "lon": 91.8966658}, {"type": "node", "id": 10893520681, "lat": 25.5801284, "lon": 91.8966081}, {"type": "node", "id": 10893611816, "lat": 25.5803858, "lon": 91.8986848, "tags": {"brand": "2 Star", "name": "The Saad", "tourism": "hotel"}}, {"type": "node", "id": 10895790415, "lat": 25.5756553, "lon": 91.8809701, "tags": {"name": "Baba Tourist Lodge", "tourism": "hotel"}}, {"type": "node", "id": 10895796630, "lat": 25.5778803, "lon": 91.8838146, "tags": {"name": "Hotel Grace", "tourism": "hotel"}}, {"type": "node", "id": 11647347469, "lat": 25.591848, "lon": 91.9376941, "tags": {"name": "NEIGRIHMS guest house", "tourism": "guest_house"}}, {"type": "node", "id": 11744704039, "lat": 25.6319719, "lon": 91.8913842, "tags": {"name": "RJ Homestay", "tourism": "hotel"}}, {"type": "node", "id": 11747479120, "lat": 25.5714632, "lon": 91.8966073}, {"type": "node", "id": 11747479121, "lat": 25.5714566, "lon": 91.896779}, {"type": "node", "id": 11747479122, "lat": 25.5716695, "lon": 91.8967944}, {"type": "node", "id": 11747479123, "lat": 25.5717711, "lon": 91.8967736}, {"type": "node", "id": 11747479124, "lat": 25.5717651, "lon": 91.8966268}, {"type": "node", "id": 11747529374, "lat": 25.5931931, "lon": 91.8822796}, {"type": "node", "id": 11747529375, "lat": 25.5932469, "lon": 91.8821964}, {"type": "node", "id": 11747529376, "lat": 25.5933223, "lon": 91.8821978}, {"type": "node", "id": 11747529377, "lat": 25.5933793, "lon": 91.8822709}, {"type": "node", "id": 11747529378, "lat": 25.5934066, "lon": 91.8823731}, {"type": "node", "id": 11747529379, "lat": 25.5934009, "lon": 91.8824578}, {"type": "node", "id": 11747529380, "lat": 25.5933448, "lon": 91.8825162}, {"type": "node", "id": 11747529381, "lat": 25.5932611, "lon": 91.8825159}, {"type": "node", "id": 11747529404, "lat": 25.5926841, "lon": 91.8827196, "tags": {"artwork_type": "statue", "subject:wikidata": "Q302", "tourism": "artwork"}}, {"type": "node", "id": 11747529406, "lat": 25.5928072, "lon": 91.8825932, "tags": {"entrance": "main"}}, {"type": "node", "id": 11819935687, "lat": 25.570952, "lon": 91.8959071, "tags": {"addr:street": "Laitumkhrah Main Road", "name": "Cherrily\u2019s Duplex", "tourism": "apartment"}}, {"type": "node", "id": 11838768369, "lat": 25.5707573, "lon": 91.8990415, "tags": {"addr:street": "Laitumkhrah", "name": "Cassiopeia Guesthouse", "tourism": "guest_house"}}, {"type": "way", "id": 275922018, "nodes": [2805759704, 2805759710, 2805759712, 2805759715, 2805759708, 2805759714, 2805759709, 2805759705, 2805759696, 2805759699, 2805759690, 2805759682, 2805759685, 2805759683, 2805759679, 2805759677, 2805759680, 2805759678, 2805759676, 2805759674, 2805759675, 2805759673, 2805759671, 2805759662, 2805759667, 2805759660, 2805759670, 2805759684, 2805759688, 2805759686, 2805759692, 9651790849, 2805759687, 2805759689, 2805759693, 2805759698, 2805759695, 2805759700, 2805759702, 2805759697, 2805759704], "tags": {"building": "yes", "name": "Pine Wood Hotel", "operator": "ITDC", "tourism": "hotel"}}, {"type": "way", "id": 281318877, "nodes": [2852867071, 2852867066, 2852867064, 2852867059, 2852867057, 2852867054, 2852867058, 2852867055, 2852867053, 2852867052, 2852867056, 2852867060, 2852867061, 2852867065, 2852867077, 2852867079, 2852867081, 2852867080, 2852867083, 2852867078, 2852867075, 2852867071]}, {"type": "way", "id": 281318878, "nodes": [2852867074, 2852867073, 2852867067, 2852867062, 2852867063, 2852867068, 2852867070, 2852867069, 2852867074]}, {"type": "way", "id": 281482229, "nodes": [2854419891, 2854419893, 2854419894, 2854419892, 2854419889, 2854419890, 2854419895, 2854419888, 2854419891], "tags": {"building": "yes", "name": "Youth Hostel, Shillong", "tourism": "hostel"}}, {"type": "way", "id": 281484046, "nodes": [2854432961, 2854432970, 2854432973, 2854432963, 2854432964, 2854432978, 2854432977, 2854432956, 2854432961], "tags": {"building": "yes", "name": "Hotel Center Point", "tourism": "hotel"}}, {"type": "way", "id": 344537988, "nodes": [3512781813, 3512781812, 3512781816, 3512781814, 3512781809, 3512781810, 3512781813], "tags": {"name": "Rhino Museum", "tourism": "attraction"}}, {"type": "way", "id": 366108712, "nodes": [3700966927, 11747529406, 3700966931, 3700966928, 11747529381, 11747529380, 11747529379, 11747529378, 11747529377, 11747529376, 11747529375, 11747529374, 3700966929, 3700966927], "tags": {"building": "public", "name": "Don Bosco Museum", "tourism": "museum"}}, {"type": "way", "id": 366124310, "nodes": [3701118496, 5352508992, 5352508993, 3701118495, 3701118494, 5352508989, 5352508990, 3701118493, 5352508991, 3701118496], "tags": {"historic": "archaeological_site", "leisure": "garden", "name": "Stone garden", "tourism": "attraction"}}, {"type": "way", "id": 558050852, "nodes": [5381238428, 5381238431, 5381238430, 5381238429, 5381238432, 5381238435, 5381238434, 5381238433, 5381238428], "tags": {"building": "yes", "name": "Ever Living Museum", "tourism": "museum"}}, {"type": "way", "id": 664351075, "nodes": [6218143886, 6218143887, 6218143888, 6218143889, 6218143886], "tags": {"addr:city": "Shillong", "addr:postcode": "793004", "addr:street": "Laban east road", "building": "yes", "email": "alamaison.shillong@gmail.com", "internet_access": "wlan", "internet_access:fee": "no", "name": "A la Maison", "operator": "Mrs Vino Paswet", "phone": "+91 708 54 00 631", "rooms": "3", "smoking": "isolated", "tourism": "guest_house", "website": "https://www.booking.com/hotel/in/a-la-maison"}}, {"type": "way", "id": 1137353839, "nodes": [10602146256, 10602146255, 10602146254, 10602146257, 10602146258, 10602146259, 10602146260, 10602146261, 10602146262, 10602146256], "tags": {"building": "yes", "name": "Sacred Heart Convent", "tourism": "hostel"}}, {"type": "way", "id": 1172468394, "nodes": [10893520678, 10893520679, 10893520680, 10893520681, 10893520678], "tags": {"building": "yes", "name": "Hotel Knight Inn", "tourism": "hotel"}}, {"type": "way", "id": 1264438367, "nodes": [11747479120, 11747479121, 11747479122, 11747479123, 11747479124, 11747479120], "tags": {"building": "yes", "name": "Poinisuk", "tourism": "hotel"}}, {"type": "relation", "id": 3736546, "members": [{"type": "way", "ref": 281318877, "role": "outer"}, {"type": "way", "ref": 281318878, "role": "inner"}], "tags": {"building": "yes", "name": "Hotel Vivanta", "tourism": "hotel", "type": "multipolygon"}}]}